{"version": 0.6, "generator": "Overpass API 0.7.62.5 1bd436f1", "osm3s": {"timestamp_osm_base": "2025-05-13T19:22:30Z", "copyright": "The data included in this document is from www.openstreetmap.org. The data is made available under ODbL."}, "elements": [{"type": "node", "id": 31555767, "lat": 54.4310924, "lon": -2.9624445, "tags": {"addr:city": "Ambleside", "addr:postcode": "LA22 9BU", "addr:street": "Market Place", "amenity": "pub", "brand": "Greene King", "brand:wikidata": "Q5564162", "fhrs:id": "299111", "name": "Royal Oak", "website": "https://www.greeneking.co.uk/pubs/cumbria/royal-oak", "wikidata": "Q26562086"}}, {"type": "node", "id": 31555769, "lat": 54.4313791, "lon": -2.9621712, "tags": {"addr:city": "Ambleside", "addr:postcode": "LA22 9DB", "addr:street": "Market Place", "amenity": "pub", "brand": "Ember Inns", "brand:wikidata": "Q116272278", "contact:website": "https://www.emberinns.co.uk/nationalsearch/northwest/the-white-lion-hotel-ambleside", "fhrs:id": "299308", "name": "The White Lion", "tourism": "hotel"}}, {"type": "node", "id": 31620516, "lat": 54.3748256, "lon": -2.8143374, "tags": {"addr:city": "Staveley", "addr:postcode": "LA8 9LP", "addr:street": "Main Street", "amenity": "pub", "fhrs:id": "299606", "name": "Eagle and Child", "phone": "+44 1539 821320", "website": "https://www.eaglechildinn.co.uk/"}}, {"type": "node", "id": 31632098, "lat": 54.3895292, "lon": -2.9945205}, {"type": "node", "id": 34709500, "lat": 54.2017555, "lon": -2.8351978}, {"type": "node", "id": 34709911, "lat": 54.2033396, "lon": -2.833075}, {"type": "node", "id": 60892511, "lat": 54.3254452, "lon": -2.7478085, "tags": {"addr:city": "Kendal", "addr:housenumber": "98", "addr:postcode": "LA9 4HE", "addr:street": "Highgate", "amenity": "pub", "fixme": "Double check name and if pub or restaurant", "name": "98 Highgate", "wikidata": "Q26438845"}}, {"type": "node", "id": 60892519, "lat": 54.3283992, "lon": -2.745456, "tags": {"addr:city": "Kendal", "addr:housenumber": "40-42", "addr:postcode": "LA9 4TX", "addr:street": "Branthwaite Brow", "amenity": "pub", "fhrs:id": "298944", "name": "George & Dragon", "operator": "Stonegate", "operator:wikidata": "Q7619176", "phone": "+44 1539 726635", "website": "https://www.craftunionpubs.com/george-and-dragon-kendal"}}, {"type": "node", "id": 60936606, "lat": 54.3285404, "lon": -2.7466074, "tags": {"addr:city": "Kendal", "addr:housenumber": "8", "addr:postcode": "LA9 4TN", "addr:street": "Market Place", "amenity": "pub", "fhrs:id": "328567", "name": "The Principal", "outdoor_seating": "yes", "phone": "+44 1539 721852", "wikidata": "Q26431462"}}, {"type": "node", "id": 253264677, "lat": 54.58615, "lon": -2.9409318}, {"type": "node", "id": 255655484, "lat": 54.4334769, "lon": -2.9626896, "tags": {"addr:city": "Ambleside", "addr:postcode": "LA22 9AS", "addr:street": "Smithy Brow", "amenity": "pub", "fhrs:id": "441645", "food": "no", "name": "Golden Rule", "outdoor_seating": "yes", "source": "local_knowledge"}}, {"type": "node", "id": 289876342, "lat": 54.4588612, "lon": -3.0249694, "tags": {"addr:city": "Grasmere", "addr:housename": "The Inn at Grasmere", "addr:postcode": "LA22 9SS", "addr:street": "Red Lion Square", "amenity": "pub", "name": "1769 Bar & Restaurant", "old_name": "The Lamb Inn", "source": "survey"}}, {"type": "node", "id": 291355519, "lat": 54.3217457, "lon": -3.0194705}, {"type": "node", "id": 318919616, "lat": 54.2033871, "lon": -2.7320446}, {"type": "node", "id": 353119348, "lat": 54.2012837, "lon": -2.954249, "tags": {"addr:city": "Cartmel", "addr:postcode": "LA11 6QA", "addr:street": "Cavendish Street", "amenity": "pub", "fhrs:id": "328887", "name": "Cavendish Arms", "phone": "+44 15395 36240", "website": "https://www.thecavendisharms.co.uk/", "wikidata": "Q26391268"}}, {"type": "node", "id": 409552195, "lat": 54.4223897, "lon": -3.0128156, "tags": {"addr:city": "Skelwith Bridge", "amenity": "pub", "name": "The Talbot Bar"}}, {"type": "node", "id": 486596257, "lat": 54.2180365, "lon": -2.9013077}, {"type": "node", "id": 511236656, "lat": 54.351778, "lon": -2.9701337}, {"type": "node", "id": 521203185, "lat": 54.4213113, "lon": -2.9632722, "tags": {"amenity": "pub", "indoor_seating": "yes", "name": "Wateredge Inn", "outdoor_seating": "yes", "source": "survey"}}, {"type": "node", "id": 626873832, "lat": 54.3274802, "lon": -2.7477736, "tags": {"addr:city": "Kendal", "addr:postcode": "LA9 4SX", "addr:street": "Highgate", "amenity": "pub", "fhrs:id": "328927", "name": "Olde Fleece Inn", "outdoor_seating": "yes"}}, {"type": "node", "id": 736852844, "lat": 54.4197151, "lon": -2.9001155, "tags": {"amenity": "pub", "name": "The Haybarn Inn"}}, {"type": "node", "id": 738063398, "lat": 54.2551773, "lon": -3.1700757, "tags": {"addr:city": "Grizebeck", "addr:postcode": "LA17 7XJ", "amenity": "pub", "fhrs:id": "328566", "food": "yes", "name": "The Greyhound"}}, {"type": "node", "id": 746858073, "lat": 54.3690906, "lon": -3.0756175, "tags": {"addr:city": "Coniston", "addr:postcode": "LA21 8DU", "addr:street": "Yewdale Road", "amenity": "pub", "fhrs:id": "328978", "food": "yes", "name": "The Yewdale Inn", "real_ale": "yes", "source": "survey", "website": "https://yewdaleinn.com/the-pub/", "wheelchair": "limited"}}, {"type": "node", "id": 746858165, "lat": 54.369273, "lon": -3.0744019, "tags": {"addr:city": "Coniston", "addr:postcode": "LA21 8ED", "addr:street": "Tilberthwaite Avenue", "amenity": "pub", "fhrs:id": "299880", "name": "Crown Inn", "operator": "Robinsons", "outdoor_seating": "yes", "phone": "+44 1539 441 243", "source": "survey", "website": "https://www.crowninnconiston.com/", "wikimedia_commons": "File:The Crown Inn, Coniston - geograph.org.uk - 4784196.jpg"}}, {"type": "node", "id": 746858332, "lat": 54.4318641, "lon": -2.9621255, "tags": {"accommodation": "yes", "addr:city": "Ambleside", "addr:postcode": "LA22 9BU", "addr:street": "Market Place", "amenity": "pub", "fhrs:id": "328741", "food": "yes", "name": "The Ambleside Inn", "operator": "The Inn Collection Group", "phone": "+44 15394 93333", "website": "https://www.inncollectiongroup.com/ambleside-inn/"}}, {"type": "node", "id": 746858465, "lat": 54.3747423, "lon": -2.9984895, "tags": {"accommodation": "yes", "addr:city": "Hawkshead", "addr:postcode": "LA22 0NS", "addr:street": "Main Street", "amenity": "pub", "dog": "yes", "fhrs:id": "299658", "food": "yes", "name": "Queen's Head", "phone": "+44 15394 36271", "source": "survey", "website": "https://queensheadhawkshead.co.uk/", "wheelchair": "no", "wikidata": "Q26379687"}}, {"type": "node", "id": 844541439, "lat": 54.3389079, "lon": -3.1018721}, {"type": "node", "id": 844541440, "lat": 54.3388621, "lon": -3.1016477}, {"type": "node", "id": 844541444, "lat": 54.3385767, "lon": -3.1020218}, {"type": "node", "id": 844541445, "lat": 54.3386177, "lon": -3.1021486}, {"type": "node", "id": 845346548, "lat": 54.2181118, "lon": -2.9015315}, {"type": "node", "id": 845346549, "lat": 54.2180064, "lon": -2.9015704}, {"type": "node", "id": 845346550, "lat": 54.2179678, "lon": -2.9012651}, {"type": "node", "id": 848654172, "lat": 54.326051, "lon": -2.7478587, "tags": {"addr:city": "Kendal", "addr:housenumber": "78", "addr:postcode": "LA9 4HE", "addr:street": "Highgate", "amenity": "pub", "fhrs:id": "299071", "name": "The Shakespeare Inn", "phone": "+44 1539 724069", "website": "https://www.theshakespeareinn.co.uk/"}}, {"type": "node", "id": 848669306, "lat": 54.3276489, "lon": -2.7478265, "tags": {"addr:city": "Kendal", "addr:housenumber": "2", "addr:postcode": "LA9 4SX", "addr:street": "Highgate", "amenity": "pub", "fhrs:id": "298834", "name": "White Hart", "phone": "+44 1539 739870", "website": "https://www.robinsonsbrewery.com/whitehartkendal"}}, {"type": "node", "id": 849542425, "lat": 54.2009393, "lon": -2.7606542}, {"type": "node", "id": 849542427, "lat": 54.2010134, "lon": -2.7608953}, {"type": "node", "id": 849542436, "lat": 54.2009848, "lon": -2.7610641}, {"type": "node", "id": 849542437, "lat": 54.2008423, "lon": -2.760819}, {"type": "node", "id": 906048877, "lat": 54.432973, "lon": -2.9623607, "tags": {"addr:city": "Ambleside", "addr:postcode": "LA22 9DT", "addr:street": "North Road", "amenity": "pub", "fhrs:id": "299312", "name": "The Unicorn"}}, {"type": "node", "id": 920498075, "lat": 54.3670776, "lon": -2.9217476, "tags": {"addr:city": "Bowness-on-Windermere", "addr:place": "Fallbarrow Park", "addr:postcode": "LA23 3DL", "addr:street": "Rayrigg Road", "amenity": "pub", "food": "yes", "name": "The Willow", "outdoor_seating": "yes"}}, {"type": "node", "id": 1073215798, "lat": 54.2694087, "lon": -3.0877657}, {"type": "node", "id": 1073215804, "lat": 54.2694439, "lon": -3.0875855}, {"type": "node", "id": 1073215806, "lat": 54.2693829, "lon": -3.0874958}, {"type": "node", "id": 1073215807, "lat": 54.2693397, "lon": -3.087728}, {"type": "node", "id": 1096599576, "lat": 54.277574, "lon": -3.2109044}, {"type": "node", "id": 1096599986, "lat": 54.2775482, "lon": -3.2111082}, {"type": "node", "id": 1096600823, "lat": 54.2776184, "lon": -3.2110416}, {"type": "node", "id": 1096600924, "lat": 54.2775038, "lon": -3.210971}, {"type": "node", "id": 1096714195, "lat": 54.276845, "lon": -3.2127319}, {"type": "node", "id": 1096714377, "lat": 54.27685, "lon": -3.2126293}, {"type": "node", "id": 1096714427, "lat": 54.2770795, "lon": -3.2127875}, {"type": "node", "id": 1096714596, "lat": 54.2769473, "lon": -3.2128387}, {"type": "node", "id": 1096714738, "lat": 54.2768125, "lon": -3.2126892}, {"type": "node", "id": 1096714827, "lat": 54.2769198, "lon": -3.2126977}, {"type": "node", "id": 1096714933, "lat": 54.2768475, "lon": -3.2124071}, {"type": "node", "id": 1096715156, "lat": 54.2768774, "lon": -3.2127917}, {"type": "node", "id": 1096715354, "lat": 54.2768749, "lon": -3.2126763}, {"type": "node", "id": 1096715489, "lat": 54.2770034, "lon": -3.2128744}, {"type": "node", "id": 1096715527, "lat": 54.2769747, "lon": -3.2129071}, {"type": "node", "id": 1096715680, "lat": 54.2769722, "lon": -3.2127789}, {"type": "node", "id": 1096715772, "lat": 54.2767526, "lon": -3.2125951}, {"type": "node", "id": 1100394099, "lat": 54.3381493, "lon": -3.1033242}, {"type": "node", "id": 1100394120, "lat": 54.3381044, "lon": -3.1034351}, {"type": "node", "id": 1100394129, "lat": 54.3382013, "lon": -3.1035492}, {"type": "node", "id": 1100394160, "lat": 54.3382003, "lon": -3.1031967}, {"type": "node", "id": 1100394167, "lat": 54.3381277, "lon": -3.1031111}, {"type": "node", "id": 1100394171, "lat": 54.3382458, "lon": -3.103438}, {"type": "node", "id": 1100394181, "lat": 54.3387335, "lon": -3.1019107}, {"type": "node", "id": 1100394203, "lat": 54.3387182, "lon": -3.1018635}, {"type": "node", "id": 1100394204, "lat": 54.3380796, "lon": -3.1034972}, {"type": "node", "id": 1100394215, "lat": 54.3380072, "lon": -3.103412}, {"type": "node", "id": 1268024136, "lat": 54.3303751, "lon": -2.7388528, "tags": {"addr:city": "Kendal", "addr:housename": "Castle Inn", "addr:housenumber": "13", "addr:postcode": "LA9 7AA", "addr:street": "Castle Street", "amenity": "pub", "name": "Castle Inn"}}, {"type": "node", "id": 1359365483, "lat": 54.2786679, "lon": -2.768984}, {"type": "node", "id": 1634203116, "lat": 54.3984327, "lon": -3.2700965}, {"type": "node", "id": 1634203117, "lat": 54.3984269, "lon": -3.2702285}, {"type": "node", "id": 1634203119, "lat": 54.3983329, "lon": -3.2702163}, {"type": "node", "id": 1634203122, "lat": 54.3982421, "lon": -3.2703647}, {"type": "node", "id": 1634203123, "lat": 54.398255, "lon": -3.2700734}, {"type": "node", "id": 1634203124, "lat": 54.3983258, "lon": -3.2703756}, {"type": "node", "id": 1687585846, "lat": 54.3625129, "lon": -3.0787693, "tags": {"addr:postcode": "LA21 8HB", "addr:village": "Bowmanstead", "amenity": "pub", "fhrs:id": "299895", "name": "The Ship Inn", "source:addr": "FHRS Open Data"}}, {"type": "node", "id": 1730923398, "lat": 54.4455065, "lon": -3.1026994}, {"type": "node", "id": 1736741038, "lat": 54.4486241, "lon": -3.0896102}, {"type": "node", "id": 1736741191, "lat": 54.4485326, "lon": -3.0895153}, {"type": "node", "id": 1736741366, "lat": 54.4487406, "lon": -3.0893546}, {"type": "node", "id": 1736741519, "lat": 54.4486292, "lon": -3.0892392}, {"type": "node", "id": 1745919484, "lat": 54.4674225, "lon": -3.2568889}, {"type": "node", "id": 1745919486, "lat": 54.4675558, "lon": -3.2572346}, {"type": "node", "id": 1745919488, "lat": 54.4674146, "lon": -3.2567411}, {"type": "node", "id": 1745919495, "lat": 54.4676577, "lon": -3.2566985}, {"type": "node", "id": 1745919499, "lat": 54.4676641, "lon": -3.2568254}, {"type": "node", "id": 1745919501, "lat": 54.467701, "lon": -3.2568132}, {"type": "node", "id": 1745919502, "lat": 54.4677549, "lon": -3.2570543}, {"type": "node", "id": 1752978719, "lat": 54.3961876, "lon": -3.2713384}, {"type": "node", "id": 1752978737, "lat": 54.3962703, "lon": -3.2710937}, {"type": "node", "id": 1752978780, "lat": 54.3963416, "lon": -3.2711649}, {"type": "node", "id": 1752978783, "lat": 54.3963664, "lon": -3.2710915}, {"type": "node", "id": 1752978785, "lat": 54.3963707, "lon": -3.27135}, {"type": "node", "id": 1752978787, "lat": 54.3964235, "lon": -3.2715736}, {"type": "node", "id": 1752978793, "lat": 54.3964667, "lon": -3.2714458}, {"type": "node", "id": 1752978798, "lat": 54.3963931, "lon": -3.2711182}, {"type": "node", "id": 1752979437, "lat": 54.3979049, "lon": -3.2488956}, {"type": "node", "id": 1752979446, "lat": 54.3979168, "lon": -3.2484432}, {"type": "node", "id": 1752979502, "lat": 54.3979729, "lon": -3.2484475}, {"type": "node", "id": 1752979511, "lat": 54.3979825, "lon": -3.2480826}, {"type": "node", "id": 1752979518, "lat": 54.3979908, "lon": -3.2489022}, {"type": "node", "id": 1752979522, "lat": 54.3979988, "lon": -3.2485968}, {"type": "node", "id": 1752979543, "lat": 54.3980751, "lon": -3.2486027}, {"type": "node", "id": 1752979548, "lat": 54.3980885, "lon": -3.2480908}, {"type": "node", "id": 1947829949, "lat": 54.4027424, "lon": -3.0017715}, {"type": "node", "id": 1947829957, "lat": 54.4027574, "lon": -3.0019401}, {"type": "node", "id": 1947829974, "lat": 54.4027861, "lon": -3.0016726}, {"type": "node", "id": 1947830022, "lat": 54.4028982, "lon": -3.0016431}, {"type": "node", "id": 2092051947, "lat": 54.2320357, "lon": -3.1865965}, {"type": "node", "id": 2127672105, "lat": 54.6001533, "lon": -3.137143}, {"type": "node", "id": 2127672109, "lat": 54.6000946, "lon": -3.1372123}, {"type": "node", "id": 2127672135, "lat": 54.6001043, "lon": -3.1369645}, {"type": "node", "id": 2127672143, "lat": 54.6000821, "lon": -3.136884}, {"type": "node", "id": 2127672160, "lat": 54.6001112, "lon": -3.1370841}, {"type": "node", "id": 2127672162, "lat": 54.599966, "lon": -3.137017}, {"type": "node", "id": 2127672198, "lat": 54.6000272, "lon": -3.1369308}, {"type": "node", "id": 2127672213, "lat": 54.6001218, "lon": -3.1370089}, {"type": "node", "id": 2127672219, "lat": 54.6000226, "lon": -3.1371008}, {"type": "node", "id": 2141111001, "lat": 54.2195271, "lon": -2.8027562}, {"type": "node", "id": 2141111008, "lat": 54.2195507, "lon": -2.8027431}, {"type": "node", "id": 2141111011, "lat": 54.2195492, "lon": -2.8024052}, {"type": "node", "id": 2141111014, "lat": 54.2196341, "lon": -2.8028505}, {"type": "node", "id": 2141111017, "lat": 54.2195772, "lon": -2.8028823}, {"type": "node", "id": 2141111020, "lat": 54.2194888, "lon": -2.8024389}, {"type": "node", "id": 2201795010, "lat": 54.3034995, "lon": -2.7147335, "tags": {"addr:city": "Oxenholme", "addr:postcode": "LA9 7RF", "amenity": "pub", "fhrs:id": "299324", "name": "The Station Inn", "website": "http://www.stationinnoxenholme.co.uk"}}, {"type": "node", "id": 2203632097, "lat": 54.3278956, "lon": -2.7465075}, {"type": "node", "id": 2304271554, "lat": 54.3147123, "lon": -2.7277576}, {"type": "node", "id": 2304271556, "lat": 54.3147164, "lon": -2.7280705}, {"type": "node", "id": 2304271557, "lat": 54.3145293, "lon": -2.7280778}, {"type": "node", "id": 2304271559, "lat": 54.3145252, "lon": -2.7277648}, {"type": "node", "id": 2339430715, "lat": 54.5128226, "lon": -3.1399332}, {"type": "node", "id": 2339430718, "lat": 54.5128984, "lon": -3.1398272}, {"type": "node", "id": 2339430721, "lat": 54.5129955, "lon": -3.1401449}, {"type": "node", "id": 2339430723, "lat": 54.5130535, "lon": -3.1400055}, {"type": "node", "id": 2388836017, "lat": 54.5863266, "lon": -2.9410546}, {"type": "node", "id": 2388836022, "lat": 54.586253, "lon": -2.9413699}, {"type": "node", "id": 2388836036, "lat": 54.5861103, "lon": -2.9414387}, {"type": "node", "id": 2388836047, "lat": 54.5860426, "lon": -2.9413916}, {"type": "node", "id": 2388836074, "lat": 54.5861441, "lon": -2.9412941}, {"type": "node", "id": 2400970474, "lat": 54.3537626, "lon": -3.1902085}, {"type": "node", "id": 2400970486, "lat": 54.3536454, "lon": -3.1895141}, {"type": "node", "id": 2400970490, "lat": 54.3535229, "lon": -3.1899664}, {"type": "node", "id": 2400970493, "lat": 54.353822, "lon": -3.1900969}, {"type": "node", "id": 2400970504, "lat": 54.3536827, "lon": -3.1898213}, {"type": "node", "id": 2400970505, "lat": 54.3535089, "lon": -3.1896765}, {"type": "node", "id": 2400970506, "lat": 54.353474, "lon": -3.1899298}, {"type": "node", "id": 2400970510, "lat": 54.3535271, "lon": -3.1896902}, {"type": "node", "id": 2400970511, "lat": 54.3536723, "lon": -3.1898623}, {"type": "node", "id": 2400970512, "lat": 54.3535452, "lon": -3.1900691}, {"type": "node", "id": 2400970516, "lat": 54.3535336, "lon": -3.1899244}, {"type": "node", "id": 2400970525, "lat": 54.353567, "lon": -3.1894581}, {"type": "node", "id": 2400970531, "lat": 54.3535836, "lon": -3.1897519}, {"type": "node", "id": 2400970533, "lat": 54.3535743, "lon": -3.1899549}, {"type": "node", "id": 2476574087, "lat": 54.433046, "lon": -2.9638993}, {"type": "node", "id": 2476574098, "lat": 54.4332885, "lon": -2.9640462}, {"type": "node", "id": 2476574112, "lat": 54.4331989, "lon": -2.9638672}, {"type": "node", "id": 2476574158, "lat": 54.4330981, "lon": -2.9636113}, {"type": "node", "id": 2476574173, "lat": 54.4331558, "lon": -2.9637049}, {"type": "node", "id": 2476574176, "lat": 54.4332143, "lon": -2.9637819}, {"type": "node", "id": 2476574214, "lat": 54.4331297, "lon": -2.9636282}, {"type": "node", "id": 2476574233, "lat": 54.4331193, "lon": -2.9636855}, {"type": "node", "id": 2476574237, "lat": 54.433309, "lon": -2.963926}, {"type": "node", "id": 2476574246, "lat": 54.4331483, "lon": -2.9637466}, {"type": "node", "id": 2542683509, "lat": 54.3276595, "lon": -2.7447195}, {"type": "node", "id": 2542683545, "lat": 54.3277333, "lon": -2.7448271}, {"type": "node", "id": 2542683550, "lat": 54.327747, "lon": -2.7445037}, {"type": "node", "id": 2542683565, "lat": 54.3277443, "lon": -2.7446713}, {"type": "node", "id": 2542683579, "lat": 54.3277807, "lon": -2.7447242}, {"type": "node", "id": 2542683589, "lat": 54.3277872, "lon": -2.7445639}, {"type": "node", "id": 2628269532, "lat": 54.3247145, "lon": -2.7211341}, {"type": "node", "id": 2628269534, "lat": 54.3247266, "lon": -2.7209676}, {"type": "node", "id": 2628269535, "lat": 54.3245459, "lon": -2.7209292}, {"type": "node", "id": 2628269549, "lat": 54.3245339, "lon": -2.7210957}, {"type": "node", "id": 2658104746, "lat": 54.5439897, "lon": -2.9558325}, {"type": "node", "id": 2658104847, "lat": 54.5441396, "lon": -2.9559595}, {"type": "node", "id": 2658104899, "lat": 54.5441382, "lon": -2.9558281}, {"type": "node", "id": 2658104907, "lat": 54.5439916, "lon": -2.9559725}, {"type": "node", "id": 2876331884, "lat": 54.4378987, "lon": -3.0467012}, {"type": "node", "id": 2876333207, "lat": 54.4376507, "lon": -3.0466723}, {"type": "node", "id": 2876333217, "lat": 54.4378988, "lon": -3.0467299}, {"type": "node", "id": 2876333236, "lat": 54.4375955, "lon": -3.0465453}, {"type": "node", "id": 2876333237, "lat": 54.4379577, "lon": -3.0465307}, {"type": "node", "id": 2876333243, "lat": 54.4377061, "lon": -3.0464143}, {"type": "node", "id": 2876333244, "lat": 54.4378322, "lon": -3.046532}, {"type": "node", "id": 2876333250, "lat": 54.4379584, "lon": -3.0467293}, {"type": "node", "id": 2876333258, "lat": 54.4376502, "lon": -3.0465447}, {"type": "node", "id": 2876333260, "lat": 54.4378319, "lon": -3.0464637}, {"type": "node", "id": 2876333266, "lat": 54.4375951, "lon": -3.0464154}, {"type": "node", "id": 2897079913, "lat": 54.4489364, "lon": -3.0886464, "tags": {"amenity": "pub", "name": "Walker's Bar"}}, {"type": "node", "id": 2929845274, "lat": 54.2396171, "lon": -2.8585576}, {"type": "node", "id": 2985572333, "lat": 54.2007223, "lon": -2.9542026, "tags": {"addr:city": "Cartmel", "addr:postcode": "LA11 6QB", "addr:street": "The Square", "amenity": "pub", "check_date": "2024-08-29", "check_date:opening_hours": "2025-04-23", "contact:email": "hello@royaloakcartmel.co.uk", "contact:facebook": "https://www.facebook.com/the.royal.oak.cartmel", "contact:instagram": "https://www.instagram.com/the.royal.oak.cartmel", "contact:phone": "+44 1539 536692", "contact:website": "https://royaloakcartmel.co.uk/", "fhrs:id": "328830", "name": "The Royal Oak", "opening_hours": "Mo-Th 12:00-22:00; Fr-Sa 12:00-23:00; Su 12:00-21:00", "outdoor_seating": "yes", "phone": "+44 15395 36259", "source:opening_hours": "website", "wikidata": "Q26392488"}}, {"type": "node", "id": 2985996710, "lat": 54.3738806, "lon": -2.9068416}, {"type": "node", "id": 2985996711, "lat": 54.3739596, "lon": -2.9069683}, {"type": "node", "id": 2985996712, "lat": 54.373925, "lon": -2.9070553}, {"type": "node", "id": 2985996713, "lat": 54.3739023, "lon": -2.9070279}, {"type": "node", "id": 2985996714, "lat": 54.3738587, "lon": -2.9071399}, {"type": "node", "id": 2985996715, "lat": 54.3737935, "lon": -2.9070699}, {"type": "node", "id": 2986018488, "lat": 54.5506882, "lon": -3.0572243}, {"type": "node", "id": 2986018489, "lat": 54.5506835, "lon": -3.057358}, {"type": "node", "id": 2986018490, "lat": 54.5503538, "lon": -3.0573241}, {"type": "node", "id": 2986018491, "lat": 54.5503604, "lon": -3.0571598}, {"type": "node", "id": 2990517506, "lat": 54.2549888, "lon": -3.072564}, {"type": "node", "id": 2990517507, "lat": 54.2550297, "lon": -3.0728296}, {"type": "node", "id": 2990517508, "lat": 54.255061, "lon": -3.0722537}, {"type": "node", "id": 2990517513, "lat": 54.2551589, "lon": -3.0725304}, {"type": "node", "id": 2990517514, "lat": 54.2551891, "lon": -3.0723575}, {"type": "node", "id": 2990517515, "lat": 54.2551906, "lon": -3.0729164}, {"type": "node", "id": 2990517516, "lat": 54.255223, "lon": -3.0727847}, {"type": "node", "id": 2990517517, "lat": 54.255294, "lon": -3.0727275}, {"type": "node", "id": 2990517518, "lat": 54.2553193, "lon": -3.0726187}, {"type": "node", "id": 2996031598, "lat": 54.5857263, "lon": -3.1731007}, {"type": "node", "id": 2996031599, "lat": 54.5857196, "lon": -3.1732019}, {"type": "node", "id": 2996031600, "lat": 54.5855923, "lon": -3.1731767}, {"type": "node", "id": 2996031601, "lat": 54.5855876, "lon": -3.1732474}, {"type": "node", "id": 2996031602, "lat": 54.5854837, "lon": -3.1732269}, {"type": "node", "id": 2996031603, "lat": 54.5854221, "lon": -3.1731429}, {"type": "node", "id": 2996031604, "lat": 54.5853504, "lon": -3.1731287}, {"type": "node", "id": 2996031605, "lat": 54.5853571, "lon": -3.1730279}, {"type": "node", "id": 3017867734, "lat": 54.5408364, "lon": -3.2777264, "tags": {"addr:city": "Buttermere", "addr:housename": "Buttermere Court Hotel", "addr:postcode": "CA13 9XA", "amenity": "pub", "name": "The Buttermere Court Hotel"}}, {"type": "node", "id": 3055223311, "lat": 54.3536331, "lon": -3.1895613}, {"type": "node", "id": 3075282089, "lat": 54.3223981, "lon": -2.819215}, {"type": "node", "id": 3075282090, "lat": 54.3223498, "lon": -2.8191028}, {"type": "node", "id": 3075282091, "lat": 54.3223318, "lon": -2.819132}, {"type": "node", "id": 3075282092, "lat": 54.3222801, "lon": -2.81901}, {"type": "node", "id": 3075282093, "lat": 54.3221863, "lon": -2.8191379}, {"type": "node", "id": 3075282094, "lat": 54.3221646, "lon": -2.8190866}, {"type": "node", "id": 3075282095, "lat": 54.3221387, "lon": -2.8191307}, {"type": "node", "id": 3075282096, "lat": 54.3221752, "lon": -2.8191981}, {"type": "node", "id": 3075282097, "lat": 54.3220755, "lon": -2.819357}, {"type": "node", "id": 3075282099, "lat": 54.322203, "lon": -2.819331}, {"type": "node", "id": 3075282100, "lat": 54.3222452, "lon": -2.8194242}, {"type": "node", "id": 3075290753, "lat": 54.348817, "lon": -2.8256354}, {"type": "node", "id": 3075290754, "lat": 54.3489111, "lon": -2.8251573}, {"type": "node", "id": 3075290755, "lat": 54.3488079, "lon": -2.8250976}, {"type": "node", "id": 3075290756, "lat": 54.3487139, "lon": -2.8255756}, {"type": "node", "id": 3079197259, "lat": 54.4674319, "lon": -3.256738}, {"type": "node", "id": 3220201167, "lat": 54.2110693, "lon": -3.2707786}, {"type": "node", "id": 3220649676, "lat": 54.3044378, "lon": -3.1967971}, {"type": "node", "id": 3247861157, "lat": 54.2194051, "lon": -2.8023777}, {"type": "node", "id": 3247861261, "lat": 54.2194383, "lon": -2.8025523}, {"type": "node", "id": 3247861266, "lat": 54.2194702, "lon": -2.8023414}, {"type": "node", "id": 3247861267, "lat": 54.2194835, "lon": -2.8025271}, {"type": "node", "id": 3256447345, "lat": 54.2508739, "lon": -3.2619429}, {"type": "node", "id": 3256447346, "lat": 54.2508841, "lon": -3.2621006}, {"type": "node", "id": 3256447347, "lat": 54.2508459, "lon": -3.2620994}, {"type": "node", "id": 3256447348, "lat": 54.2508432, "lon": -3.2623469}, {"type": "node", "id": 3256447349, "lat": 54.250775, "lon": -3.2623422}, {"type": "node", "id": 3256447350, "lat": 54.2507716, "lon": -3.2622733}, {"type": "node", "id": 3256447351, "lat": 54.25073, "lon": -3.2622769}, {"type": "node", "id": 3256447352, "lat": 54.2507293, "lon": -3.2621893}, {"type": "node", "id": 3256447353, "lat": 54.2507777, "lon": -3.2621916}, {"type": "node", "id": 3256447354, "lat": 54.250777, "lon": -3.2620912}, {"type": "node", "id": 3256447355, "lat": 54.2507313, "lon": -3.2620912}, {"type": "node", "id": 3256447356, "lat": 54.25073, "lon": -3.2620434}, {"type": "node", "id": 3256447357, "lat": 54.2506427, "lon": -3.2620387}, {"type": "node", "id": 3256447358, "lat": 54.2506413, "lon": -3.2619324}, {"type": "node", "id": 3270154424, "lat": 54.4213816, "lon": -3.0549006}, {"type": "node", "id": 3270154568, "lat": 54.4213357, "lon": -3.054875}, {"type": "node", "id": 3270154569, "lat": 54.4213817, "lon": -3.0545906}, {"type": "node", "id": 3270154570, "lat": 54.42145, "lon": -3.0546288}, {"type": "node", "id": 3270154571, "lat": 54.4214452, "lon": -3.0546543}, {"type": "node", "id": 3270154572, "lat": 54.421552, "lon": -3.054714}, {"type": "node", "id": 3270154573, "lat": 54.4215374, "lon": -3.0547914}, {"type": "node", "id": 3270154574, "lat": 54.4216395, "lon": -3.0548099}, {"type": "node", "id": 3270154575, "lat": 54.4216144, "lon": -3.0549424}, {"type": "node", "id": 3270165167, "lat": 54.4314265, "lon": -3.038097}, {"type": "node", "id": 3270165168, "lat": 54.4314268, "lon": -3.038229}, {"type": "node", "id": 3270165169, "lat": 54.431218, "lon": -3.038232}, {"type": "node", "id": 3270165170, "lat": 54.4311326, "lon": -3.0382949}, {"type": "node", "id": 3270165171, "lat": 54.4310901, "lon": -3.0381142}, {"type": "node", "id": 3270165178, "lat": 54.4312894, "lon": -3.0379764}, {"type": "node", "id": 3270165179, "lat": 54.4312868, "lon": -3.0381186}, {"type": "node", "id": 3270165190, "lat": 54.4311425, "lon": -3.0379108}, {"type": "node", "id": 3270165191, "lat": 54.4309666, "lon": -3.0380292}, {"type": "node", "id": 3270180114, "lat": 54.4346055, "lon": -3.0378115}, {"type": "node", "id": 3270180115, "lat": 54.4345571, "lon": -3.0379223}, {"type": "node", "id": 3270180116, "lat": 54.4345331, "lon": -3.0378913}, {"type": "node", "id": 3270180119, "lat": 54.4344619, "lon": -3.0379587}, {"type": "node", "id": 3270180120, "lat": 54.4344462, "lon": -3.0379945}, {"type": "node", "id": 3270180121, "lat": 54.4343971, "lon": -3.0379311}, {"type": "node", "id": 3270180122, "lat": 54.4343971, "lon": -3.0378898}, {"type": "node", "id": 3270180123, "lat": 54.4344799, "lon": -3.0377}, {"type": "node", "id": 3270180124, "lat": 54.4345267, "lon": -3.0377603}, {"type": "node", "id": 3270180125, "lat": 54.4345408, "lon": -3.037728}, {"type": "node", "id": 3270628487, "lat": 54.2480019, "lon": -3.0025055}, {"type": "node", "id": 3270628488, "lat": 54.2479397, "lon": -3.0029305}, {"type": "node", "id": 3270628490, "lat": 54.2479189, "lon": -3.0024359}, {"type": "node", "id": 3282430212, "lat": 54.2095023, "lon": -3.2695445}, {"type": "node", "id": 3282430213, "lat": 54.2094424, "lon": -3.2694421}, {"type": "node", "id": 3282430214, "lat": 54.2092998, "lon": -3.2697089}, {"type": "node", "id": 3282430215, "lat": 54.2093624, "lon": -3.269804}, {"type": "node", "id": 3282430216, "lat": 54.2095534, "lon": -3.2694497}, {"type": "node", "id": 3282430217, "lat": 54.20924, "lon": -3.2696163}, {"type": "node", "id": 3282430219, "lat": 54.2095156, "lon": -3.2695198, "tags": {"entrance": "yes"}}, {"type": "node", "id": 3282430220, "lat": 54.2094114, "lon": -3.2697146, "tags": {"entrance": "yes"}}, {"type": "node", "id": 3301231099, "lat": 54.4571264, "lon": -3.0219468}, {"type": "node", "id": 3301231102, "lat": 54.4571674, "lon": -3.0221143}, {"type": "node", "id": 3301231113, "lat": 54.4571982, "lon": -3.0218947}, {"type": "node", "id": 3301231115, "lat": 54.457223, "lon": -3.022074}, {"type": "node", "id": 3344910397, "lat": 54.2075462, "lon": -3.259591}, {"type": "node", "id": 3344910398, "lat": 54.2075452, "lon": -3.2598084}, {"type": "node", "id": 3344910399, "lat": 54.2076404, "lon": -3.2598093}, {"type": "node", "id": 3344910400, "lat": 54.2076409, "lon": -3.2596873}, {"type": "node", "id": 3344910401, "lat": 54.2077227, "lon": -3.2596891}, {"type": "node", "id": 3344910402, "lat": 54.2077232, "lon": -3.2595961}, {"type": "node", "id": 3390380385, "lat": 54.2094375, "lon": -3.2692648}, {"type": "node", "id": 3391079795, "lat": 54.5560495, "lon": -2.7519901}, {"type": "node", "id": 3391079796, "lat": 54.5560487, "lon": -2.7520955}, {"type": "node", "id": 3391079797, "lat": 54.5558595, "lon": -2.7520995}, {"type": "node", "id": 3391079798, "lat": 54.5558726, "lon": -2.7519395}, {"type": "node", "id": 3391079800, "lat": 54.555955, "lon": -2.7519711}, {"type": "node", "id": 3391094277, "lat": 54.5556153, "lon": -2.7409223}, {"type": "node", "id": 3391094278, "lat": 54.5555914, "lon": -2.7411439}, {"type": "node", "id": 3391094279, "lat": 54.55568, "lon": -2.7411724}, {"type": "node", "id": 3391094280, "lat": 54.5556854, "lon": -2.7411224}, {"type": "node", "id": 3391094281, "lat": 54.5557785, "lon": -2.7411523}, {"type": "node", "id": 3391094282, "lat": 54.5557952, "lon": -2.7410358}, {"type": "node", "id": 3391094283, "lat": 54.5557191, "lon": -2.7410119}, {"type": "node", "id": 3391094284, "lat": 54.555725, "lon": -2.7409575}, {"type": "node", "id": 3392416527, "lat": 54.5346568, "lon": -2.933901}, {"type": "node", "id": 3392416528, "lat": 54.5346092, "lon": -2.9339727}, {"type": "node", "id": 3392416530, "lat": 54.5345085, "lon": -2.933677}, {"type": "node", "id": 3392416531, "lat": 54.5345744, "lon": -2.9338067}, {"type": "node", "id": 3392416532, "lat": 54.5345939, "lon": -2.9337771}, {"type": "node", "id": 3392416568, "lat": 54.5346944, "lon": -2.9350461}, {"type": "node", "id": 3392416569, "lat": 54.5345479, "lon": -2.9362638}, {"type": "node", "id": 3392416570, "lat": 54.5344363, "lon": -2.9361632}, {"type": "node", "id": 3395081110, "lat": 54.4713927, "lon": -3.0255604}, {"type": "node", "id": 3395081111, "lat": 54.4713779, "lon": -3.0256609}, {"type": "node", "id": 3395081112, "lat": 54.4711427, "lon": -3.0255585}, {"type": "node", "id": 3395081113, "lat": 54.4711728, "lon": -3.0253542}, {"type": "node", "id": 3395081114, "lat": 54.4713438, "lon": -3.0254286}, {"type": "node", "id": 3395081115, "lat": 54.4713353, "lon": -3.0254858}, {"type": "node", "id": 3395081116, "lat": 54.4713611, "lon": -3.025497}, {"type": "node", "id": 3395081117, "lat": 54.4713542, "lon": -3.0255436}, {"type": "node", "id": 3548271917, "lat": 54.5345795, "lon": -2.9351801}, {"type": "node", "id": 3548272318, "lat": 54.4987407, "lon": -2.9225351}, {"type": "node", "id": 3548272319, "lat": 54.4987312, "lon": -2.9224087}, {"type": "node", "id": 3548272320, "lat": 54.498639, "lon": -2.9224293}, {"type": "node", "id": 3548272321, "lat": 54.4986432, "lon": -2.9224851}, {"type": "node", "id": 3548272322, "lat": 54.4985825, "lon": -2.9224987}, {"type": "node", "id": 3548272323, "lat": 54.4985926, "lon": -2.9226326}, {"type": "node", "id": 3548272324, "lat": 54.4986537, "lon": -2.922619}, {"type": "node", "id": 3548272325, "lat": 54.4986489, "lon": -2.9225556}, {"type": "node", "id": 3598100212, "lat": 54.3325874, "lon": -2.7496021}, {"type": "node", "id": 3598106110, "lat": 54.3319234, "lon": -2.7488383}, {"type": "node", "id": 3598106111, "lat": 54.3320402, "lon": -2.7490055}, {"type": "node", "id": 3598106112, "lat": 54.3320033, "lon": -2.7490814}, {"type": "node", "id": 3598106113, "lat": 54.3318865, "lon": -2.7489142}, {"type": "node", "id": 3600274811, "lat": 54.3328607, "lon": -2.7385378}, {"type": "node", "id": 3600274812, "lat": 54.3328974, "lon": -2.7386272}, {"type": "node", "id": 3600274813, "lat": 54.3328417, "lon": -2.7387167}, {"type": "node", "id": 3600274814, "lat": 54.3329484, "lon": -2.7387187}, {"type": "node", "id": 3600274815, "lat": 54.3329472, "lon": -2.7388407}, {"type": "node", "id": 3600274816, "lat": 54.3328145, "lon": -2.7388386}, {"type": "node", "id": 3600274817, "lat": 54.3327623, "lon": -2.7387939}, {"type": "node", "id": 3600274818, "lat": 54.3327528, "lon": -2.7387451}, {"type": "node", "id": 3600274819, "lat": 54.3327576, "lon": -2.7386943}, {"type": "node", "id": 3600274820, "lat": 54.3327777, "lon": -2.7386293}, {"type": "node", "id": 3600387205, "lat": 54.3359243, "lon": -2.7417256}, {"type": "node", "id": 3600387206, "lat": 54.335903, "lon": -2.7419816}, {"type": "node", "id": 3600387207, "lat": 54.3357812, "lon": -2.7421495}, {"type": "node", "id": 3600387208, "lat": 54.3357338, "lon": -2.7418019}, {"type": "node", "id": 3600387209, "lat": 54.3359596, "lon": -2.741957}, {"type": "node", "id": 3600387210, "lat": 54.3359183, "lon": -2.7420941}, {"type": "node", "id": 3602730392, "lat": 54.3149938, "lon": -2.7488055}, {"type": "node", "id": 3602730493, "lat": 54.315095, "lon": -2.7488901}, {"type": "node", "id": 3602730494, "lat": 54.3150267, "lon": -2.7491306}, {"type": "node", "id": 3602730495, "lat": 54.3149254, "lon": -2.749046}, {"type": "node", "id": 3604933529, "lat": 54.3267326, "lon": -2.7471304, "tags": {"addr:city": "Kendal", "addr:housenumber": "3", "addr:postcode": "LA9 4DH", "addr:street": "Lowther Street", "amenity": "pub", "brewery": "Fell Brewery", "fhrs:id": "1016402", "name": "Fell Bar"}}, {"type": "node", "id": 3628775678, "lat": 54.3271681, "lon": -2.7478582, "tags": {"addr:city": "Kendal", "addr:housenumber": "32", "addr:postcode": "LA9 4SX", "addr:street": "Highgate", "amenity": "pub", "check_date": "2024-08-03", "fhrs:id": "299125", "name": "Horse & Rainbow", "operator": "Stonegate", "operator:wikidata": "Q7619176", "phone": "+44 1539 728271", "website": "https://www.craftunionpubs.com/horse-and-rainbow-kendal"}}, {"type": "node", "id": 3628903662, "lat": 54.3267713, "lon": -2.748231}, {"type": "node", "id": 3628903663, "lat": 54.3266889, "lon": -2.7482232}, {"type": "node", "id": 3628903665, "lat": 54.326643, "lon": -2.7479963}, {"type": "node", "id": 3628903666, "lat": 54.3267784, "lon": -2.7480092}, {"type": "node", "id": 3628903726, "lat": 54.3266985, "lon": -2.7490108}, {"type": "node", "id": 3628903727, "lat": 54.3267548, "lon": -2.7486702}, {"type": "node", "id": 3628903728, "lat": 54.3267701, "lon": -2.7482657}, {"type": "node", "id": 3628903734, "lat": 54.3266606, "lon": -2.7486156}, {"type": "node", "id": 3628903735, "lat": 54.3265311, "lon": -2.7486014}, {"type": "node", "id": 3628903736, "lat": 54.3265269, "lon": -2.7487763}, {"type": "node", "id": 3628903737, "lat": 54.3266014, "lon": -2.7487857}, {"type": "node", "id": 3628903738, "lat": 54.3265835, "lon": -2.7489488}, {"type": "node", "id": 3629392631, "lat": 54.326601, "lon": -2.7486091}, {"type": "node", "id": 3629392638, "lat": 54.3265649, "lon": -2.7486065}, {"type": "node", "id": 3631461197, "lat": 54.3223626, "lon": -2.7449621}, {"type": "node", "id": 3631461198, "lat": 54.3223959, "lon": -2.7452473}, {"type": "node", "id": 3631461199, "lat": 54.322338, "lon": -2.7452672}, {"type": "node", "id": 3631461200, "lat": 54.3223047, "lon": -2.7449819}, {"type": "node", "id": 3655348701, "lat": 54.2265284, "lon": -2.7728848}, {"type": "node", "id": 3655348702, "lat": 54.226622, "lon": -2.7729339}, {"type": "node", "id": 3655348703, "lat": 54.2266758, "lon": -2.7726338}, {"type": "node", "id": 3655348704, "lat": 54.2266422, "lon": -2.7726161}, {"type": "node", "id": 3655348705, "lat": 54.2266562, "lon": -2.7725431}, {"type": "node", "id": 3655348706, "lat": 54.2265949, "lon": -2.7725105}, {"type": "node", "id": 3655579638, "lat": 54.2266649, "lon": -2.7726944}, {"type": "node", "id": 3658655100, "lat": 54.2270809, "lon": -2.7716931}, {"type": "node", "id": 3658655101, "lat": 54.2271106, "lon": -2.7718004}, {"type": "node", "id": 3658655102, "lat": 54.2272737, "lon": -2.7716609}, {"type": "node", "id": 3658655103, "lat": 54.2272361, "lon": -2.7715134}, {"type": "node", "id": 3658655104, "lat": 54.2271781, "lon": -2.7714571}, {"type": "node", "id": 3658655105, "lat": 54.227142, "lon": -2.7714678}, {"type": "node", "id": 3658655106, "lat": 54.2271498, "lon": -2.7715107}, {"type": "node", "id": 3658655107, "lat": 54.2271232, "lon": -2.7715268}, {"type": "node", "id": 3658655108, "lat": 54.2271169, "lon": -2.7716019}, {"type": "node", "id": 3658655109, "lat": 54.2271185, "lon": -2.7716582}, {"type": "node", "id": 3687059688, "lat": 54.4344418, "lon": -3.0377873, "tags": {"entrance": "main"}}, {"type": "node", "id": 3687059691, "lat": 54.4344512, "lon": -3.0379832}, {"type": "node", "id": 3687059692, "lat": 54.4344789, "lon": -3.0379807}, {"type": "node", "id": 3688978954, "lat": 54.5344392, "lon": -2.9336835}, {"type": "node", "id": 3688978955, "lat": 54.5344535, "lon": -2.9336294}, {"type": "node", "id": 3721953490, "lat": 54.4486724, "lon": -3.0894723}, {"type": "node", "id": 3721953491, "lat": 54.4486922, "lon": -3.0894929}, {"type": "node", "id": 3723625668, "lat": 54.4377065, "lon": -3.046526}, {"type": "node", "id": 3723625669, "lat": 54.4377344, "lon": -3.0465257}, {"type": "node", "id": 3723625670, "lat": 54.4377342, "lon": -3.0464647}, {"type": "node", "id": 3762667267, "lat": 54.2008748, "lon": -2.9537243}, {"type": "node", "id": 3762667268, "lat": 54.2008869, "lon": -2.9539818}, {"type": "node", "id": 3762667269, "lat": 54.2007667, "lon": -2.9539984}, {"type": "node", "id": 3762667270, "lat": 54.2007546, "lon": -2.9537408}, {"type": "node", "id": 3796201907, "lat": 54.3454298, "lon": -2.7771601}, {"type": "node", "id": 3796201908, "lat": 54.3453854, "lon": -2.7768366}, {"type": "node", "id": 3796201909, "lat": 54.3452566, "lon": -2.7769429}, {"type": "node", "id": 3796201910, "lat": 54.345294, "lon": -2.777215}, {"type": "node", "id": 3927199664, "lat": 54.3752111, "lon": -2.9989728}, {"type": "node", "id": 3927199665, "lat": 54.375274, "lon": -2.9988668}, {"type": "node", "id": 3927199667, "lat": 54.3751928, "lon": -2.9987548}, {"type": "node", "id": 3927199668, "lat": 54.3751674, "lon": -2.9987264}, {"type": "node", "id": 3927199669, "lat": 54.3751539, "lon": -2.9987571}, {"type": "node", "id": 3927199670, "lat": 54.3751368, "lon": -2.9987364}, {"type": "node", "id": 3927199671, "lat": 54.375076, "lon": -2.9988689}, {"type": "node", "id": 3930409301, "lat": 54.5993235, "lon": -3.1363903}, {"type": "node", "id": 3930409302, "lat": 54.5995049, "lon": -3.1359992}, {"type": "node", "id": 3930409303, "lat": 54.5995514, "lon": -3.1360608}, {"type": "node", "id": 3930409304, "lat": 54.5995143, "lon": -3.1361266}, {"type": "node", "id": 3930409306, "lat": 54.5994524, "lon": -3.1362939}, {"type": "node", "id": 3930409308, "lat": 54.5994075, "lon": -3.1364239}, {"type": "node", "id": 3930409309, "lat": 54.599378, "lon": -3.1363936}, {"type": "node", "id": 3930409310, "lat": 54.5993637, "lon": -3.1364307}, {"type": "node", "id": 4000806654, "lat": 54.6000103, "lon": -3.1369546}, {"type": "node", "id": 4017834872, "lat": 54.3608415, "lon": -2.928219}, {"type": "node", "id": 4017834873, "lat": 54.3608479, "lon": -2.9282304}, {"type": "node", "id": 4017834876, "lat": 54.3609115, "lon": -2.9281036}, {"type": "node", "id": 4017834884, "lat": 54.3610756, "lon": -2.9286368}, {"type": "node", "id": 4017834885, "lat": 54.3611309, "lon": -2.9284951}, {"type": "node", "id": 4018417970, "lat": 54.3615255, "lon": -2.9277051}, {"type": "node", "id": 4018417971, "lat": 54.3614364, "lon": -2.9278485}, {"type": "node", "id": 4018417972, "lat": 54.3614187, "lon": -2.9278162}, {"type": "node", "id": 4018417973, "lat": 54.3613793, "lon": -2.9278796}, {"type": "node", "id": 4018417974, "lat": 54.3612982, "lon": -2.9277312}, {"type": "node", "id": 4018417975, "lat": 54.3613419, "lon": -2.9276609}, {"type": "node", "id": 4018417976, "lat": 54.3613266, "lon": -2.9276329}, {"type": "node", "id": 4018417977, "lat": 54.3614707, "lon": -2.9274008}, {"type": "node", "id": 4018417978, "lat": 54.3615505, "lon": -2.9275467}, {"type": "node", "id": 4018417979, "lat": 54.3614911, "lon": -2.9276423}, {"type": "node", "id": 4039977777, "lat": 54.2034679, "lon": -2.7320349}, {"type": "node", "id": 4039977778, "lat": 54.2034646, "lon": -2.7319557}, {"type": "node", "id": 4039977779, "lat": 54.2035431, "lon": -2.7319462}, {"type": "node", "id": 4039977780, "lat": 54.2035615, "lon": -2.7323952}, {"type": "node", "id": 4039977781, "lat": 54.2034931, "lon": -2.7324034}, {"type": "node", "id": 4039977782, "lat": 54.2034845, "lon": -2.7321941}, {"type": "node", "id": 4039977783, "lat": 54.2033937, "lon": -2.732205}, {"type": "node", "id": 4063467029, "lat": 54.3648291, "lon": -2.9192304}, {"type": "node", "id": 4063467030, "lat": 54.3648137, "lon": -2.919263}, {"type": "node", "id": 4063467031, "lat": 54.3648054, "lon": -2.9193158}, {"type": "node", "id": 4063467032, "lat": 54.3648019, "lon": -2.9193585}, {"type": "node", "id": 4063467033, "lat": 54.3648042, "lon": -2.9194113}, {"type": "node", "id": 4063467034, "lat": 54.3648149, "lon": -2.9194622}, {"type": "node", "id": 4063467035, "lat": 54.3648799, "lon": -2.9195085}, {"type": "node", "id": 4063467036, "lat": 54.3649646, "lon": -2.9195324}, {"type": "node", "id": 4063467037, "lat": 54.3649771, "lon": -2.9194398}, {"type": "node", "id": 4063467038, "lat": 54.3649618, "lon": -2.9194337}, {"type": "node", "id": 4063467039, "lat": 54.3649677, "lon": -2.919387}, {"type": "node", "id": 4063467040, "lat": 54.3649831, "lon": -2.919391}, {"type": "node", "id": 4063467041, "lat": 54.3649925, "lon": -2.9193178}, {"type": "node", "id": 4063467046, "lat": 54.3650535, "lon": -2.9198952}, {"type": "node", "id": 4063467047, "lat": 54.3650558, "lon": -2.9198482}, {"type": "node", "id": 4063467048, "lat": 54.3650218, "lon": -2.9198435}, {"type": "node", "id": 4063467049, "lat": 54.3650255, "lon": -2.9197655}, {"type": "node", "id": 4063467050, "lat": 54.3651684, "lon": -2.9197855}, {"type": "node", "id": 4063467051, "lat": 54.365171, "lon": -2.9197315}, {"type": "node", "id": 4063467052, "lat": 54.3652288, "lon": -2.9197396}, {"type": "node", "id": 4063467053, "lat": 54.3652224, "lon": -2.9198739}, {"type": "node", "id": 4063467054, "lat": 54.3651394, "lon": -2.9198623}, {"type": "node", "id": 4063467055, "lat": 54.3651373, "lon": -2.919907}, {"type": "node", "id": 4063467056, "lat": 54.365378, "lon": -2.9196944}, {"type": "node", "id": 4063467057, "lat": 54.3652549, "lon": -2.919678}, {"type": "node", "id": 4063467058, "lat": 54.3652528, "lon": -2.9197959}, {"type": "node", "id": 4063467059, "lat": 54.3652739, "lon": -2.9197983}, {"type": "node", "id": 4063467060, "lat": 54.3652712, "lon": -2.9198462}, {"type": "node", "id": 4063467061, "lat": 54.3652352, "lon": -2.9198391}, {"type": "node", "id": 4063467062, "lat": 54.3652284, "lon": -2.9199325}, {"type": "node", "id": 4063467063, "lat": 54.3653596, "lon": -2.9199652}, {"type": "node", "id": 4063467064, "lat": 54.3653764, "lon": -2.9197306}, {"type": "node", "id": 4063467070, "lat": 54.3653712, "lon": -2.919845}, {"type": "node", "id": 4102811332, "lat": 54.2552443, "lon": -3.0678542}, {"type": "node", "id": 4102811333, "lat": 54.2551736, "lon": -3.0678638}, {"type": "node", "id": 4102811335, "lat": 54.255303, "lon": -3.0678464}, {"type": "node", "id": 4102811336, "lat": 54.2552855, "lon": -3.0674656}, {"type": "node", "id": 4102811337, "lat": 54.2551561, "lon": -3.067483}, {"type": "node", "id": 4104800294, "lat": 54.2375238, "lon": -3.0601897}, {"type": "node", "id": 4104800295, "lat": 54.2375003, "lon": -3.0600417}, {"type": "node", "id": 4104800296, "lat": 54.2374022, "lon": -3.0600873}, {"type": "node", "id": 4104800297, "lat": 54.2374257, "lon": -3.0602353}, {"type": "node", "id": 4105630591, "lat": 54.3796667, "lon": -2.9054837}, {"type": "node", "id": 4105630592, "lat": 54.3796206, "lon": -2.9055935}, {"type": "node", "id": 4105630593, "lat": 54.3796068, "lon": -2.9055765}, {"type": "node", "id": 4105630594, "lat": 54.3795624, "lon": -2.9056821}, {"type": "node", "id": 4105630595, "lat": 54.3795198, "lon": -2.905733}, {"type": "node", "id": 4105630596, "lat": 54.379469, "lon": -2.9056703}, {"type": "node", "id": 4105630597, "lat": 54.3794745, "lon": -2.9056571}, {"type": "node", "id": 4105630598, "lat": 54.379459, "lon": -2.9056379}, {"type": "node", "id": 4105630599, "lat": 54.379477, "lon": -2.905595}, {"type": "node", "id": 4105630600, "lat": 54.3794956, "lon": -2.905618}, {"type": "node", "id": 4105630601, "lat": 54.3795536, "lon": -2.9054799}, {"type": "node", "id": 4105630602, "lat": 54.3795121, "lon": -2.9054285}, {"type": "node", "id": 4105630603, "lat": 54.379499, "lon": -2.905462}, {"type": "node", "id": 4105630604, "lat": 54.3794207, "lon": -2.9053673}, {"type": "node", "id": 4105630605, "lat": 54.3794722, "lon": -2.9052429}, {"type": "node", "id": 4105630618, "lat": 54.3794187, "lon": -2.9059537}, {"type": "node", "id": 4105630619, "lat": 54.3793371, "lon": -2.905858}, {"type": "node", "id": 4105630621, "lat": 54.3793167, "lon": -2.905907}, {"type": "node", "id": 4105630622, "lat": 54.379399, "lon": -2.9060039}, {"type": "node", "id": 4105630623, "lat": 54.3793793, "lon": -2.9060541}, {"type": "node", "id": 4105630624, "lat": 54.3792984, "lon": -2.9059572}, {"type": "node", "id": 4105630625, "lat": 54.3793575, "lon": -2.9061113}, {"type": "node", "id": 4105630626, "lat": 54.3793657, "lon": -2.9061207}, {"type": "node", "id": 4105630627, "lat": 54.3793344, "lon": -2.9062071}, {"type": "node", "id": 4105630628, "lat": 54.3793065, "lon": -2.9061744}, {"type": "node", "id": 4105630629, "lat": 54.3793018, "lon": -2.9061872}, {"type": "node", "id": 4105630630, "lat": 54.3792487, "lon": -2.9061195}, {"type": "node", "id": 4105630631, "lat": 54.3792542, "lon": -2.9061031}, {"type": "node", "id": 4105630632, "lat": 54.3792243, "lon": -2.9060588}, {"type": "node", "id": 4105630633, "lat": 54.3792399, "lon": -2.9060121}, {"type": "node", "id": 4105630634, "lat": 54.3792256, "lon": -2.9059934}, {"type": "node", "id": 4105630635, "lat": 54.3792617, "lon": -2.9059047}, {"type": "node", "id": 4140850366, "lat": 54.3646472, "lon": -2.9176445}, {"type": "node", "id": 4140850367, "lat": 54.3647239, "lon": -2.9179298}, {"type": "node", "id": 4140850368, "lat": 54.3646247, "lon": -2.9180083}, {"type": "node", "id": 4140850369, "lat": 54.3645725, "lon": -2.917814}, {"type": "node", "id": 4140850370, "lat": 54.3645188, "lon": -2.9178565}, {"type": "node", "id": 4140850371, "lat": 54.3644944, "lon": -2.9177655}, {"type": "node", "id": 4228214185, "lat": 54.433073, "lon": -2.963752}, {"type": "node", "id": 4228214188, "lat": 54.433046, "lon": -2.9638894}, {"type": "node", "id": 4228244952, "lat": 54.4323623, "lon": -2.9635343, "tags": {"addr:city": "Ambleside", "addr:postcode": "LA22 9DR", "addr:street": "Compston Road", "amenity": "pub", "level": "0", "name": "The Sportsman's Inn"}}, {"type": "node", "id": 4235549268, "lat": 54.3896717, "lon": -2.9943685}, {"type": "node", "id": 4235549270, "lat": 54.3894797, "lon": -2.9943779}, {"type": "node", "id": 4235549271, "lat": 54.3894774, "lon": -2.9943251}, {"type": "node", "id": 4235549272, "lat": 54.3895508, "lon": -2.9942522}, {"type": "node", "id": 4235549273, "lat": 54.389559, "lon": -2.9942767}, {"type": "node", "id": 4235549274, "lat": 54.3895988, "lon": -2.9942373}, {"type": "node", "id": 4235549275, "lat": 54.3896228, "lon": -2.9943089}, {"type": "node", "id": 4235549276, "lat": 54.3896438, "lon": -2.9942898}, {"type": "node", "id": 4241281137, "lat": 54.3751166, "lon": -2.9987814}, {"type": "node", "id": 4241511000, "lat": 54.3517539, "lon": -2.9699792}, {"type": "node", "id": 4241511001, "lat": 54.3518802, "lon": -2.9700387}, {"type": "node", "id": 4241511002, "lat": 54.3518486, "lon": -2.9702363}, {"type": "node", "id": 4241511003, "lat": 54.3517677, "lon": -2.9701982}, {"type": "node", "id": 4241511005, "lat": 54.3517326, "lon": -2.9701124}, {"type": "node", "id": 4242638797, "lat": 54.3511174, "lon": -2.9570953}, {"type": "node", "id": 4242638798, "lat": 54.3511664, "lon": -2.9574245}, {"type": "node", "id": 4242638799, "lat": 54.3512222, "lon": -2.9575459}, {"type": "node", "id": 4242638800, "lat": 54.3513705, "lon": -2.957742}, {"type": "node", "id": 4242638801, "lat": 54.3514155, "lon": -2.957623}, {"type": "node", "id": 4242638802, "lat": 54.3512995, "lon": -2.9574745}, {"type": "node", "id": 4242638803, "lat": 54.351348, "lon": -2.9574592}, {"type": "node", "id": 4242638804, "lat": 54.3512454, "lon": -2.9570614}, {"type": "node", "id": 4246190656, "lat": 54.363831, "lon": -2.9205079}, {"type": "node", "id": 4246190657, "lat": 54.3638073, "lon": -2.920544}, {"type": "node", "id": 4246190658, "lat": 54.3637609, "lon": -2.9204544}, {"type": "node", "id": 4246190659, "lat": 54.3637846, "lon": -2.9204182}, {"type": "node", "id": 4246190660, "lat": 54.3637784, "lon": -2.9204062}, {"type": "node", "id": 4246190661, "lat": 54.3638177, "lon": -2.9203462}, {"type": "node", "id": 4246190662, "lat": 54.363822, "lon": -2.9203545}, {"type": "node", "id": 4246190663, "lat": 54.3638407, "lon": -2.920326}, {"type": "node", "id": 4246190664, "lat": 54.3638681, "lon": -2.9203293}, {"type": "node", "id": 4246190665, "lat": 54.36389, "lon": -2.9203729}, {"type": "node", "id": 4246190666, "lat": 54.3638884, "lon": -2.9204192}, {"type": "node", "id": 4246190667, "lat": 54.3638683, "lon": -2.9204498}, {"type": "node", "id": 4246190668, "lat": 54.3638772, "lon": -2.920467}, {"type": "node", "id": 4246190669, "lat": 54.3638396, "lon": -2.9205245}, {"type": "node", "id": 4247007152, "lat": 54.3636742, "lon": -2.9208424}, {"type": "node", "id": 4247007153, "lat": 54.3634062, "lon": -2.9209573}, {"type": "node", "id": 4247007154, "lat": 54.3633853, "lon": -2.9208138}, {"type": "node", "id": 4247007155, "lat": 54.3634719, "lon": -2.9207766}, {"type": "node", "id": 4247007156, "lat": 54.3634481, "lon": -2.9206128}, {"type": "node", "id": 4247007157, "lat": 54.3634786, "lon": -2.9205081}, {"type": "node", "id": 4247007158, "lat": 54.3635646, "lon": -2.9204712}, {"type": "node", "id": 4247007159, "lat": 54.3635821, "lon": -2.9205915}, {"type": "node", "id": 4247007160, "lat": 54.3635983, "lon": -2.9205846}, {"type": "node", "id": 4247007161, "lat": 54.3636134, "lon": -2.9206881}, {"type": "node", "id": 4247007162, "lat": 54.3636495, "lon": -2.9206727}, {"type": "node", "id": 4247007728, "lat": 54.3632998, "lon": -2.9195019}, {"type": "node", "id": 4247007729, "lat": 54.3632596, "lon": -2.9194167}, {"type": "node", "id": 4247007730, "lat": 54.3631867, "lon": -2.9194412}, {"type": "node", "id": 4247007731, "lat": 54.3632261, "lon": -2.9197878}, {"type": "node", "id": 4247007732, "lat": 54.3633524, "lon": -2.9197455}, {"type": "node", "id": 4247007733, "lat": 54.3633347, "lon": -2.9195906}, {"type": "node", "id": 4247007734, "lat": 54.3633108, "lon": -2.9195986}, {"type": "node", "id": 4247007735, "lat": 54.3633923, "lon": -2.9197097}, {"type": "node", "id": 4247007736, "lat": 54.3633685, "lon": -2.9199129}, {"type": "node", "id": 4247007737, "lat": 54.3634106, "lon": -2.9199281}, {"type": "node", "id": 4247007738, "lat": 54.3634147, "lon": -2.9198954}, {"type": "node", "id": 4247007739, "lat": 54.3634591, "lon": -2.9199118}, {"type": "node", "id": 4247007740, "lat": 54.3634793, "lon": -2.9198865}, {"type": "node", "id": 4247007741, "lat": 54.3634916, "lon": -2.919802}, {"type": "node", "id": 4247007742, "lat": 54.36348, "lon": -2.919767}, {"type": "node", "id": 4247007743, "lat": 54.3634256, "lon": -2.9197471}, {"type": "node", "id": 4247007744, "lat": 54.3634277, "lon": -2.9197214}, {"type": "node", "id": 4248081381, "lat": 54.3929643, "lon": -2.9184442}, {"type": "node", "id": 4248081382, "lat": 54.3929601, "lon": -2.9185816}, {"type": "node", "id": 4248081383, "lat": 54.3932335, "lon": -2.9186831}, {"type": "node", "id": 4248081384, "lat": 54.3932019, "lon": -2.9184579}, {"type": "node", "id": 4248252038, "lat": 54.3669018, "lon": -2.9163907}, {"type": "node", "id": 4248252039, "lat": 54.3668326, "lon": -2.9164746}, {"type": "node", "id": 4248252040, "lat": 54.3669573, "lon": -2.9165313}, {"type": "node", "id": 4248252048, "lat": 54.3668872, "lon": -2.9166129}, {"type": "node", "id": 4254358707, "lat": 54.3739413, "lon": -2.9069474}, {"type": "node", "id": 4254428418, "lat": 54.2760565, "lon": -3.0476765}, {"type": "node", "id": 4254428421, "lat": 54.2760874, "lon": -3.0479881}, {"type": "node", "id": 4254428431, "lat": 54.2762338, "lon": -3.047625}, {"type": "node", "id": 4254428432, "lat": 54.2762647, "lon": -3.0479366}, {"type": "node", "id": 4268424696, "lat": 54.2033759, "lon": -2.8325804}, {"type": "node", "id": 4268424697, "lat": 54.2032911, "lon": -2.8327024}, {"type": "node", "id": 4268424698, "lat": 54.2033555, "lon": -2.8328423}, {"type": "node", "id": 4268424699, "lat": 54.203275, "lon": -2.8329409}, {"type": "node", "id": 4268424711, "lat": 54.2017451, "lon": -2.8350182}, {"type": "node", "id": 4268424712, "lat": 54.2015936, "lon": -2.8350439}, {"type": "node", "id": 4268424713, "lat": 54.2015953, "lon": -2.8350722}, {"type": "node", "id": 4268424714, "lat": 54.201556, "lon": -2.8350789}, {"type": "node", "id": 4268424715, "lat": 54.2015603, "lon": -2.8351517}, {"type": "node", "id": 4268424716, "lat": 54.2016056, "lon": -2.835144}, {"type": "node", "id": 4268424717, "lat": 54.2016102, "lon": -2.8352225}, {"type": "node", "id": 4270588989, "lat": 54.5993483, "lon": -3.1363303}, {"type": "node", "id": 4270588990, "lat": 54.5993914, "lon": -3.1362095}, {"type": "node", "id": 4270588991, "lat": 54.5994297, "lon": -3.1361503}, {"type": "node", "id": 4282222245, "lat": 54.423405, "lon": -2.908717}, {"type": "node", "id": 4282222246, "lat": 54.4232645, "lon": -2.9087829}, {"type": "node", "id": 4282222247, "lat": 54.423261, "lon": -2.908761}, {"type": "node", "id": 4282222248, "lat": 54.4232024, "lon": -2.9087887}, {"type": "node", "id": 4282222249, "lat": 54.423218, "lon": -2.9088858}, {"type": "node", "id": 4282222250, "lat": 54.423207, "lon": -2.9088911}, {"type": "node", "id": 4282222251, "lat": 54.4232173, "lon": -2.9089547}, {"type": "node", "id": 4282222252, "lat": 54.4232293, "lon": -2.908949}, {"type": "node", "id": 4282222253, "lat": 54.4232357, "lon": -2.9089884}, {"type": "node", "id": 4282222254, "lat": 54.4232495, "lon": -2.9089817}, {"type": "node", "id": 4282222255, "lat": 54.4232899, "lon": -2.9092273}, {"type": "node", "id": 4282222256, "lat": 54.4232614, "lon": -2.9092412}, {"type": "node", "id": 4282222257, "lat": 54.4232841, "lon": -2.909379}, {"type": "node", "id": 4282222258, "lat": 54.423362, "lon": -2.9092127}, {"type": "node", "id": 4282222259, "lat": 54.4233221, "lon": -2.9089602}, {"type": "node", "id": 4282222260, "lat": 54.4233784, "lon": -2.9089338}, {"type": "node", "id": 4282222261, "lat": 54.423361, "lon": -2.9088238}, {"type": "node", "id": 4282222262, "lat": 54.4234177, "lon": -2.9087973}, {"type": "node", "id": 4282222263, "lat": 54.4233383, "lon": -2.909322}, {"type": "node", "id": 4282222268, "lat": 54.4261513, "lon": -2.9046949}, {"type": "node", "id": 4282222270, "lat": 54.4260415, "lon": -2.904963}, {"type": "node", "id": 4282222271, "lat": 54.425935, "lon": -2.9049388}, {"type": "node", "id": 4282222272, "lat": 54.4259373, "lon": -2.9048373}, {"type": "node", "id": 4282222274, "lat": 54.4259616, "lon": -2.9046189}, {"type": "node", "id": 4284393905, "lat": 54.3610637, "lon": -2.9286154}, {"type": "node", "id": 4284393906, "lat": 54.3611456, "lon": -2.9285213}, {"type": "node", "id": 4385026980, "lat": 54.3252571, "lon": -2.7527879}, {"type": "node", "id": 4385026981, "lat": 54.3252637, "lon": -2.7526211}, {"type": "node", "id": 4385026982, "lat": 54.3253297, "lon": -2.7527955}, {"type": "node", "id": 4385026983, "lat": 54.3253353, "lon": -2.7526292}, {"type": "node", "id": 4406017429, "lat": 54.3283395, "lon": -2.7467071}, {"type": "node", "id": 4459104782, "lat": 54.3540977, "lon": -2.7628799}, {"type": "node", "id": 4459104889, "lat": 54.354041, "lon": -2.7626733}, {"type": "node", "id": 4459104890, "lat": 54.3539604, "lon": -2.7628171}, {"type": "node", "id": 4459104891, "lat": 54.3540501, "lon": -2.7629649}, {"type": "node", "id": 4459104892, "lat": 54.3541528, "lon": -2.762783}, {"type": "node", "id": 4459104893, "lat": 54.3541269, "lon": -2.7627397}, {"type": "node", "id": 4459104894, "lat": 54.3541129, "lon": -2.7627643}, {"type": "node", "id": 4459104895, "lat": 54.3540495, "lon": -2.7626582}, {"type": "node", "id": 4462353240, "lat": 54.4486369, "lon": -3.0895736}, {"type": "node", "id": 4502536630, "lat": 54.4580075, "lon": -3.0258206, "tags": {"addr:city": "Grasmere", "addr:street": "Langdale Road", "amenity": "pub", "name": "Tweedies Bar"}}, {"type": "node", "id": 4534902357, "lat": 54.2617718, "lon": -3.0325432}, {"type": "node", "id": 4534902358, "lat": 54.2618205, "lon": -3.0325018}, {"type": "node", "id": 4534902359, "lat": 54.2617974, "lon": -3.0324057}, {"type": "node", "id": 4534902360, "lat": 54.2618929, "lon": -3.0323247}, {"type": "node", "id": 4534902361, "lat": 54.2618564, "lon": -3.0321783}, {"type": "node", "id": 4534902362, "lat": 54.261707, "lon": -3.0323009}, {"type": "node", "id": 4583364303, "lat": 54.3929938, "lon": -2.9186274}, {"type": "node", "id": 4583364304, "lat": 54.3930415, "lon": -2.9184511}, {"type": "node", "id": 4583364305, "lat": 54.3930423, "lon": -2.9184249}, {"type": "node", "id": 4583364306, "lat": 54.3931194, "lon": -2.9184318}, {"type": "node", "id": 4583364307, "lat": 54.393237, "lon": -2.9185905}, {"type": "node", "id": 4583364308, "lat": 54.3931878, "lon": -2.918678}, {"type": "node", "id": 4583364309, "lat": 54.3931889, "lon": -2.9186494}, {"type": "node", "id": 4583364310, "lat": 54.3932249, "lon": -2.9185341}, {"type": "node", "id": 4583364311, "lat": 54.3931996, "lon": -2.9185318}, {"type": "node", "id": 4583364312, "lat": 54.3931202, "lon": -2.9184052}, {"type": "node", "id": 4652731041, "lat": 54.3692286, "lon": -3.0784555, "tags": {"addr:city": "Coniston", "amenity": "pub", "indoor_seating": "yes", "name": "Sun Hotel Pub", "outdoor_seating": "yes"}}, {"type": "node", "id": 4667067024, "lat": 54.5505884, "lon": -3.057145}, {"type": "node", "id": 4667067025, "lat": 54.5505901, "lon": -3.0570963}, {"type": "node", "id": 4667067026, "lat": 54.5506426, "lon": -3.0571017}, {"type": "node", "id": 4667067027, "lat": 54.5506415, "lon": -3.0571333}, {"type": "node", "id": 4667067028, "lat": 54.5506726, "lon": -3.0571365}, {"type": "node", "id": 4667067029, "lat": 54.5506697, "lon": -3.0572224}, {"type": "node", "id": 4667067030, "lat": 54.5505257, "lon": -3.0571386}, {"type": "node", "id": 4667067031, "lat": 54.5505273, "lon": -3.0570929}, {"type": "node", "id": 4667067032, "lat": 54.5504016, "lon": -3.05708}, {"type": "node", "id": 4667067033, "lat": 54.5503987, "lon": -3.0571634}, {"type": "node", "id": 4667067034, "lat": 54.5503779, "lon": -3.0571613}, {"type": "node", "id": 4703890841, "lat": 54.2565106, "lon": -2.7088618}, {"type": "node", "id": 4703890842, "lat": 54.2566016, "lon": -2.7090611}, {"type": "node", "id": 4703890843, "lat": 54.2564966, "lon": -2.7092016}, {"type": "node", "id": 4703890844, "lat": 54.2564596, "lon": -2.7091205}, {"type": "node", "id": 4703890845, "lat": 54.2563974, "lon": -2.7092038}, {"type": "node", "id": 4703890846, "lat": 54.2563434, "lon": -2.7090854}, {"type": "node", "id": 4703890847, "lat": 54.2565419, "lon": -2.709142}, {"type": "node", "id": 4703890848, "lat": 54.2565873, "lon": -2.7090812}, {"type": "node", "id": 4703890849, "lat": 54.2565677, "lon": -2.709231}, {"type": "node", "id": 4703890850, "lat": 54.2566136, "lon": -2.7091844}, {"type": "node", "id": 4703890855, "lat": 54.256577, "lon": -2.7090071}, {"type": "node", "id": 4707446334, "lat": 54.3254504, "lon": -2.7434733}, {"type": "node", "id": 4707446335, "lat": 54.3256778, "lon": -2.7434184}, {"type": "node", "id": 4707446341, "lat": 54.3254688, "lon": -2.7433748}, {"type": "node", "id": 4745362938, "lat": 54.2639434, "lon": -2.7932176}, {"type": "node", "id": 4745362939, "lat": 54.2638947, "lon": -2.7930875}, {"type": "node", "id": 4745362940, "lat": 54.2638722, "lon": -2.7931058}, {"type": "node", "id": 4745362941, "lat": 54.2638532, "lon": -2.7930265}, {"type": "node", "id": 4745362942, "lat": 54.2636703, "lon": -2.7931322}, {"type": "node", "id": 4745362943, "lat": 54.2636881, "lon": -2.7932074}, {"type": "node", "id": 4745362944, "lat": 54.2637131, "lon": -2.7931912}, {"type": "node", "id": 4745362945, "lat": 54.2637297, "lon": -2.7932664}, {"type": "node", "id": 4745362946, "lat": 54.2637754, "lon": -2.7932809}, {"type": "node", "id": 4745362947, "lat": 54.263825, "lon": -2.7932519}, {"type": "node", "id": 4745362948, "lat": 54.2638184, "lon": -2.7932146}, {"type": "node", "id": 4745362949, "lat": 54.2638621, "lon": -2.793196}, {"type": "node", "id": 4745362950, "lat": 54.2638894, "lon": -2.7932685}, {"type": "node", "id": 4745362953, "lat": 54.2639311, "lon": -2.7931848}, {"type": "node", "id": 4755362555, "lat": 54.3646198, "lon": -2.9213377}, {"type": "node", "id": 4755362556, "lat": 54.3646507, "lon": -2.9210689}, {"type": "node", "id": 4755362557, "lat": 54.3646668, "lon": -2.9212586}, {"type": "node", "id": 4755362558, "lat": 54.3646378, "lon": -2.9213915}, {"type": "node", "id": 4755362559, "lat": 54.3647455, "lon": -2.9213483}, {"type": "node", "id": 4755362560, "lat": 54.3647177, "lon": -2.9210527}, {"type": "node", "id": 4755362562, "lat": 54.36498, "lon": -2.9208281}, {"type": "node", "id": 4755362563, "lat": 54.364985, "lon": -2.9206677}, {"type": "node", "id": 4755362564, "lat": 54.3649287, "lon": -2.9206625}, {"type": "node", "id": 4755362565, "lat": 54.3649302, "lon": -2.9206132}, {"type": "node", "id": 4755362566, "lat": 54.3648611, "lon": -2.9206068}, {"type": "node", "id": 4755362567, "lat": 54.3648585, "lon": -2.9206921}, {"type": "node", "id": 4755362568, "lat": 54.3647937, "lon": -2.9206862}, {"type": "node", "id": 4755362569, "lat": 54.3647902, "lon": -2.9207991}, {"type": "node", "id": 4755362570, "lat": 54.3648059, "lon": -2.9208318}, {"type": "node", "id": 4755362571, "lat": 54.3648044, "lon": -2.9208786}, {"type": "node", "id": 4755362572, "lat": 54.3648463, "lon": -2.9208825}, {"type": "node", "id": 4755362573, "lat": 54.3648484, "lon": -2.920816}, {"type": "node", "id": 4757586825, "lat": 54.4989461, "lon": -2.9239048}, {"type": "node", "id": 4757586826, "lat": 54.4989474, "lon": -2.9240093}, {"type": "node", "id": 4770756653, "lat": 54.3003358, "lon": -2.8002773}, {"type": "node", "id": 4770756654, "lat": 54.3001401, "lon": -2.8001562}, {"type": "node", "id": 4770756659, "lat": 54.3001095, "lon": -2.8003119}, {"type": "node", "id": 4770756660, "lat": 54.3002425, "lon": -2.8004055}, {"type": "node", "id": 4770756661, "lat": 54.3002412, "lon": -2.8006121}, {"type": "node", "id": 4770756662, "lat": 54.3002859, "lon": -2.8006039}, {"type": "node", "id": 4771935375, "lat": 54.2394775, "lon": -2.8587407}, {"type": "node", "id": 4771935376, "lat": 54.2394265, "lon": -2.858627}, {"type": "node", "id": 4771935377, "lat": 54.239441, "lon": -2.858608}, {"type": "node", "id": 4771935378, "lat": 54.2393774, "lon": -2.8584661}, {"type": "node", "id": 4771935379, "lat": 54.239494, "lon": -2.8583129}, {"type": "node", "id": 4771935380, "lat": 54.2395606, "lon": -2.858462}, {"type": "node", "id": 4771935381, "lat": 54.2395692, "lon": -2.8584507}, {"type": "node", "id": 4787102163, "lat": 54.2785419, "lon": -2.7689714}, {"type": "node", "id": 4787102164, "lat": 54.2785483, "lon": -2.7687885}, {"type": "node", "id": 4787102165, "lat": 54.2786743, "lon": -2.7688014}, {"type": "node", "id": 4830411072, "lat": 54.5623852, "lon": -3.1367036, "tags": {"addr:city": "Borrowdale", "addr:postcode": "CA12 5UU", "amenity": "pub", "name": "Mary Mount Bar"}}, {"type": "node", "id": 4885560744, "lat": 54.5130021, "lon": -3.1399474}, {"type": "node", "id": 4885560745, "lat": 54.5129473, "lon": -3.1397992}, {"type": "node", "id": 4885560746, "lat": 54.5130449, "lon": -3.1398403}, {"type": "node", "id": 4885560747, "lat": 54.5130007, "lon": -3.1397907}, {"type": "node", "id": 4897502697, "lat": 54.2787345, "lon": -2.7689909}, {"type": "node", "id": 4897502698, "lat": 54.2787309, "lon": -2.7690946}, {"type": "node", "id": 4897502699, "lat": 54.2786346, "lon": -2.7690847}, {"type": "node", "id": 4897502700, "lat": 54.2786382, "lon": -2.7689813}, {"type": "node", "id": 4910913707, "lat": 54.353597, "lon": -3.1894796}, {"type": "node", "id": 4912955296, "lat": 54.3044418, "lon": -3.1969931}, {"type": "node", "id": 4912955297, "lat": 54.3044129, "lon": -3.1969948}, {"type": "node", "id": 4912955298, "lat": 54.304417, "lon": -3.1971962}, {"type": "node", "id": 4912955299, "lat": 54.3043741, "lon": -3.1971988}, {"type": "node", "id": 4912955300, "lat": 54.3043714, "lon": -3.1970664}, {"type": "node", "id": 4912955301, "lat": 54.304324, "lon": -3.1970693}, {"type": "node", "id": 4912955302, "lat": 54.3043186, "lon": -3.1968042}, {"type": "node", "id": 4924654378, "lat": 54.2987328, "lon": -2.8960278}, {"type": "node", "id": 4924654379, "lat": 54.2987314, "lon": -2.8959954}, {"type": "node", "id": 4924654385, "lat": 54.2987258, "lon": -2.8958649}, {"type": "node", "id": 4924654388, "lat": 54.2985671, "lon": -2.8958671}, {"type": "node", "id": 4924654389, "lat": 54.298517, "lon": -2.8958734}, {"type": "node", "id": 4924654390, "lat": 54.2985228, "lon": -2.8960093}, {"type": "node", "id": 4924654391, "lat": 54.2986228, "lon": -2.8959968}, {"type": "node", "id": 4924654392, "lat": 54.2986247, "lon": -2.8960413}, {"type": "node", "id": 4924654393, "lat": 54.2987237, "lon": -2.8958155}, {"type": "node", "id": 4924654397, "lat": 54.2985657, "lon": -2.8958332}, {"type": "node", "id": 4924654668, "lat": 54.2976953, "lon": -2.9030648}, {"type": "node", "id": 4924654669, "lat": 54.2975761, "lon": -2.9030574}, {"type": "node", "id": 4924654670, "lat": 54.2975721, "lon": -2.9032475}, {"type": "node", "id": 4924654671, "lat": 54.2976913, "lon": -2.9032549}, {"type": "node", "id": 4924654674, "lat": 54.297693, "lon": -2.9031756}, {"type": "node", "id": 4924654713, "lat": 54.3339552, "lon": -2.895829}, {"type": "node", "id": 4924654714, "lat": 54.334056, "lon": -2.8961354}, {"type": "node", "id": 4924654715, "lat": 54.3341061, "lon": -2.8960869}, {"type": "node", "id": 4924654716, "lat": 54.3341277, "lon": -2.8961527}, {"type": "node", "id": 4924654717, "lat": 54.3341781, "lon": -2.8961039}, {"type": "node", "id": 4924654718, "lat": 54.3342018, "lon": -2.8961761}, {"type": "node", "id": 4924654719, "lat": 54.3342611, "lon": -2.8961188}, {"type": "node", "id": 4924654720, "lat": 54.3342212, "lon": -2.8959977}, {"type": "node", "id": 4924654821, "lat": 54.3341743, "lon": -2.8960431}, {"type": "node", "id": 4924654822, "lat": 54.334149, "lon": -2.895966}, {"type": "node", "id": 4924654823, "lat": 54.3341696, "lon": -2.895946}, {"type": "node", "id": 4924654824, "lat": 54.3341121, "lon": -2.8957715}, {"type": "node", "id": 4924654825, "lat": 54.3340386, "lon": -2.8958426}, {"type": "node", "id": 4924654826, "lat": 54.3340151, "lon": -2.895771}, {"type": "node", "id": 4924654876, "lat": 54.2976496, "lon": -2.903062, "tags": {"amenity": "post_box", "collection_times": "Mo-Fr 09:00; Sa 07:00", "note": "Corner of collection time plate missing so Saturday collection time unknown", "operator": "Royal Mail", "operator:wikidata": "Q638098", "post_box:type": "wall", "ref": "LA11 151D", "royal_cypher": "VR", "royal_cypher:wikidata": "Q33102356"}}, {"type": "node", "id": 4956366377, "lat": 54.544106, "lon": -2.9558291}, {"type": "node", "id": 4956366378, "lat": 54.5440501, "lon": -2.9558307}, {"type": "node", "id": 4956366380, "lat": 54.5441133, "lon": -2.95597}, {"type": "node", "id": 4956366383, "lat": 54.5440319, "lon": -2.9559739}, {"type": "node", "id": 5018226581, "lat": 54.3625819, "lon": -2.9246342, "tags": {"addr:city": "Bowness-on-Windermere", "addr:postcode": "LA23 3HE", "addr:street": "Glebe Road", "amenity": "pub", "fhrs:id": "299671", "food": "yes", "name": "The Lakeview"}}, {"type": "node", "id": 5054174267, "lat": 54.3043493, "lon": -3.1968024, "tags": {"amenity": "post_box", "collection_times": "Mo-Fr 17:00; Sa 08:30", "drive_through": "no", "post_box:type": "wall", "ref": "LA20 33"}}, {"type": "node", "id": 5098501812, "lat": 54.4987388, "lon": -2.9225096}, {"type": "node", "id": 5098501813, "lat": 54.4988214, "lon": -2.9224745}, {"type": "node", "id": 5098501814, "lat": 54.4988095, "lon": -2.9223706}, {"type": "node", "id": 5105252657, "lat": 54.431204, "lon": -3.0382529}, {"type": "node", "id": 5105252659, "lat": 54.431234, "lon": -3.0379722}, {"type": "node", "id": 5105252662, "lat": 54.4311677, "lon": -3.0380258}, {"type": "node", "id": 5105252663, "lat": 54.4312274, "lon": -3.0381316}, {"type": "node", "id": 5105252664, "lat": 54.4309919, "lon": -3.0381167}, {"type": "node", "id": 5122166551, "lat": 54.3266878, "lon": -2.7482584}, {"type": "node", "id": 5122166552, "lat": 54.3266817, "lon": -2.7484478}, {"type": "node", "id": 5122166553, "lat": 54.3266286, "lon": -2.7484428}, {"type": "node", "id": 5131331106, "lat": 54.3803708, "lon": -2.8557228}, {"type": "node", "id": 5131331107, "lat": 54.3802845, "lon": -2.8555339}, {"type": "node", "id": 5131331108, "lat": 54.3803873, "lon": -2.8553955}, {"type": "node", "id": 5131331109, "lat": 54.3804267, "lon": -2.8554818}, {"type": "node", "id": 5131331110, "lat": 54.380515, "lon": -2.855509}, {"type": "node", "id": 5131331111, "lat": 54.3805097, "lon": -2.8556869}, {"type": "node", "id": 5131331112, "lat": 54.3804391, "lon": -2.8557821}, {"type": "node", "id": 5131331113, "lat": 54.3803884, "lon": -2.855671}, {"type": "node", "id": 5131331114, "lat": 54.3804445, "lon": -2.8554579}, {"type": "node", "id": 5131331115, "lat": 54.3804614, "lon": -2.8555813}, {"type": "node", "id": 5131331116, "lat": 54.3803829, "lon": -2.8557064}, {"type": "node", "id": 5131331117, "lat": 54.380375, "lon": -2.855689}, {"type": "node", "id": 5131333107, "lat": 54.3803697, "lon": -2.8554191}, {"type": "node", "id": 5131333110, "lat": 54.380312, "lon": -2.8554968}, {"type": "node", "id": 5199065739, "lat": 54.4676009, "lon": -3.2572233}, {"type": "node", "id": 5199065740, "lat": 54.4676415, "lon": -3.2571152}, {"type": "node", "id": 5199065741, "lat": 54.4675265, "lon": -3.2568704}, {"type": "node", "id": 5228480886, "lat": 54.3283942, "lon": -2.7447033, "tags": {"addr:city": "Kendal", "addr:housenumber": "22", "addr:postcode": "LA9 4BN", "addr:street": "Stramongate", "amenity": "pub", "fhrs:id": "943532", "fixme": "Name from fhrs, check name", "name": "Mason Yard 24"}}, {"type": "node", "id": 5279339692, "lat": 54.4469281, "lon": -2.9831394, "tags": {"amenity": "pub", "food": "yes", "internet_access": "wlan", "name": "Badger Bar & Restaurant", "real_ale": "yes", "smoking": "outside", "toilets": "yes", "toilets:access": "customers"}}, {"type": "node", "id": 5299647306, "lat": 54.3453323, "lon": -2.7769123}, {"type": "node", "id": 5299647307, "lat": 54.3453252, "lon": -2.776861}, {"type": "node", "id": 5321141910, "lat": 54.2314135, "lon": -3.1818373}, {"type": "node", "id": 5321198511, "lat": 54.2866375, "lon": -2.7296645}, {"type": "node", "id": 5327275250, "lat": 54.4029199, "lon": -3.0018628}, {"type": "node", "id": 5327275251, "lat": 54.4029656, "lon": -3.0018508}, {"type": "node", "id": 5327275252, "lat": 54.4029487, "lon": -3.0016607}, {"type": "node", "id": 5327275253, "lat": 54.4029009, "lon": -3.0016733}, {"type": "node", "id": 5334029223, "lat": 54.3646856, "lon": -2.9213723}, {"type": "node", "id": 5364592026, "lat": 54.2089531, "lon": -2.7741981}, {"type": "node", "id": 5364592027, "lat": 54.2090049, "lon": -2.7741646}, {"type": "node", "id": 5364592028, "lat": 54.2089279, "lon": -2.7738025}, {"type": "node", "id": 5364592029, "lat": 54.2089015, "lon": -2.7737883}, {"type": "node", "id": 5364592030, "lat": 54.2088392, "lon": -2.7738383}, {"type": "node", "id": 5364592031, "lat": 54.2088944, "lon": -2.7741046}, {"type": "node", "id": 5364592032, "lat": 54.2089272, "lon": -2.7740874}, {"type": "node", "id": 5364592034, "lat": 54.2088621, "lon": -2.773942}, {"type": "node", "id": 5366238752, "lat": 54.3601424, "lon": -2.9196363, "tags": {"addr:city": "Bowness-on-Windermere", "addr:postcode": "LA23 3EP", "addr:street": "Kendal Road", "amenity": "pub", "fhrs:id": "804916", "name": "Romney's Snug", "website": "https://www.burnsidehotel.com/pub.php"}}, {"type": "node", "id": 5396206086, "lat": 54.3266332, "lon": -2.7489756}, {"type": "node", "id": 5408660649, "lat": 54.2431588, "lon": -2.7773737}, {"type": "node", "id": 5408660650, "lat": 54.2439757, "lon": -2.7773045}, {"type": "node", "id": 5414136029, "lat": 54.3218065, "lon": -3.0195345}, {"type": "node", "id": 5414136030, "lat": 54.3218375, "lon": -3.0194478}, {"type": "node", "id": 5414136031, "lat": 54.3218827, "lon": -3.0194953}, {"type": "node", "id": 5414136032, "lat": 54.3219088, "lon": -3.019422}, {"type": "node", "id": 5414136033, "lat": 54.3218029, "lon": -3.0193106}, {"type": "node", "id": 5414870826, "lat": 54.2321017, "lon": -3.1866091}, {"type": "node", "id": 5414870827, "lat": 54.2320986, "lon": -3.1866558}, {"type": "node", "id": 5414870828, "lat": 54.2322122, "lon": -3.1866776}, {"type": "node", "id": 5414870829, "lat": 54.2322254, "lon": -3.186476}, {"type": "node", "id": 5414870830, "lat": 54.2320458, "lon": -3.1864415}, {"type": "node", "id": 5414870894, "lat": 54.2314332, "lon": -3.1818648}, {"type": "node", "id": 5414870895, "lat": 54.2313698, "lon": -3.1819974}, {"type": "node", "id": 5414870896, "lat": 54.2314011, "lon": -3.1820413}, {"type": "node", "id": 5414870897, "lat": 54.2314342, "lon": -3.1819722}, {"type": "node", "id": 5414870898, "lat": 54.2314503, "lon": -3.1819948}, {"type": "node", "id": 5414870899, "lat": 54.2314821, "lon": -3.1819283}, {"type": "node", "id": 5414870900, "lat": 54.231504, "lon": -3.1819675}, {"type": "node", "id": 5414870901, "lat": 54.2315923, "lon": -3.1819555}, {"type": "node", "id": 5414870902, "lat": 54.2316262, "lon": -3.1819059}, {"type": "node", "id": 5414870903, "lat": 54.2314666, "lon": -3.1817113}, {"type": "node", "id": 5476054452, "lat": 54.2867912, "lon": -2.7295554}, {"type": "node", "id": 5476054513, "lat": 54.2866864, "lon": -2.7296896}, {"type": "node", "id": 5476054514, "lat": 54.2866705, "lon": -2.7297799}, {"type": "node", "id": 5476054515, "lat": 54.2867451, "lon": -2.7298183}, {"type": "node", "id": 5476054551, "lat": 54.2866678, "lon": -2.7294919}, {"type": "node", "id": 5582729650, "lat": 54.2694184, "lon": -3.0877137}, {"type": "node", "id": 5582729651, "lat": 54.2694348, "lon": -3.0876344}, {"type": "node", "id": 5582729672, "lat": 54.2694843, "lon": -3.0876615}, {"type": "node", "id": 5582729673, "lat": 54.2694694, "lon": -3.0877416}, {"type": "node", "id": 5582729680, "lat": 54.2694435, "lon": -3.0875289}, {"type": "node", "id": 5582729681, "lat": 54.269434, "lon": -3.0875801}, {"type": "node", "id": 5899895681, "lat": 54.2434653, "lon": -2.7774382}, {"type": "node", "id": 6020071092, "lat": 54.3277665, "lon": -2.7476763, "tags": {"addr:city": "Kendal", "addr:postcode": "LA9 4ND", "addr:street": "Yard 2", "amenity": "pub", "fhrs:id": "299444", "name": "Ruskins", "website": "http://www.ruskinsbar.com/index.php"}}, {"type": "node", "id": 6020071093, "lat": 54.3277561, "lon": -2.7478856, "tags": {"addr:city": "Kendal", "addr:postcode": "LA9 4ND", "addr:street": "Yard 2", "amenity": "pub", "fhrs:id": "741473", "name": "Smokies Bar"}}, {"type": "node", "id": 6083115716, "lat": 54.4989482, "lon": -2.9240356}, {"type": "node", "id": 6083115717, "lat": 54.4990071, "lon": -2.9240327}, {"type": "node", "id": 6083115718, "lat": 54.4990049, "lon": -2.923902}, {"type": "node", "id": 6268738238, "lat": 54.3211183, "lon": -2.7363026, "tags": {"addr:city": "Kendal", "addr:postcode": "LA9 7BL", "addr:street": "Parkside Road", "amenity": "pub", "fhrs:id": "328848", "name": "Finney's", "website": "http://www.kendaltown.com/page/finney-s.cfm"}}, {"type": "node", "id": 6297100544, "lat": 54.3325057, "lon": -2.7495947}, {"type": "node", "id": 6297100545, "lat": 54.3325106, "lon": -2.7494356}, {"type": "node", "id": 6297100546, "lat": 54.3325923, "lon": -2.7494429}, {"type": "node", "id": 6361017956, "lat": 54.3254691, "lon": -2.7433483}, {"type": "node", "id": 6545502356, "lat": 54.3964151, "lon": -3.2713943, "tags": {"entrance": "yes"}}, {"type": "node", "id": 6545502357, "lat": 54.3962328, "lon": -3.2712047, "tags": {"entrance": "main"}}, {"type": "node", "id": 6875224076, "lat": 54.4675337, "lon": -3.2567195, "tags": {"entrance": "main"}}, {"type": "node", "id": 6875224078, "lat": 54.4677448, "lon": -3.2569888, "tags": {"entrance": "yes"}}, {"type": "node", "id": 6875224081, "lat": 54.4677406, "lon": -3.2570621, "tags": {"entrance": "yes"}}, {"type": "node", "id": 6875224082, "lat": 54.4677187, "lon": -3.2570715, "tags": {"entrance": "yes"}}, {"type": "node", "id": 6875224083, "lat": 54.4677047, "lon": -3.2570778}, {"type": "node", "id": 6875224084, "lat": 54.4677024, "lon": -3.2570628}, {"type": "node", "id": 7176070011, "lat": 54.5558567, "lon": -2.7520361}, {"type": "node", "id": 7194975231, "lat": 54.2010485, "lon": -2.7609558}, {"type": "node", "id": 7194975232, "lat": 54.2010466, "lon": -2.7608388}, {"type": "node", "id": 7197267456, "lat": 54.3262821, "lon": -2.7429708, "tags": {"addr:city": "Kendal", "addr:postcode": "LA9 7DE", "addr:street": "Aynam Road", "addr:unit": "16", "amenity": "pub", "name": "The Barrel House", "operator": "Bowness Bay Brewing"}}, {"type": "node", "id": 7213059146, "lat": 54.2315798, "lon": -3.1818851}, {"type": "node", "id": 7213059147, "lat": 54.2315956, "lon": -3.1818567}, {"type": "node", "id": 7213059148, "lat": 54.2315497, "lon": -3.1819052}, {"type": "node", "id": 7556302222, "lat": 54.2180283, "lon": -2.9012427}, {"type": "node", "id": 7556302223, "lat": 54.2180815, "lon": -2.9012911}, {"type": "node", "id": 7560464299, "lat": 54.4027937, "lon": -3.001758}, {"type": "node", "id": 7843534529, "lat": 54.5129174, "lon": -3.139853}, {"type": "node", "id": 7843534530, "lat": 54.5129819, "lon": -3.1398384}, {"type": "node", "id": 7848792125, "lat": 54.5346669, "lon": -2.9355238}, {"type": "node", "id": 7848792126, "lat": 54.5346059, "lon": -2.9358369}, {"type": "node", "id": 7848792127, "lat": 54.5346188, "lon": -2.9358429}, {"type": "node", "id": 7848792143, "lat": 54.534459, "lon": -2.9361757}, {"type": "node", "id": 7848792144, "lat": 54.5344526, "lon": -2.9362181}, {"type": "node", "id": 7848792145, "lat": 54.5344733, "lon": -2.9359666}, {"type": "node", "id": 7848792146, "lat": 54.5344489, "lon": -2.9359534}, {"type": "node", "id": 7848792147, "lat": 54.5344797, "lon": -2.9358107}, {"type": "node", "id": 7848792148, "lat": 54.5344532, "lon": -2.9357943}, {"type": "node", "id": 7848792149, "lat": 54.534534, "lon": -2.9357083}, {"type": "node", "id": 7848792150, "lat": 54.5344542, "lon": -2.9356516}, {"type": "node", "id": 7848792151, "lat": 54.5344058, "lon": -2.9358426}, {"type": "node", "id": 7848792152, "lat": 54.5344356, "lon": -2.9358605}, {"type": "node", "id": 7848792153, "lat": 54.5345781, "lon": -2.935481}, {"type": "node", "id": 7848792154, "lat": 54.5345874, "lon": -2.9354853}, {"type": "node", "id": 7848792155, "lat": 54.5345987, "lon": -2.9353196}, {"type": "node", "id": 7848792156, "lat": 54.5345734, "lon": -2.9352902}, {"type": "node", "id": 7848792157, "lat": 54.5346192, "lon": -2.935297}, {"type": "node", "id": 7848792158, "lat": 54.5346184, "lon": -2.9353212}, {"type": "node", "id": 7848792159, "lat": 54.5346173, "lon": -2.9351836}, {"type": "node", "id": 7848792160, "lat": 54.5346294, "lon": -2.9350346}, {"type": "node", "id": 8035274701, "lat": 54.467707, "lon": -3.256858}, {"type": "node", "id": 8035274702, "lat": 54.4677377, "lon": -3.2568468}, {"type": "node", "id": 8035274703, "lat": 54.4675946, "lon": -3.2571233}, {"type": "node", "id": 8035274704, "lat": 54.4676399, "lon": -3.2570765}, {"type": "node", "id": 8035274707, "lat": 54.4677355, "lon": -3.2569191}, {"type": "node", "id": 8035274708, "lat": 54.4677464, "lon": -3.2569144}, {"type": "node", "id": 8196685717, "lat": 54.4572069, "lon": -3.0220084}, {"type": "node", "id": 8196685718, "lat": 54.4572232, "lon": -3.0219966}, {"type": "node", "id": 8206628841, "lat": 54.4213369, "lon": -3.0548273, "tags": {"camera:direction": "170", "camera:mount": "wall", "camera:type": "panning", "contact:webcam": "https://www.threeshiresinn.co.uk/webcam", "man_made": "surveillance", "name": "Lake District Webcam", "operator": "The Three Shires Inn", "surveillance": "webcam", "surveillance:type": "camera", "surveillance:zone": "view"}}, {"type": "node", "id": 8443376025, "lat": 54.3002894, "lon": -2.8004406}, {"type": "node", "id": 8443376026, "lat": 54.3003047, "lon": -2.8004351}, {"type": "node", "id": 8443376027, "lat": 54.3002315, "lon": -2.80047}, {"type": "node", "id": 8443376028, "lat": 54.3002813, "lon": -2.8004855}, {"type": "node", "id": 8637614506, "lat": 54.4029268, "lon": -3.0019404}, {"type": "node", "id": 8637614507, "lat": 54.402848, "lon": -3.0019611}, {"type": "node", "id": 8637614508, "lat": 54.4028441, "lon": -3.0019173}, {"type": "node", "id": 8637673723, "lat": 54.3752457, "lon": -2.998833}, {"type": "node", "id": 8637673724, "lat": 54.3752392, "lon": -2.9989457}, {"type": "node", "id": 8637673725, "lat": 54.3752267, "lon": -2.998931}, {"type": "node", "id": 8814906164, "lat": 54.25507, "lon": -3.0726398}, {"type": "node", "id": 8814906165, "lat": 54.2552774, "lon": -3.072807}, {"type": "node", "id": 8855960379, "lat": 54.544112, "lon": -2.955959}, {"type": "node", "id": 9199795147, "lat": 54.5854143, "lon": -3.1732596}, {"type": "node", "id": 9199795148, "lat": 54.5854807, "lon": -3.1732727}, {"type": "node", "id": 9199795154, "lat": 54.5854241, "lon": -3.1732615}, {"type": "node", "id": 9622414621, "lat": 54.2035029, "lon": -2.8328512}, {"type": "node", "id": 9789910976, "lat": 54.3963322, "lon": -3.2712466}, {"type": "node", "id": 9789910977, "lat": 54.3963871, "lon": -3.2713013}, {"type": "node", "id": 9789910978, "lat": 54.3963457, "lon": -3.2712066}, {"type": "node", "id": 9789910979, "lat": 54.3963588, "lon": -3.2712197}, {"type": "node", "id": 9891505553, "lat": 54.2110054, "lon": -3.270917}, {"type": "node", "id": 9891505555, "lat": 54.2109583, "lon": -3.2708534}, {"type": "node", "id": 9891685118, "lat": 54.2110222, "lon": -3.270715}, {"type": "node", "id": 9938714089, "lat": 54.556049, "lon": -2.7521329}, {"type": "node", "id": 9938714090, "lat": 54.555944, "lon": -2.7521227}, {"type": "node", "id": 9938714091, "lat": 54.5559479, "lon": -2.7520931}, {"type": "node", "id": 9938714092, "lat": 54.5558499, "lon": -2.7520796}, {"type": "node", "id": 10159127533, "lat": 54.351281, "lon": -2.957255}, {"type": "node", "id": 10182973144, "lat": 54.3388118, "lon": -3.1019914}, {"type": "node", "id": 10182973145, "lat": 54.3388827, "lon": -3.101924}, {"type": "node", "id": 10182973146, "lat": 54.3388758, "lon": -3.1019027}, {"type": "node", "id": 10182973147, "lat": 54.338805, "lon": -3.1019704}, {"type": "node", "id": 10182973148, "lat": 54.3386213, "lon": -3.1019557}, {"type": "node", "id": 10182973149, "lat": 54.3386272, "lon": -3.1019739}, {"type": "node", "id": 10182973150, "lat": 54.3387913, "lon": -3.1017673}, {"type": "node", "id": 10182973151, "lat": 54.3388132, "lon": -3.1018349}, {"type": "node", "id": 10182973152, "lat": 54.3388309, "lon": -3.1016773}, {"type": "node", "id": 10182973153, "lat": 54.3388439, "lon": -3.1017173}, {"type": "node", "id": 10182973154, "lat": 54.3388827, "lon": -3.1017115}, {"type": "node", "id": 10182973155, "lat": 54.3388746, "lon": -3.1017192}, {"type": "node", "id": 10182973156, "lat": 54.3388952, "lon": -3.1017831}, {"type": "node", "id": 10182973157, "lat": 54.3388829, "lon": -3.1017949}, {"type": "node", "id": 10284670800, "lat": 54.3537693, "lon": -3.1900143, "tags": {"access": "yes", "defibrillator:location": "on outside wall of Newfield Inn ,Seathwaite - facing phone box", "emergency": "defibrillator", "indoor": "no"}}, {"type": "node", "id": 10591972802, "lat": 54.43338, "lon": -2.9636861, "tags": {"addr:city": "Ambleside", "addr:housename": "The Glass House", "addr:postcode": "LA22 9AN", "addr:street": "Rydal Road", "amenity": "pub", "fhrs:id": "1277796", "food": "yes", "name": "The Flying Fleece", "outdoor_seating": "yes", "phone": "+44 15394 23424", "website": "https://theflyingfleece.co.uk/"}}, {"type": "node", "id": 10745045506, "lat": 54.4379304, "lon": -3.046531, "tags": {"entrance": "yes"}}, {"type": "node", "id": 10904892705, "lat": 54.2436662, "lon": -2.7773784}, {"type": "node", "id": 10904892710, "lat": 54.2432823, "lon": -2.776912}, {"type": "node", "id": 10904892711, "lat": 54.2432198, "lon": -2.7771348}, {"type": "node", "id": 10904892716, "lat": 54.2433702, "lon": -2.7766513}, {"type": "node", "id": 10904892717, "lat": 54.2433843, "lon": -2.7766044}, {"type": "node", "id": 10904892718, "lat": 54.2434533, "lon": -2.776426}, {"type": "node", "id": 10904892719, "lat": 54.2436312, "lon": -2.7764917}, {"type": "node", "id": 10904892723, "lat": 54.2439541, "lon": -2.77684}, {"type": "node", "id": 10904892729, "lat": 54.2435792, "lon": -2.7774043}, {"type": "node", "id": 10904892733, "lat": 54.2435024, "lon": -2.7774272}, {"type": "node", "id": 10904892734, "lat": 54.2439744, "lon": -2.7772773}, {"type": "node", "id": 10904892741, "lat": 54.2431923, "lon": -2.7772424}, {"type": "node", "id": 10904892744, "lat": 54.2432437, "lon": -2.7773916}, {"type": "node", "id": 10904892745, "lat": 54.2432447, "lon": -2.7770459}, {"type": "node", "id": 10904892748, "lat": 54.2432729, "lon": -2.7769456}, {"type": "node", "id": 10904892773, "lat": 54.243942, "lon": -2.7765794}, {"type": "node", "id": 10904892774, "lat": 54.2438887, "lon": -2.7765728}, {"type": "node", "id": 11030766983, "lat": 54.4454227, "lon": -3.1026696}, {"type": "node", "id": 11110400531, "lat": 54.2551508, "lon": -3.0728949, "tags": {"access": "yes", "defibrillator:location": "On the outside wall of the pub facing the road.", "emergency": "defibrillator", "indoor": "no"}}, {"type": "node", "id": 11125148415, "lat": 54.2374654, "lon": -3.0600579, "tags": {"access": "yes", "defibrillator:location": "On outside wall of pub.", "emergency": "defibrillator", "indoor": "no"}}, {"type": "node", "id": 11217403201, "lat": 54.4259438, "lon": -2.9048425}, {"type": "node", "id": 11217403202, "lat": 54.4260461, "lon": -2.904924}, {"type": "node", "id": 11217403203, "lat": 54.4261221, "lon": -2.9049374}, {"type": "node", "id": 11217403204, "lat": 54.4261394, "lon": -2.9047726}, {"type": "node", "id": 11217403205, "lat": 54.4260564, "lon": -2.9046649}, {"type": "node", "id": 11217403206, "lat": 54.4260581, "lon": -2.9046472}, {"type": "node", "id": 11219817371, "lat": 54.4344886, "lon": -3.0379932}, {"type": "node", "id": 11219817372, "lat": 54.4344087, "lon": -3.0379048}, {"type": "node", "id": 11219817373, "lat": 54.4344624, "lon": -3.0377401}, {"type": "node", "id": 11220622986, "lat": 54.4313825, "lon": -3.0381195}, {"type": "node", "id": 11220622987, "lat": 54.4313841, "lon": -3.0380954}, {"type": "node", "id": 11220622995, "lat": 54.431211, "lon": -3.0381338}, {"type": "node", "id": 11220622996, "lat": 54.4311887, "lon": -3.0380122}, {"type": "node", "id": 11220622997, "lat": 54.4311272, "lon": -3.0382728}, {"type": "node", "id": 11220623002, "lat": 54.43103, "lon": -3.0381657}, {"type": "node", "id": 11220623003, "lat": 54.4310731, "lon": -3.038141}, {"type": "node", "id": 11220623004, "lat": 54.4310711, "lon": -3.0381274}, {"type": "node", "id": 11220623005, "lat": 54.4309824, "lon": -3.0381744}, {"type": "node", "id": 11220623006, "lat": 54.4310241, "lon": -3.0381954}, {"type": "node", "id": 11220623008, "lat": 54.4310848, "lon": -3.0379496, "tags": {"entrance": "main"}}, {"type": "node", "id": 11220623010, "lat": 54.4310806, "lon": -3.0381208, "tags": {"entrance": "yes"}}, {"type": "node", "id": 11288745430, "lat": 54.4378614, "lon": -3.0467016}, {"type": "node", "id": 11288745431, "lat": 54.4378616, "lon": -3.0467513}, {"type": "node", "id": 11288745432, "lat": 54.4378035, "lon": -3.0467519}, {"type": "node", "id": 11288745433, "lat": 54.4378032, "lon": -3.046681}, {"type": "node", "id": 11288745434, "lat": 54.4377297, "lon": -3.0466818}, {"type": "node", "id": 11288745435, "lat": 54.43773, "lon": -3.0467747}, {"type": "node", "id": 11288745436, "lat": 54.4376768, "lon": -3.0467753}, {"type": "node", "id": 11288745437, "lat": 54.4376767, "lon": -3.0467619}, {"type": "node", "id": 11288745438, "lat": 54.4376289, "lon": -3.0467624}, {"type": "node", "id": 11288745439, "lat": 54.4376286, "lon": -3.0466725}, {"type": "node", "id": 11329686487, "lat": 54.4455318, "lon": -3.1024893}, {"type": "node", "id": 11329686489, "lat": 54.4454411, "lon": -3.1025172}, {"type": "node", "id": 11329686490, "lat": 54.4454518, "lon": -3.102521}, {"type": "node", "id": 11329686491, "lat": 54.4454588, "lon": -3.1024633}, {"type": "node", "id": 11329686500, "lat": 54.4454372, "lon": -3.1025493}, {"type": "node", "id": 11353757282, "lat": 54.4486735, "lon": -3.0892851}, {"type": "node", "id": 11391823259, "lat": 54.4213893, "lon": -3.0548601}, {"type": "node", "id": 11391823260, "lat": 54.4214743, "lon": -3.0549076}, {"type": "node", "id": 11391823261, "lat": 54.4214611, "lon": -3.0549769}, {"type": "node", "id": 11391823262, "lat": 54.4213438, "lon": -3.0548324}, {"type": "node", "id": 11391823264, "lat": 54.4215478, "lon": -3.0547972}, {"type": "node", "id": 11391823265, "lat": 54.4215544, "lon": -3.0547623}, {"type": "node", "id": 11391823266, "lat": 54.4215215, "lon": -3.0550107}, {"type": "node", "id": 11391823267, "lat": 54.4215421, "lon": -3.054902}, {"type": "node", "id": 11460846217, "lat": 54.6001307, "lon": -3.1371696}, {"type": "node", "id": 11685020810, "lat": 54.3221242, "lon": -2.8194521}, {"type": "node", "id": 11685020815, "lat": 54.3222319, "lon": -2.8193948}, {"type": "node", "id": 11953460536, "lat": 54.3536524, "lon": -3.1901369}, {"type": "node", "id": 11953460537, "lat": 54.3536817, "lon": -3.1900818}, {"type": "node", "id": 11953460538, "lat": 54.3535946, "lon": -3.1901464}, {"type": "node", "id": 11953460539, "lat": 54.3536149, "lon": -3.1901082}, {"type": "node", "id": 11953460540, "lat": 54.3536305, "lon": -3.1901326}, {"type": "node", "id": 11953460541, "lat": 54.3536392, "lon": -3.1901162}, {"type": "node", "id": 11953460542, "lat": 54.3534801, "lon": -3.1898751}, {"type": "node", "id": 11953460543, "lat": 54.3534867, "lon": -3.18988}, {"type": "node", "id": 11953460544, "lat": 54.3535879, "lon": -3.1897352, "tags": {"entrance": "main"}}, {"type": "node", "id": 11953460547, "lat": 54.3535172, "lon": -3.189645}, {"type": "node", "id": 11953517694, "lat": 54.3535986, "lon": -3.1901388}, {"type": "node", "id": 12037584840, "lat": 54.3752892, "lon": -2.9987365}, {"type": "node", "id": 12037584841, "lat": 54.3752345, "lon": -2.9986641}, {"type": "node", "id": 12078436898, "lat": 54.2394421, "lon": -2.8583811}, {"type": "node", "id": 12544200078, "lat": 54.3256709, "lon": -2.7433008}, {"type": "node", "id": 12554055686, "lat": 54.3254522, "lon": -2.7434063}, {"type": "node", "id": 12554055689, "lat": 54.3255928, "lon": -2.7433192}, {"type": "node", "id": 12554055690, "lat": 54.3255413, "lon": -2.7433313}, {"type": "node", "id": 12554055691, "lat": 54.3255384, "lon": -2.7432672}, {"type": "node", "id": 12554055692, "lat": 54.3255884, "lon": -2.7432575}, {"type": "node", "id": 12563939790, "lat": 54.2479725, "lon": -3.0024929}, {"type": "node", "id": 12563939791, "lat": 54.2479772, "lon": -3.0024609}, {"type": "node", "id": 12563939792, "lat": 54.2479143, "lon": -3.0024674}, {"type": "node", "id": 12563939793, "lat": 54.2478992, "lon": -3.002461}, {"type": "node", "id": 12563939794, "lat": 54.2478505, "lon": -3.0027935}, {"type": "node", "id": 12563939795, "lat": 54.2477873, "lon": -3.0028651}, {"type": "node", "id": 12563939796, "lat": 54.2478009, "lon": -3.0027722}, {"type": "node", "id": 12602098866, "lat": 54.3283415, "lon": -2.7466254}, {"type": "node", "id": 12602098867, "lat": 54.3282278, "lon": -2.7466791}, {"type": "node", "id": 12602098868, "lat": 54.328106, "lon": -2.7466931}, {"type": "node", "id": 12602098869, "lat": 54.3281094, "lon": -2.7466196}, {"type": "node", "id": 12602098870, "lat": 54.3280529, "lon": -2.7466277}, {"type": "node", "id": 12602098871, "lat": 54.3280535, "lon": -2.746553}, {"type": "node", "id": 12602098872, "lat": 54.3279596, "lon": -2.7465448}, {"type": "node", "id": 12602098873, "lat": 54.3279133, "lon": -2.7464211}, {"type": "node", "id": 12602098874, "lat": 54.3279793, "lon": -2.7464538}, {"type": "node", "id": 12602098875, "lat": 54.3282333, "lon": -2.7464911}, {"type": "node", "id": 12602098876, "lat": 54.3282319, "lon": -2.7465612}, {"type": "node", "id": 12602098877, "lat": 54.3282843, "lon": -2.7465729}, {"type": "node", "id": 12602098878, "lat": 54.3282816, "lon": -2.7466126}, {"type": "node", "id": 12652248240, "lat": 54.3277114, "lon": -2.7445933}, {"type": "node", "id": 12652248243, "lat": 54.3276355, "lon": -2.7446334, "tags": {"addr:city": "Kendal", "addr:housenumber": "14", "addr:postcode": "LA9 4AT", "addr:street": "Kent Street", "amenity": "pub", "brewery": "Handsome Brewery", "cocktails": "yes", "contact:facebook": "https://www.facebook.com/people/Handsome-Snuff-Bar-Kendal/100090606926682/", "dog": "yes", "drink:beer": "yes", "level": "0", "live_music": "yes", "name": "Handsome Snuff Bar", "opening_hours": "We,Th 16:00-22:00; Fr,Sa 15:00-23:00", "real_ale": "yes", "website": "https://www.handsomebrewery.com/", "wheelchair": "no", "wheelchair:description": "5 steps, with handrail, up to front door"}}, {"type": "node", "id": 12657186215, "lat": 54.37389, "lon": -2.9068585}, {"type": "way", "id": 70818565, "nodes": [844541439, 10182973157, 10182973156, 10182973155, 10182973154, 844541440, 10182973152, 10182973153, 10182973150, 10182973151, 1100394181, 1100394203, 10182973148, 10182973149, 844541444, 844541445, 10182973147, 10182973144, 10182973145, 10182973146, 844541439], "tags": {"addr:city": "Torver", "addr:postcode": "LA21 8AZ", "amenity": "pub", "building": "hotel", "fhrs:id": "328945", "name": "The Church House Inn", "phone": "+44 15394 49159", "postal_code": "LA21 8AZ", "roof:shape": "gabled", "source": "survey;Bing;website", "tourism": "guest_house", "website": "https://www.thechurchhouseinn.com/", "wikidata": "Q26415146"}}, {"type": "way", "id": 70931216, "nodes": [486596257, 7556302223, 845346548, 845346549, 845346550, 7556302222, 486596257], "tags": {"addr:city": "Grange-Over-Sands", "addr:postcode": "LA11 6LX", "addr:street": "Lindale Hill", "amenity": "pub", "building": "yes", "fhrs:id": "328643", "name": "The Royal Oak", "naptan:AtcoCode": "090079033888", "naptan:Bearing": "SE", "naptan:BusStopType": "CUS", "naptan:CommonName": "The Royal Oak Inn-Lingarth", "naptan:Indicator": "o/s", "naptan:Landmark": "Royal Oak Inn", "naptan:NaptanCode": "cumdpdat", "naptan:Street": "The Gill", "naptan:verified": "no", "source": "survey;OS;naptan_import"}}, {"type": "way", "id": 71395338, "nodes": [849542425, 7194975232, 849542427, 7194975231, 849542436, 849542437, 849542425], "tags": {"addr:city": "Hale", "addr:postcode": "LA7 7BH", "amenity": "pub", "building": "yes", "fhrs:id": "299779", "name": "The Tavern", "old_name": "The King's Arms", "outdoor_seating": "yes", "source": "survey;OS"}}, {"type": "way", "id": 92442958, "nodes": [5582729673, 5582729672, 5582729651, 1073215804, 5582729681, 5582729680, 1073215806, 1073215807, 1073215798, 5582729650, 5582729673], "tags": {"amenity": "pub", "building": "yes", "name": "Red Lion"}}, {"type": "way", "id": 94399773, "nodes": [1096600823, 1096599576, 1096600924, 1096599986, 1096600823], "tags": {"amenity": "pub", "building": "yes", "name": "Manor Arms", "source": "visual survey;bing"}}, {"type": "way", "id": 94406634, "nodes": [1096714427, 1096714933, 1096715772, 1096714738, 1096714377, 1096715354, 1096714195, 1096715156, 1096714827, 1096715680, 1096714596, 1096715527, 1096715489, 1096714427], "tags": {"amenity": "pub", "building": "yes", "name": "The Old Kings Head", "source": "bing", "wikidata": "Q26431454"}}, {"type": "way", "id": 94784423, "nodes": [1100394215, 1100394167, 1100394160, 1100394099, 1100394171, 1100394129, 1100394120, 1100394204, 1100394215], "tags": {"addr:city": "Torver", "addr:postcode": "LA21 8BB", "amenity": "pub", "building": "yes", "fhrs:id": "328966", "internet_access": "wlan", "name": "The Wilson Arms", "name:en": "The Wilson Arms", "phone": "+44 15394 41237", "source": "Bing;website", "stars": "3", "tourism": "guest_house", "website": "http://www.wilsonarms.co.uk/"}}, {"type": "way", "id": 150517938, "nodes": [1634203124, 1634203119, 1634203117, 1634203116, 1634203123, 1634203122, 1634203124], "tags": {"addr:city": "Boot", "addr:postcode": "CA19 1TG", "amenity": "pub", "building": "yes", "name": "Boot Inn", "old_name": "Burnmoor Inn", "phone": "+44 1946 723711", "real_ale": "yes", "real_fire": "yes"}}, {"type": "way", "id": 161717694, "nodes": [1736741519, 1736741191, 1736741038, 4462353240, 3721953490, 3721953491, 1736741366, 11353757282, 1736741519], "tags": {"addr:city": "Great Langdale", "addr:postcode": "LA22 9JU", "amenity": "pub", "building": "yes", "fhrs:id": "299228", "food": "yes", "indoor_seating": "yes", "name": "Sticklebarn", "operator": "Lanty Slee's", "outdoor_seating": "yes", "phone": "+44 1539 437 356", "website": "https://lantyslee.com/langdale/"}}, {"type": "way", "id": 162764700, "nodes": [1745919502, 6875224078, 8035274707, 8035274708, 8035274702, 8035274701, 1745919501, 1745919499, 1745919495, 6875224076, 3079197259, 1745919488, 1745919484, 5199065741, 1745919486, 5199065739, 8035274703, 5199065740, 8035274704, 6875224084, 6875224083, 6875224082, 6875224081, 1745919502], "tags": {"accommodation": "yes", "addr:city": "Gosforth", "addr:place": "Wasdale Head", "addr:postcode": "CA20 1EX", "amenity": "pub", "building": "yes", "check_date": "2024-10-11", "email": "reception@wasdale.com", "fhrs:id": "229693", "food": "yes", "internet_access": "no", "name": "Wasdale Head Inn", "phone": "+44 19467 26229", "real_ale": "yes", "real_cider": "yes", "source": "survey;bing;gps", "website": "http://wasdale.com/"}}, {"type": "way", "id": 163631793, "nodes": [1752978719, 1752978787, 1752978793, 6545502356, 1752978785, 9789910977, 9789910976, 9789910978, 9789910979, 1752978798, 1752978783, 1752978780, 1752978737, 6545502357, 1752978719], "tags": {"addr:city": "Boot", "addr:postcode": "CA19 1TG", "amenity": "pub", "building": "yes", "name": "Brook House Inn", "phone": "+44 19467 23288", "source": "survey;bing", "website": "https://www.brookhouseinn.co.uk/"}}, {"type": "way", "id": 163631794, "nodes": [1752979543, 1752979548, 1752979511, 1752979502, 1752979446, 1752979437, 1752979518, 1752979522, 1752979543], "tags": {"addr:city": "Eskdale", "addr:postcode": "CA19 1TH", "amenity": "pub", "building": "yes", "name": "Woolpack Inn", "phone": "+44 19467 23230", "source": "survey;bing", "website": "https://woolpack.co.uk/"}}, {"type": "way", "id": 184318813, "nodes": [8637614506, 8637614507, 8637614508, 1947829957, 1947829949, 7560464299, 1947829974, 1947830022, 5327275253, 5327275252, 5327275251, 5327275250, 8637614506], "tags": {"addr:city": "Ambleside", "addr:hamlet": "Barngates", "addr:postcode": "LA22 0NG", "amenity": "pub", "building": "yes", "fhrs:id": "299205", "name": "The Drunken Duck"}}, {"type": "way", "id": 202830606, "nodes": [2127672143, 2127672135, 2127672213, 2127672160, 2127672105, 11460846217, 2127672109, 2127672219, 2127672162, 4000806654, 2127672198, 2127672143], "tags": {"addr:city": "Keswick", "addr:housenumber": "10", "addr:postcode": "CA12 5BT", "addr:street": "Lake Road", "amenity": "pub", "building": "yes", "name": "Lake Road Inn", "phone": "+44 1768 772404", "website": "http://www.lakeroadinn.robinsonsbrewery.com/", "wheelchair": "limited"}}, {"type": "way", "id": 204093969, "nodes": [2141111014, 2141111017, 2141111008, 2141111001, 3247861267, 3247861261, 3247861157, 3247861266, 2141111020, 2141111011, 2141111014], "tags": {"addr:city": "Sandside", "addr:postcode": "LA7 7HW", "amenity": "pub", "building": "yes", "fhrs:id": "328609", "name": "The Ship Inn", "phone": "+44 15395 63113"}}, {"type": "way", "id": 221403845, "nodes": [2304271554, 2304271556, 2304271557, 2304271559, 2304271554], "tags": {"addr:city": "Kendal", "addr:postcode": "LA9 7PG", "addr:street": "Esthwaite Avenue", "amenity": "pub", "building": "yes", "fhrs:id": "328662", "name": "The Heron", "outdoor_seating": "yes", "phone": "+44 1539 737571", "website": "http://www.heronkendal.co.uk/index", "wheelchair": "yes"}}, {"type": "way", "id": 225123977, "nodes": [2339430721, 2339430715, 2339430718, 7843534529, 4885560745, 7843534530, 4885560747, 4885560746, 4885560744, 2339430723, 2339430721], "tags": {"addr:city": "Stonethwaite", "addr:postcode": "CA12 5XG", "amenity": "pub", "building": "yes", "fhrs:id": "267179", "name": "The Langstrath Inn", "name:en": "Langstrath Country Inn", "phone": "+44 1768 777239", "tourism": "hotel", "website": "http://www.thelangstrath.com/"}}, {"type": "way", "id": 230372134, "nodes": [253264677, 2388836047, 2388836036, 2388836074, 2388836022, 2388836017, 253264677], "tags": {"addr:city": "Dockray", "addr:housename": "The Royal Hotel", "addr:postcode": "CA11 0JY", "amenity": "pub", "building": "yes", "fhrs:id": "307129", "name": "The Royal Hotel", "website": "https://www.the-royal-dockray.co.uk/"}}, {"type": "way", "id": 231764096, "nodes": [2400970493, 10284670800, 2400970511, 2400970504, 2400970531, 11953460544, 3055223311, 2400970486, 4910913707, 2400970525, 11953460547, 2400970505, 2400970510, 11953460542, 11953460543, 2400970506, 2400970490, 2400970516, 2400970533, 2400970512, 11953460538, 11953517694, 11953460539, 11953460540, 11953460541, 11953460536, 11953460537, 2400970474, 2400970493], "tags": {"accommodation": "yes", "addr:city": "Seathwaite", "addr:housename": "Newfield Inn", "addr:place": "Seathwaite", "addr:postcode": "LA20 6ED", "air_conditioning": "no", "amenity": "pub", "building": "pub", "building:levels": "2", "diet:gluten_free": "yes", "diet:vegan": "yes", "diet:vegetarian": "yes", "dog": "yes", "fhrs:id": "299825", "food": "yes", "indoor_seating": "yes", "internet_access": "wlan", "internet_access:fee": "no", "live_music": "yes", "name": "Newfield Inn", "opening_hours": "11:00-23:00", "opening_hours:kitchen": "09:00-21:00", "outdoor_seating": "yes", "payment:cash": "yes", "payment:credit_cards": "yes", "payment:debit_cards": "yes", "phone": "+44 1229 716208", "real_ale": "yes", "roof:levels": "0", "roof:shape": "gabled", "toilets": "yes", "toilets:access": "customers", "website": "https://www.newfieldinn.co.uk/"}}, {"type": "way", "id": 239880518, "nodes": [2476574098, 2476574087, 4228214188, 4228214185, 2476574158, 2476574214, 2476574233, 2476574173, 2476574246, 2476574176, 2476574112, 2476574237, 2476574098], "tags": {"addr:city": "Ambleside", "addr:postcode": "LA22 9AN", "addr:street": "Rydal Road", "amenity": "pub", "building": "retail", "fhrs:id": "1380476", "food": "yes", "name": "Ambleside Tap Yard"}}, {"type": "way", "id": 247369692, "nodes": [2542683509, 12652248240, 2542683550, 2542683589, 2542683565, 2542683579, 2542683545, 2542683509], "tags": {"addr:city": "Kendal", "addr:housenumber": "12", "addr:postcode": "LA9 4AT", "addr:street": "Kent Street", "amenity": "pub", "building": "yes", "building:levels": "3", "fhrs:id": "441670", "name": "Ivy Leaf Club", "roof:levels": "0", "roof:orientation": "across", "roof:shape": "gabled"}}, {"type": "way", "id": 257228751, "nodes": [2628269532, 2628269534, 2628269535, 2628269549, 2628269532], "tags": {"addr:city": "Kendal", "addr:housename": "Castle Green Hotel", "addr:postcode": "LA9 6RG", "addr:street": "Castle Green Lane", "amenity": "pub", "building": "yes", "fhrs:id": "328727", "name": "Alexander's The Pub", "phone": "+44 1539 797017", "website": "https://www.castlegreen.co.uk/food-drink/alexanders-the-pub.aspx", "wheelchair": "yes"}}, {"type": "way", "id": 260343926, "nodes": [2658104847, 8855960379, 4956366380, 4956366383, 2658104907, 2658104746, 4956366378, 4956366377, 2658104899, 2658104847], "tags": {"addr:city": "Glenridding", "addr:postcode": "CA11 0QQ", "amenity": "pub", "building": "yes", "fhrs:id": "307916", "name": "Travellers Rest", "phone": "+44 17684 82298"}}, {"type": "way", "id": 283808519, "nodes": [2876333250, 2876333237, 10745045506, 2876333244, 2876333260, 3723625670, 3723625669, 3723625668, 2876333243, 2876333266, 2876333236, 2876333258, 2876333207, 11288745439, 11288745438, 11288745437, 11288745436, 11288745435, 11288745434, 11288745433, 11288745432, 11288745431, 11288745430, 2876331884, 2876333217, 2876333250], "tags": {"addr:city": "Chapel Stile", "addr:postcode": "LA22 9JD", "amenity": "pub", "building": "yes", "check_date": "2025-03-20", "fhrs:id": "299723", "indoor_seating": "yes", "internet_access": "wlan", "internet_access:fee": "no", "name": "Wainwrights' Inn", "outdoor_seating": "yes", "real_fire": "yes", "smoking": "no", "toilets": "yes", "website": "https://www.langdale.co.uk/wainwrights-inn.html"}}, {"type": "way", "id": 294960707, "nodes": [2985996710, 12657186215, 4254358707, 2985996711, 2985996712, 2985996713, 2985996714, 2985996715, 2985996710], "tags": {"addr:city": "Windermere", "addr:postcode": "LA23 2BX", "addr:street": "Lake Road", "amenity": "pub", "building": "yes", "diet:vegan": "limited", "diet:vegetarian": "yes", "fhrs:id": "299478", "food": "yes", "internet_access": "wlan", "name": "The Brookside", "opening_hours": "Mo-Su 15:00+", "outdoor_seating": "yes", "phone": "+44 15394 43541"}}, {"type": "way", "id": 294963089, "nodes": [2986018488, 2986018489, 2986018490, 2986018491, 4667067034, 4667067033, 4667067032, 4667067031, 4667067030, 4667067024, 4667067025, 4667067026, 4667067027, 4667067028, 4667067029, 2986018488], "tags": {"addr:city": "Thirlspot", "addr:postcode": "CA12 4TN", "amenity": "pub", "building": "yes", "fhrs:id": "267757", "name": "King's Head Inn", "phone": "+44 17687 72393", "website": "https://www.lakedistrictinns.co.uk/kings-head-inn", "wikidata": "Q26415795"}}, {"type": "way", "id": 295339225, "nodes": [2990517507, 8814906164, 2990517506, 2990517508, 2990517514, 2990517513, 2990517518, 2990517517, 8814906165, 2990517516, 2990517515, 11110400531, 2990517507], "tags": {"amenity": "pub", "building": "yes", "name": "Farmers Arms", "wikidata": "Q26597940"}}, {"type": "way", "id": 295845913, "nodes": [2996031598, 2996031599, 2996031600, 2996031601, 2996031602, 9199795148, 9199795154, 9199795147, 2996031603, 2996031604, 2996031605, 2996031598], "tags": {"addr:city": "Keswick", "addr:postcode": "CA12 5UE", "addr:street": "Newlands Valley", "amenity": "pub", "building": "yes", "dog": "yes", "fhrs:id": "267677", "name": "Swinside Inn", "phone": "+44 17687 78253", "website": "https://swinsideinn.co.uk/"}}, {"type": "way", "id": 303191849, "nodes": [3075282089, 3075282090, 3075282091, 3075282092, 3075282093, 3075282094, 3075282095, 3075282096, 3075282097, 11685020810, 3075282099, 11685020815, 3075282100, 3075282089], "tags": {"addr:city": "Underbarrow", "addr:postcode": "LA8 8HQ", "amenity": "pub", "building": "yes", "fhrs:id": "328752", "name": "The Black Labrador", "old_name": "Punch Bowl"}}, {"type": "way", "id": 303192613, "nodes": [3075290753, 3075290754, 3075290755, 3075290756, 3075290753], "tags": {"addr:city": "Crook", "addr:postcode": "LA8 8LA", "amenity": "pub", "building": "yes", "fhrs:id": "328959", "name": "Sun Inn", "wikidata": "Q26507857"}}, {"type": "way", "id": 319231074, "nodes": [3256447345, 3256447346, 3256447347, 3256447348, 3256447349, 3256447350, 3256447351, 3256447352, 3256447353, 3256447354, 3256447355, 3256447356, 3256447357, 3256447358, 3256447345], "tags": {"amenity": "pub", "building": "yes", "indoor_seating": "yes", "name": "The Punch Bowl", "outdoor_seating": "yes"}}, {"type": "way", "id": 320492311, "nodes": [3270154568, 11391823262, 8206628841, 3270154569, 3270154570, 3270154571, 3270154572, 3270154573, 11391823264, 11391823265, 3270154574, 3270154575, 11391823267, 11391823266, 11391823261, 11391823260, 11391823259, 3270154424, 3270154568], "tags": {"addr:city": "Little Langdale", "addr:postcode": "LA22 9NZ", "amenity": "pub", "building": "yes", "building:levels": "2", "diet:vegetarian": "yes", "fhrs:id": "299666", "food": "yes", "name": "Three Shires Inn", "outdoor_seating": "yes", "phone": "+44 15394 37215", "roof:levels": "0", "website": "https://www.threeshiresinn.co.uk/", "wikidata": "Q26537847", "wikimedia_commons": "File:Three Shires Inn - geograph.org.uk - 408805.jpg"}}, {"type": "way", "id": 320493043, "nodes": [3270165167, 3270165168, 3270165169, 5105252657, 3270165170, 11220622997, 3270165171, 11220623010, 11220623004, 11220623003, 11220623002, 11220623006, 11220623005, 5105252664, 3270165191, 11220623008, 3270165190, 5105252662, 11220622996, 11220622995, 5105252663, 5105252659, 3270165178, 3270165179, 11220622986, 11220622987, 3270165167], "tags": {"addr:city": "Elterwater", "addr:postcode": "LA22 9HY", "amenity": "pub", "building": "yes", "fhrs:id": "299334", "name": "Eltermere Inn", "phone": "+44 15394 37207", "website": "https://www.eltermere.co.uk/", "wikidata": "Q26561840"}}, {"type": "way", "id": 320494070, "nodes": [3270180114, 3270180115, 3270180116, 11219817371, 3687059692, 3270180119, 3687059691, 3270180120, 3270180121, 11219817372, 3270180122, 3687059688, 11219817373, 3270180123, 3270180124, 3270180125, 3270180114], "tags": {"addr:city": "Elterwater", "addr:postcode": "LA22 9HP", "addr:street": "Mill Row", "amenity": "pub", "building": "yes", "fhrs:id": "299828", "name": "Britannia Inn", "outdoor_seating": "yes", "phone": "+44 15394 37210", "website": "https://thebritanniainn.com/", "wikidata": "Q26537761", "wikipedia": "en:Britannia Inn"}}, {"type": "way", "id": 320528887, "nodes": [3270628487, 3270628488, 12563939795, 12563939796, 12563939794, 12563939793, 12563939792, 3270628490, 12563939791, 12563939790, 3270628487], "tags": {"addr:city": "Haverthwaite", "addr:postcode": "LA12 8AJ", "addr:street": "Old Barrow Road", "amenity": "pub", "building": "yes", "fhrs:id": "299638", "name": "The Anglers Arms", "outdoor_seating": "yes", "phone": "+44 15395 31216"}}, {"type": "way", "id": 321492228, "nodes": [3282430212, 3282430213, 3282430214, 3282430215, 3282430220, 3282430212], "tags": {"addr:city": "Millom", "addr:housenumber": "2", "addr:postcode": "LA18 4DB", "addr:street": "St George's Terrace", "amenity": "pub", "building": "yes", "name": "The Bear On The Square"}}, {"type": "way", "id": 321492229, "nodes": [3282430216, 3282430219, 3282430212, 3282430213, 3282430214, 3282430217, 3390380385, 3282430216], "tags": {"addr:city": "Millom", "addr:housenumber": "4-6", "addr:postcode": "LA18 4DB", "addr:street": "St George's Terrace", "alt_name": "Reflections Nightclub", "amenity": "pub", "building": "yes", "name": "Millom Workies"}}, {"type": "way", "id": 323322612, "nodes": [3301231102, 3301231115, 8196685717, 8196685718, 3301231113, 3301231099, 3301231102], "tags": {"addr:city": "Grasmere", "addr:housename": "1 Rothay Villa", "addr:postcode": "LA22 9SJ", "addr:street": "Stock Lane", "amenity": "pub", "building": "yes", "cuisine": "english", "fhrs:id": "328831", "internet_access": "wlan", "name": "The Distiller\u2019s Arms", "opening_hours": "Mo-Su 08:30-23:00", "outdoor_seating": "yes", "website": "https://www.grasmeredistillery.com/tap-room/"}}, {"type": "way", "id": 327685574, "nodes": [3344910397, 3344910398, 3344910399, 3344910400, 3344910401, 3344910402, 3344910397], "tags": {"amenity": "pub", "building": "yes", "name": "Devonshire Hotel", "opening_hours": "\"variiable and unpredictable\""}}, {"type": "way", "id": 332006242, "nodes": [3391079795, 3391079796, 9938714089, 9938714090, 9938714091, 3391079797, 9938714092, 7176070011, 3391079798, 3391079800, 3391079795], "tags": {"accommodation": "yes", "addr:city": "Bampton", "addr:postcode": "CA10 2RQ", "amenity": "pub", "brewery": "various;cumbrian_ales", "building": "pub", "building:levels": "2", "email": "info@themardaleinn.com", "fhrs:id": "306913", "name": "The Mardale Inn", "operator": "Bampton Valley Community Pub", "phone": "+44 1931 719202", "roof:orientation": "along", "roof:shape": "gabled", "rooms": "4", "website": "https://www.themardaleinn.com/"}}, {"type": "way", "id": 332007772, "nodes": [3391094277, 3391094278, 3391094279, 3391094280, 3391094281, 3391094282, 3391094283, 3391094284, 3391094277], "tags": {"addr:city": "Bampton Grange", "addr:postcode": "CA10 2QR", "addr:street": "Main Street", "amenity": "pub", "building": "yes", "fhrs:id": "307928", "name": "The Crown & Mitre Inn", "phone": "+44 1931 713225", "website": "https://www.crownandmitre.com/", "wikidata": "Q26612256"}}, {"type": "way", "id": 332120398, "nodes": [3392416527, 3392416528, 3688978954, 3688978955, 3392416530, 3392416531, 3392416532, 3392416527], "tags": {"addr:city": "Patterdale", "addr:postcode": "CA11 0NW", "amenity": "pub", "building": "yes", "fhrs:id": "307912", "food": "yes", "name": "White Lion Inn", "phone": "+44 17684 82214", "smoking": "outside", "website": "https://www.whitelionpatterdale.com/"}}, {"type": "way", "id": 332120405, "nodes": [3548271917, 7848792159, 7848792160, 3392416568, 7848792125, 7848792126, 7848792127, 3392416569, 7848792144, 7848792143, 3392416570, 7848792145, 7848792146, 7848792147, 7848792148, 7848792152, 7848792151, 7848792150, 7848792149, 7848792153, 7848792154, 7848792155, 7848792158, 7848792157, 7848792156, 3548271917], "tags": {"addr:city": "Patterdale", "addr:postcode": "CA11 0NN", "amenity": "pub", "building": "yes", "fhrs:id": "307841", "name": "Patterdale Hotel", "phone": "+44 17684 82231", "tourism": "hotel", "website": "https://www.patterdalehotel.co.uk/"}}, {"type": "way", "id": 332388265, "nodes": [3395081110, 3395081111, 3395081112, 3395081113, 3395081114, 3395081115, 3395081116, 3395081117, 3395081110], "tags": {"addr:city": "Grasmere", "addr:housename": "Traveller's Rest Inn", "addr:postcode": "LA22 9RR", "amenity": "pub", "building": "yes", "fhrs:id": "328738", "name": "The Travellers Rest Inn", "phone": "+44 15394 35604", "website": "https://www.lakedistrictinns.co.uk/travellers-rest"}}, {"type": "way", "id": 348765067, "nodes": [3548272318, 5098501812, 5098501813, 5098501814, 3548272319, 3548272320, 3548272321, 3548272322, 3548272323, 3548272324, 3548272325, 3548272318], "tags": {"addr:city": "Hartsop", "addr:postcode": "CA11 0NZ", "amenity": "pub", "brewery": "yes;various", "building": "retail", "building:material": "stone", "check_date": "2023-07-29", "fhrs:id": "307893", "internet_access": "wlan", "internet_access:fee": "no", "name": "Brotherswater Inn", "payment:mastercard": "yes", "payment:visa": "yes", "smoking": "isolated", "wheelchair": "limited"}}, {"type": "way", "id": 354013052, "nodes": [3598106110, 3598106111, 3598106112, 3598106113, 3598106110], "tags": {"addr:city": "Kendal", "addr:housenumber": "159", "addr:postcode": "LA9 4RF", "addr:street": "Stricklandgate", "amenity": "pub", "building": "yes", "building:levels": "3", "fhrs:id": "1049161", "name": "The New Union", "opening_hours": "Mo-Sa 15:00-23:00; Su 15:00-21:00", "roof:levels": "0", "roof:shape": "gabled"}}, {"type": "way", "id": 354286500, "nodes": [3600274811, 3600274812, 3600274813, 3600274814, 3600274815, 3600274816, 3600274817, 3600274818, 3600274819, 3600274820, 3600274811], "tags": {"addr:city": "Kendal", "addr:housenumber": "1", "addr:postcode": "LA9 6ES", "addr:street": "Appleby Road", "amenity": "pub", "building": "yes", "fhrs:id": "328855", "name": "Duke of Cumberland", "phone": "+44 1539 738534"}}, {"type": "way", "id": 354301367, "nodes": [3600387205, 3600387209, 3600387206, 3600387210, 3600387207, 3600387208, 3600387205], "tags": {"addr:city": "Kendal", "addr:postcode": "LA9 6DE", "addr:street": "Mintsfeet Road", "amenity": "pub", "building": "yes", "fhrs:id": "299411", "name": "IBIS Sports And Social Club", "phone": "+44 1539 722874"}}, {"type": "way", "id": 354595117, "nodes": [3602730392, 3602730493, 3602730494, 3602730495, 3602730392], "tags": {"addr:city": "Kendal", "addr:housenumber": "72", "addr:postcode": "LA9 5HG", "addr:street": "Milnthorpe Road", "amenity": "pub", "building": "yes", "fhrs:id": "328884", "name": "Romneys", "phone": "+44 1539 720956", "website": "https://www.romneyskendal.co.uk/"}}, {"type": "way", "id": 357742334, "nodes": [3628903726, 3628903727, 3628903728, 5122166551, 5122166552, 3628903734, 3629392631, 3629392638, 3628903735, 3628903736, 3628903737, 3628903738, 5396206086, 3628903726], "tags": {"addr:city": "Kendal", "addr:country": "GB", "addr:housename": "Council Offices", "addr:postcode": "LA9 4JH", "addr:street": "Allhallows Lane", "amenity": "pub", "brand": "Wetherspoon", "brand:wikidata": "Q6109362", "brand:wikipedia": "en:Wetherspoons", "building": "yes", "contact:website": "https://www.jdwetherspoon.com/pubs/all-pubs/england/cumbria/the-miles-thompson-kendal", "fhrs:id": "299871", "name": "The Miles Thompson", "opening_hours": "Mo-Th 08:00-23:00; Fr-Sa 08:00-24:00; Su 08:00-23:00", "phone": "+44 1539 815710", "toilets": "yes", "toilets:access": "permissive", "toilets:changing_table": "yes", "toilets:female": "yes", "toilets:male": "yes", "wheelchair": "yes"}}, {"type": "way", "id": 357742836, "nodes": [3628903662, 3628903663, 5122166551, 5122166552, 5122166553, 3628903665, 3628903666, 3628903662], "tags": {"addr:city": "Kendal", "addr:housename": "Cask House", "addr:housenumber": "4", "addr:postcode": "LA9 4JH", "addr:street": "Allhallows Lane", "alt_name": "Last Orders At The Clock Tower", "amenity": "pub", "building": "yes", "fhrs:id": "299769", "name": "Clock Tower", "phone": "+44 1539 739887"}}, {"type": "way", "id": 358177617, "nodes": [3631461197, 3631461198, 3631461199, 3631461200, 3631461197], "tags": {"addr:city": "Kendal", "addr:housenumber": "37", "addr:postcode": "LA9 5AF", "addr:street": "Kirkland", "amenity": "pub", "area": "yes", "building": "yes", "fhrs:id": "328663", "indoor_seating": "yes", "name": "Ring O' Bells", "outdoor_seating": "yes", "phone": "+44 1539 720326", "website": "https://ringobellskendal.webs.com/", "wikidata": "Q26438815"}}, {"type": "way", "id": 361007040, "nodes": [3655348701, 3655348702, 3655579638, 3655348703, 3655348704, 3655348705, 3655348706, 3655348701], "tags": {"addr:city": "Milnthorpe", "addr:postcode": "LA7 7QL", "addr:street": "Beetham Road", "amenity": "pub", "building": "yes", "check_date": "2024-12-31", "fhrs:id": "328736", "name": "Bulls Head", "phone": "+44 15395 62133", "website": "http://www.thebullsheadmilnthorpe.co.uk/"}}, {"type": "way", "id": 361382046, "nodes": [3658655100, 3658655101, 3658655102, 3658655103, 3658655104, 3658655105, 3658655106, 3658655107, 3658655108, 3658655109, 3658655100], "tags": {"addr:city": "Milnthorpe", "addr:postcode": "LA7 7PS", "addr:street": "Haverflatts Lane", "amenity": "pub", "building": "yes", "fhrs:id": "299673", "name": "Coach And Horses", "phone": "+44 15395 63210"}}, {"type": "way", "id": 372717859, "nodes": [3762667267, 3762667268, 3762667269, 3762667270, 3762667267], "tags": {"addr:city": "Cartmel", "addr:postcode": "LA11 6QB", "addr:street": "The Square", "amenity": "pub", "building": "yes", "check_date": "2024-08-29", "fhrs:id": "328837", "name": "Kings Arms", "phone": "+44 15395 33246", "website": "www.thekingsarmscartmel.com", "wikidata": "Q26379636"}}, {"type": "way", "id": 376163613, "nodes": [3796201907, 3796201908, 5299647307, 5299647306, 3796201909, 3796201910, 3796201907], "tags": {"addr:city": "Plumgarths", "addr:postcode": "LA8 8LX", "addr:street": "Crook Road", "amenity": "pub", "building": "yes", "fhrs:id": "328894", "name": "The Gateway Inn"}}, {"type": "way", "id": 389552527, "nodes": [3927199664, 8637673725, 8637673724, 3927199665, 8637673723, 12037584840, 12037584841, 3927199667, 3927199668, 3927199669, 3927199670, 4241281137, 3927199671, 3927199664], "tags": {"addr:city": "Hawkshead", "addr:postcode": "LA22 0NS", "addr:street": "Main Street", "amenity": "pub", "building": "yes", "fhrs:id": "299591", "food": "yes", "name": "The Red Lion Inn", "outdoor_seating": "yes", "phone": "+44 15394 36213", "website": "https://redlioninnhawkshead.co.uk/", "wikidata": "Q26414051", "wikimedia_commons": "File:The Red Lion Inn, Hawkshead, Cumbria-geograph-2785812-by-Christine-Matthews.jpg"}}, {"type": "way", "id": 389881036, "nodes": [3930409301, 4270588989, 4270588990, 4270588991, 3930409302, 3930409303, 3930409304, 3930409306, 3930409308, 3930409309, 3930409310, 3930409301], "tags": {"addr:city": "Keswick", "addr:housenumber": "25", "addr:postcode": "CA12 5BZ", "addr:street": "Lake Road", "amenity": "pub", "building": "yes", "fhrs:id": "829264", "name": "The Wainwright", "phone": "+44 1768 744 927", "website": "http://www.thewainwright.pub/", "wheelchair": "no"}}, {"type": "way", "id": 399047961, "nodes": [4017834876, 4017834872, 4017834873, 4284393905, 4017834884, 4284393906, 4017834885, 4017834876], "tags": {"addr:city": "Bowness-on-Windermere", "addr:postcode": "LA23 3HE", "addr:street": "Glebe Road", "amenity": "pub", "brewery": "Northern Monkey", "building": "leisure", "fhrs:id": "1380436;1380444", "food": "yes", "indoor_seating": "yes", "name": "Boaters Bar", "outdoor_seating": "yes"}}, {"type": "way", "id": 399101551, "nodes": [4018417970, 4018417971, 4018417972, 4018417973, 4018417974, 4018417975, 4018417976, 4018417977, 4018417978, 4018417979, 4018417970], "tags": {"addr:city": "Bowness-on-Windermere", "addr:postcode": "LA23 3HE", "addr:street": "Glebe Road", "amenity": "pub", "building": "yes", "check_date": "2024-10-05", "fhrs:id": "298867", "name": "The Ship Inn & Quayside Bar", "note": "Quaydside Bar at lower ground floor level (lake side), The Ship Inn at upper ground floor level (Glebe Rd), The Wheelhouse on first floor.", "website": "https://www.shipinnbowness.com/"}}, {"type": "way", "id": 401589632, "nodes": [318919616, 4039977777, 4039977778, 4039977779, 4039977780, 4039977781, 4039977782, 4039977783, 318919616], "tags": {"addr:city": "Holme", "addr:postcode": "LA6 1PS", "addr:street": "Milnthorpe Road", "amenity": "pub", "building": "yes", "fhrs:id": "298848", "indoor_seating": "yes", "name": "The Smithy Inn", "outdoor_seating": "yes"}}, {"type": "way", "id": 404073167, "nodes": [4063467029, 4063467030, 4063467031, 4063467032, 4063467033, 4063467034, 4063467035, 4063467036, 4063467037, 4063467038, 4063467039, 4063467040, 4063467041, 4063467029], "tags": {"addr:city": "Bowness-on-Windermere", "addr:postcode": "LA23 3BY", "addr:street": "Queen's Square", "amenity": "pub", "brand": "Robinsons", "brand:wikidata": "Q7353116", "brewery": "Robinsons", "building": "yes", "fhrs:id": "299365", "food": "yes", "indoor_seating": "yes", "name": "The Albert", "operator": "Robinsons", "operator:wikidata": "Q7353116", "outdoor_seating": "yes", "real_fire": "yes"}}, {"type": "way", "id": 404073169, "nodes": [4063467046, 4063467047, 4063467048, 4063467049, 4063467050, 4063467051, 4063467052, 4063467053, 4063467054, 4063467055, 4063467046], "tags": {"addr:city": "Bowness-on-Windermere", "addr:postcode": "LA23 3BZ", "addr:street": "Rayrigg Road", "amenity": "pub", "building": "yes", "fhrs:id": "299726", "food": "yes", "indoor_seating": "yes", "name": "The Flying Pig", "outdoor_seating": "yes"}}, {"type": "way", "id": 404073170, "nodes": [4063467056, 4063467057, 4063467058, 4063467059, 4063467060, 4063467061, 4063467062, 4063467063, 4063467070, 4063467064, 4063467056], "tags": {"addr:city": "Bowness-on-Windermere", "addr:postcode": "LA23 3BZ", "addr:street": "Rayrigg Road", "amenity": "pub", "building": "yes", "fhrs:id": "328726", "name": "The Old John Peel Inn", "outdoor_seating": "yes"}}, {"type": "way", "id": 408327619, "nodes": [4102811332, 4102811335, 4102811336, 4102811337, 4102811333, 4102811332], "tags": {"amenity": "pub", "building": "yes", "name": "Royal Oak"}}, {"type": "way", "id": 408591043, "nodes": [4104800294, 4104800295, 11125148415, 4104800296, 4104800297, 4104800294], "tags": {"addr:city": "Penny Bridge", "addr:postcode": "LA12 7RJ", "amenity": "pub", "building": "yes", "fhrs:id": "949114", "food": "yes", "name": "The Brittania"}}, {"type": "way", "id": 408662484, "nodes": [4105630591, 4105630592, 4105630593, 4105630594, 4105630595, 4105630596, 4105630597, 4105630598, 4105630599, 4105630600, 4105630601, 4105630602, 4105630603, 4105630604, 4105630605, 4105630591], "tags": {"addr:city": "Windermere", "addr:housenumber": "2-6", "addr:postcode": "LA23 1AE", "addr:street": "Cross Street", "amenity": "pub", "building": "yes", "fhrs:id": "299326", "name": "The Elleray", "opening_hours": "Su-We 12:00-22:00; Fr,Sa 12:00-23:00; Th off"}}, {"type": "way", "id": 408662489, "nodes": [4105630619, 4105630621, 4105630622, 4105630618, 4105630619], "tags": {"addr:city": "Windermere", "addr:housenumber": "19", "addr:postcode": "LA23 1AB", "addr:street": "Victoria Street", "amenity": "pub", "building": "yes", "name": "Pie & Pint", "opening_hours": "Mo-Su 11:00-23:00"}}, {"type": "way", "id": 408662490, "nodes": [4105630622, 4105630623, 4105630624, 4105630621, 4105630622], "tags": {"addr:city": "Windermere", "addr:housenumber": "21", "addr:postcode": "LA23 1AB", "addr:street": "Victoria Street", "amenity": "pub", "building": "yes", "fhrs:id": "943533", "name": "The Crafty Baa", "opening_hours": "Mo-Su 11:00-23:00"}}, {"type": "way", "id": 408662491, "nodes": [4105630623, 4105630625, 4105630626, 4105630627, 4105630628, 4105630629, 4105630630, 4105630631, 4105630632, 4105630633, 4105630634, 4105630635, 4105630624, 4105630623], "tags": {"addr:city": "Windermere", "addr:postcode": "LA23 1AB", "addr:street": "Victoria Street", "amenity": "pub", "building": "yes", "check_date:opening_hours": "2023-12-04", "fhrs:id": "328568", "name": "The Queens", "opening_hours:signed": "no", "operator": "Stonegate", "operator:wikidata": "Q7619176", "outdoor_seating": "yes", "website": "https://www.craftunionpubs.com/queens-windemere"}}, {"type": "way", "id": 412743046, "nodes": [4140850366, 4140850367, 4140850368, 4140850369, 4140850370, 4140850371, 4140850366], "tags": {"addr:city": "Bowness-on-Windermere", "addr:postcode": "LA23 3BU", "addr:street": "Helm Road", "amenity": "pub", "building": "yes", "fhrs:id": "299190", "indoor_seating": "yes", "name": "The Angel Inn", "outdoor_seating": "yes"}}, {"type": "way", "id": 424081773, "nodes": [4235549268, 31632098, 4235549270, 4235549271, 4235549272, 4235549273, 4235549274, 4235549275, 4235549276, 4235549268], "tags": {"accommodation": "yes", "addr:city": "Outgate, Ambleside", "addr:postcode": "LA22 0NQ", "amenity": "pub", "brand": "Robinsons", "brand:wikidata": "Q7353116", "brewery": "Robinsons", "building": "yes", "fhrs:id": "298894", "food": "yes", "indoor_seating": "yes", "name": "Outgate Inn", "operator": "Robinsons", "operator:wikidata": "Q7353116", "outdoor_seating": "yes", "real_ale": "yes", "website": "https://www.robinsonsbrewery.com/pubs/outgate-inn-ambleside/", "wikimedia_commons": "File:Outgate Inn - geograph.org.uk - 5033198.jpg"}}, {"type": "way", "id": 424768384, "nodes": [4241511000, 4241511001, 4241511002, 4241511003, 511236656, 4241511005, 4241511000], "tags": {"accommodation": "yes", "addr:city": "Near Sawrey", "addr:postcode": "LA22 0LF", "amenity": "pub", "building": "yes", "fhrs:id": "328816", "food": "yes", "name": "Tower Bank Arms", "outdoor_seating": "yes", "website": "https://www.towerbankarms.co.uk/", "wikidata": "Q26620305"}}, {"type": "way", "id": 424902876, "nodes": [4242638797, 4242638798, 4242638799, 4242638800, 4242638801, 4242638802, 4242638803, 10159127533, 4242638804, 4242638797], "tags": {"accommodation": "yes", "addr:city": "Far Sawrey", "addr:housename": "Cuckoo Brow Inn", "addr:postcode": "LA22 0LQ", "amenity": "pub", "building": "yes", "fhrs:id": "328948", "name": "Cuckoo Brow Inn", "phone": "+44 15394 43425", "website": "https://www.cuckoobrow.co.uk/"}}, {"type": "way", "id": 425306506, "nodes": [4246190656, 4246190657, 4246190658, 4246190659, 4246190660, 4246190661, 4246190662, 4246190663, 4246190664, 4246190665, 4246190666, 4246190667, 4246190668, 4246190669, 4246190656], "tags": {"addr:city": "Bowness-on-Windermere", "addr:postcode": "LA23 3EF", "addr:street": "St Martins Square", "amenity": "pub", "building": "yes", "fhrs:id": "299286", "name": "Bowness Tap Rooms", "outdoor_seating": "yes", "website": "https://www.tap-rooms.com/"}}, {"type": "way", "id": 425366696, "nodes": [4247007152, 4247007153, 4247007154, 4247007155, 4247007156, 4247007157, 4247007158, 4247007159, 4247007160, 4247007161, 4247007162, 4247007152], "tags": {"addr:city": "Bowness-on-Windermere", "addr:postcode": "LA23 3DE", "addr:street": "Lake Road", "amenity": "pub", "brand": "Greene King", "brand:wikidata": "Q5564162", "building": "yes", "fhrs:id": "299149", "name": "The Village Inn", "outdoor_seating": "yes", "website": "https://www.greeneking.co.uk/pubs/cumbria/village-inn"}}, {"type": "way", "id": 425366715, "nodes": [4247007728, 4247007729, 4247007730, 4247007731, 4247007732, 4247007733, 4247007734, 4247007728], "tags": {"addr:city": "Bowness-on-Windermere", "addr:postcode": "LA23 3EG", "addr:street": "Brantfell Road", "amenity": "pub", "building": "yes", "fhrs:id": "299279", "name": "The Royal Oak"}}, {"type": "way", "id": 425366716, "nodes": [4247007735, 4247007736, 4247007737, 4247007738, 4247007739, 4247007740, 4247007741, 4247007742, 4247007743, 4247007744, 4247007735], "tags": {"addr:city": "Bowness-on-Windermere", "addr:postcode": "LA23 3AE", "addr:street": "Brantfell Road", "amenity": "pub", "building": "yes", "fhrs:id": "328616", "indoor_seating": "yes", "name": "The Arts Bar", "old_name": "The Spinnery", "outdoor_seating": "yes"}}, {"type": "way", "id": 425508759, "nodes": [4248081381, 4248081382, 4583364303, 4583364309, 4583364308, 4248081383, 4583364307, 4583364310, 4583364311, 4248081384, 4583364312, 4583364306, 4583364305, 4583364304, 4248081381], "tags": {"accommodation": "yes", "addr:city": "Troutbeck Bridge", "addr:housename": "Sun Hotel", "addr:postcode": "LA23 1HH", "amenity": "pub", "building": "yes", "contact:facebook": "https://www.facebook.com/SunInnTroutbeck", "fhrs:id": "299611", "food": "yes", "indoor_seating": "yes", "name": "The Sun Inn", "outdoor_seating": "yes", "website": "https://suninntroutbeck.org/"}}, {"type": "way", "id": 425528707, "nodes": [4248252038, 4248252039, 4248252048, 4248252040, 4248252038], "tags": {"addr:city": "Bowness-on-Windermere", "addr:postcode": "LA23 3AP", "addr:street": "Lake Road", "amenity": "pub", "building": "yes", "fhrs:id": "441677", "name": "The Westmorland Inn", "note": "formerly The Mariners and Ruskin's (most recent)"}}, {"type": "way", "id": 426131105, "nodes": [4254428432, 4254428431, 4254428418, 4254428421, 4254428432], "tags": {"amenity": "pub", "building": "yes", "name": "Manor House"}}, {"type": "way", "id": 427640530, "nodes": [34709911, 9622414621, 4268424696, 4268424697, 4268424698, 4268424699, 34709911], "tags": {"addr:city": "Arnside", "addr:postcode": "LA5 0HD", "addr:street": "The Promenade", "amenity": "pub", "building": "yes", "fhrs:id": "299595", "image": "https://www.geograph.org.uk/photo/4680946", "name": "Ye Olde Fighting Cocks", "outdoor_seating": "yes", "website": "http://www.fightingcocksarnside.co.uk/", "wikidata": "Q111368117"}}, {"type": "way", "id": 427640535, "nodes": [34709500, 4268424711, 4268424712, 4268424713, 4268424714, 4268424715, 4268424716, 4268424717, 34709500], "tags": {"addr:city": "Arnside", "addr:postcode": "LA5 0HA", "addr:street": "The Promenade", "amenity": "pub", "building": "yes", "fhrs:id": "299389", "image": "https://www.geograph.org.uk/photo/4678873", "indoor_seating": "yes", "name": "The Albion", "outdoor_seating": "yes", "website": "http://albionarnside.co.uk/"}}, {"type": "way", "id": 429103773, "nodes": [4282222245, 4282222246, 4282222247, 4282222248, 4282222249, 4282222250, 4282222251, 4282222252, 4282222253, 4282222254, 4282222255, 4282222256, 4282222257, 4282222263, 4282222258, 4282222259, 4282222260, 4282222261, 4282222262, 4282222245], "tags": {"addr:city": "Troutbeck", "addr:postcode": "LA23 1PL", "amenity": "pub", "building": "yes", "fhrs:id": "328874", "name": "Mortal Man", "outdoor_seating": "yes", "website": "https://www.themortalman.co.uk/", "wikidata": "Q26538040"}}, {"type": "way", "id": 429103775, "nodes": [4282222268, 11217403204, 11217403203, 11217403202, 4282222270, 4282222271, 11217403201, 4282222272, 4282222274, 11217403206, 11217403205, 4282222268], "tags": {"addr:city": "Troutbeck", "addr:postcode": "LA23 1PW", "amenity": "pub", "building": "yes", "fhrs:id": "300005", "food": "yes", "indoor_seating": "yes", "name": "Queen's Head Hotel", "outdoor_seating": "yes", "payment:credit_cards": "yes", "payment:debit_cards": "yes", "website": "https://www.robinsonsbrewery.com/pubs-inns-and-hotels/find-a-pub/o-s/queensheadtroutbeck", "wheelchair": "yes", "wikidata": "Q26561727"}}, {"type": "way", "id": 440724919, "nodes": [4385026980, 4385026981, 4385026983, 4385026982, 4385026980], "tags": {"addr:city": "Kendal", "addr:housenumber": "4-6", "addr:postcode": "LA9 4LD", "addr:street": "Greenside", "amenity": "pub", "building": "yes", "building:levels": "2", "fhrs:id": "328661", "name": "Rifleman's Arms", "opening_hours": "Mo-Fr 18:30-24:00; Sa-Su 12:00-24:00", "real_ale": "yes", "roof:shape": "gabled", "wheelchair": "limited"}}, {"type": "way", "id": 448941156, "nodes": [4459104890, 4459104891, 4459104782, 4459104892, 4459104893, 4459104894, 4459104895, 4459104889, 4459104890], "tags": {"addr:city": "Burneside", "addr:postcode": "LA9 6QS", "amenity": "pub", "building": "yes", "fhrs:id": "299907", "name": "Jolly Anglers"}}, {"type": "way", "id": 457326428, "nodes": [4534902362, 4534902361, 4534902360, 4534902359, 4534902358, 4534902357, 4534902362], "tags": {"amenity": "pub", "building": "public", "name": "White Hart"}}, {"type": "way", "id": 476969353, "nodes": [4703890841, 4703890855, 4703890842, 4703890848, 4703890850, 4703890849, 4703890847, 4703890843, 4703890844, 4703890845, 4703890846, 4703890841], "tags": {"addr:city": "Endmoor", "addr:postcode": "LA8 0EU", "addr:street": "Main Street", "amenity": "pub", "building": "yes", "fhrs:id": "328786", "name": "The Club Inn"}}, {"type": "way", "id": 477379488, "nodes": [4707446335, 4707446334, 12554055686, 4707446341, 6361017956, 12554055690, 12554055691, 12554055692, 12554055689, 12544200078, 4707446335], "tags": {"addr:city": "Kendal", "addr:housenumber": "5", "addr:postcode": "LA9 7DE", "addr:street": "Aynam Road", "amenity": "pub", "brewery": "Bowness Bay Brewing", "building": "yes", "building:levels": "2", "email": "info@thefactorytap.co.uk", "name": "The Factory Tap", "opening_hours": "We,Th 16:00-21:00; Fr-Su 15:00-21:00", "outdoor_seating": "yes", "phone": "+44 1539 482541", "real_ale": "yes", "real_cider": "yes", "smoking": "no", "website": "http://thefactorytap.co.uk/", "wheelchair": "limited"}}, {"type": "way", "id": 481623314, "nodes": [4745362938, 4745362953, 4745362939, 4745362940, 4745362941, 4745362942, 4745362943, 4745362944, 4745362945, 4745362946, 4745362947, 4745362948, 4745362949, 4745362950, 4745362938], "tags": {"accommodation": "yes", "addr:city": "Levens", "addr:housename": "Hare & Hounds", "addr:postcode": "LA8 8PN", "amenity": "pub", "brewery": "yes;various", "building": "yes", "fhrs:id": "328998", "food": "yes", "name": "Hare & Hounds", "outdoor_seating": "yes", "phone": "+44 15395 60004", "real_fire": "yes", "restaurant": "yes", "tourism": "hotel", "website": "https://hareandhoundslevens.co.uk/"}}, {"type": "way", "id": 482737466, "nodes": [4755362556, 4755362557, 4755362555, 4755362558, 5334029223, 4755362559, 4755362560, 4755362556], "tags": {"accommodation": "yes", "addr:city": "Bowness-on-Windermere", "addr:postcode": "LA23 3DQ", "addr:street": "Robinson Place", "amenity": "pub", "building": "yes", "fhrs:id": "328876", "name": "The White House", "wikidata": "Q26498972"}}, {"type": "way", "id": 482737467, "nodes": [4755362562, 4755362563, 4755362564, 4755362565, 4755362566, 4755362567, 4755362568, 4755362569, 4755362570, 4755362571, 4755362572, 4755362573, 4755362562], "tags": {"addr:city": "Bowness-on-Windermere", "addr:housename": "New Hall Inn", "addr:place": "Lowside", "addr:postcode": "LA23 3DH", "addr:street": "Robinson Place", "amenity": "pub", "building": "yes", "fhrs:id": "328721", "indoor_seating": "yes", "name": "The Hole in t' Wall", "outdoor_seating": "yes", "website": "https://www.robinsonsbrewery.com/pubs-inns-and-hotels/find-a-pub/k-n/newhallinn", "wikidata": "Q26417791"}}, {"type": "way", "id": 484331742, "nodes": [4770756653, 4770756654, 4770756659, 4770756660, 8443376027, 4770756661, 4770756662, 8443376028, 8443376025, 8443376026, 4770756653], "tags": {"addr:city": "Brigsteer", "addr:postcode": "LA8 8AN", "amenity": "pub", "building": "yes", "fhrs:id": "606488", "food": "yes", "name": "Wheatsheaf Inn", "restaurant": "yes", "tourism": "hotel", "website": "https://thewheatsheafbrigsteer.co.uk/"}}, {"type": "way", "id": 484440607, "nodes": [2929845274, 4771935375, 4771935376, 4771935377, 4771935378, 12078436898, 4771935379, 4771935380, 4771935381, 2929845274], "tags": {"accommodation": "yes", "addr:city": "Witherslack", "addr:postcode": "LA11 6RH", "amenity": "pub", "brewery": "yes", "building": "yes", "email": "drinkeatstay@derbyarms.co.uk", "fhrs:id": "328713", "food": "yes", "name": "The Derby Arms", "outdoor_seating": "yes", "phone": "+44 15395 52207", "restaurant": "yes", "source": "survey", "website": "https://derbyarms.co.uk/"}}, {"type": "way", "id": 485953970, "nodes": [1359365483, 4897502697, 4897502698, 4897502699, 4897502700, 4787102163, 4787102164, 4787102165, 1359365483], "tags": {"addr:city": "Sizergh", "addr:postcode": "LA8 8DZ", "amenity": "pub", "beer_garden": "yes", "building": "yes", "fhrs:id": "328941", "food": "yes", "indoor_seating": "yes", "name": "The Strickland Arms", "outdoor_seating": "yes", "restaurant": "yes", "source": "Visited", "website": "http://www.ainscoughs.co.uk/Strickland-Arms/strickland-arms-home.html"}}, {"type": "way", "id": 500180987, "nodes": [3220649676, 4912955296, 4912955297, 4912955298, 4912955299, 4912955300, 4912955301, 4912955302, 5054174267, 3220649676], "tags": {"amenity": "pub", "building": "yes", "name": "Blacksmith's Arms", "wikidata": "Q17985947", "wikipedia": "en:Blacksmiths Arms, Broughton Mills"}}, {"type": "way", "id": 501752221, "nodes": [4924654378, 4924654379, 4924654385, 4924654393, 4924654397, 4924654388, 4924654389, 4924654390, 4924654391, 4924654392, 4924654378], "tags": {"addr:city": "Bowland Bridge", "addr:postcode": "LA11 6NN", "amenity": "pub", "building": "yes", "fhrs:id": "299943", "name": "Hare & Hounds", "outdoor_seating": "yes"}}, {"type": "way", "id": 501752233, "nodes": [4924654668, 4924654876, 4924654669, 4924654670, 4924654671, 4924654674, 4924654668], "tags": {"addr:city": "Bowland Bridge", "addr:postcode": "LA11 6NW", "amenity": "pub", "building": "yes", "fhrs:id": "299652", "name": "Masons Arms", "outdoor_seating": "yes", "wikidata": "Q26676375"}}, {"type": "way", "id": 501752239, "nodes": [4924654713, 4924654714, 4924654715, 4924654716, 4924654717, 4924654718, 4924654719, 4924654720, 4924654821, 4924654822, 4924654823, 4924654824, 4924654825, 4924654826, 4924654713], "tags": {"addr:city": "Winster", "addr:postcode": "LA23 3NR", "amenity": "pub", "building": "yes", "fhrs:id": "299348", "name": "Brown Horse", "outdoor_seating": "yes"}}, {"type": "way", "id": 527908227, "nodes": [5131331106, 5131331107, 5131333110, 5131333107, 5131331108, 5131331109, 5131331114, 5131331110, 5131331115, 5131331111, 5131331112, 5131331113, 5131331117, 5131331116, 5131331106], "tags": {"addr:city": "Ings", "addr:postcode": "LA8 9PY", "amenity": "pub", "building": "yes", "fhrs:id": "299694", "name": "Watermill Inn", "website": "https://www.lakelandpub.co.uk/"}}, {"type": "way", "id": 556112946, "nodes": [5364592026, 5364592027, 5364592028, 5364592029, 5364592030, 5364592034, 5364592031, 5364592032, 5364592026], "tags": {"addr:city": "Beetham", "addr:postcode": "LA7 7AL", "amenity": "pub", "building": "yes", "fhrs:id": "328919", "name": "The Wheatsheaf", "opening_hours": "We-Su 11:00-23:00+"}}, {"type": "way", "id": 561500578, "nodes": [291355519, 5414136029, 5414136030, 5414136031, 5414136032, 5414136033, 291355519], "tags": {"addr:city": "Satterthwaite", "addr:postcode": "LA12 8LN", "amenity": "pub", "building": "yes", "fhrs:id": "300019", "name": "The Eagles Head", "source:name": "NaPTAN"}}, {"type": "way", "id": 561594099, "nodes": [2092051947, 5414870826, 5414870827, 5414870828, 5414870829, 5414870830, 2092051947], "tags": {"addr:city": "Kirkby-in-Furness", "addr:postcode": "LA17 7TE", "addr:street": "Askewgate Brow", "amenity": "pub", "building": "yes", "fhrs:id": "299632", "name": "The Ship Inn"}}, {"type": "way", "id": 561594113, "nodes": [5321141910, 5414870894, 5414870895, 5414870896, 5414870897, 5414870898, 5414870899, 5414870900, 7213059148, 5414870901, 5414870902, 7213059147, 7213059146, 5414870903, 5321141910], "tags": {"addr:city": "Kirkby-in-Furness", "addr:postcode": "LA17 7TE", "addr:street": "Askewgate Brow", "amenity": "pub", "building": "yes", "fhrs:id": "299020", "name": "The Commercial Inn"}}, {"type": "way", "id": 569400830, "nodes": [5321198511, 5476054513, 5476054514, 5476054515, 5476054452, 5476054551, 5321198511], "tags": {"addr:city": "Kendal", "addr:place": "Barrows Green", "addr:postcode": "LA8 0AA", "amenity": "pub", "building": "retail", "fhrs:id": "299232", "name": "The Punch Bowl"}}, {"type": "way", "id": 647818553, "nodes": [4757586826, 6083115716, 6083115717, 6083115718, 4757586825, 4757586826], "tags": {"addr:city": "Hartsop", "addr:postcode": "CA11 0NZ", "amenity": "pub", "building": "yes", "fhrs:id": "307909", "name": "Barn End Bar", "operator": "Sykeside Camping Site"}}, {"type": "way", "id": 672451146, "nodes": [6297100544, 3598100212, 6297100546, 6297100545, 6297100544], "tags": {"addr:city": "Kendal", "addr:housenumber": "6", "addr:postcode": "LA9 4RL", "addr:street": "Burneside Road", "amenity": "pub", "building": "house", "building:levels": "2", "fhrs:id": "298917", "name": "Oddfellows Arms", "phone": "+44 1539 722459"}}, {"type": "way", "id": 1079023829, "nodes": [9891505553, 3220201167, 9891685118, 9891505555, 9891505553], "tags": {"addr:city": "Millom", "addr:street": "Station Road", "amenity": "pub", "building:levels": "1", "building:part": "train_station", "building:part:use": "retail", "internet_access": "wlan", "internet_access:fee": "no", "name": "Trackside", "opening_hours": "We-Th 10:00-16:45; Fr-Sa 10:00-23:00; Su 12:00-17:00", "outdoor_seating": "yes"}}, {"type": "way", "id": 1173644508, "nodes": [10904892773, 10904892774, 10904892719, 10904892718, 10904892717, 10904892716, 10904892710, 10904892748, 10904892745, 10904892711, 10904892741, 5408660649, 10904892744, 5899895681, 10904892733, 10904892729, 10904892705, 5408660650, 10904892734, 10904892723, 10904892773], "tags": {"accommodation": "yes", "addr:city": "Milnthorpe", "addr:postcode": "LA7 7FH", "addr:street": "Princes Way", "amenity": "pub", "contact:facebook": "https://www.facebook.com/hevershamhotel/", "food": "yes", "name": "Heversham Hotel", "old_name": "Blue Bell Hotel", "outdoor_seating": "yes", "website": "https://samuelsmithshotels.co.uk/hotel/heversham-hotel/"}}, {"type": "way", "id": 1187928683, "nodes": [11329686487, 1730923398, 11030766983, 11329686500, 11329686489, 11329686490, 11329686491, 11329686487], "tags": {"addr:city": "Ambleside", "addr:housename": "Old Dungeon Ghyll Hotel", "addr:postcode": "LA22 9JY", "addr:suburb": "Great Langdale", "amenity": "pub", "building": "yes", "name": "Old Dungeon Ghyll Climbers Bar", "opening_hours:kitchen": "12:00-23:00", "outdoor_seating": "yes", "real_ale": "yes", "real_cider": "yes", "website": "https://www.odg.co.uk/the-climbers-bar"}}, {"type": "way", "id": 1361289886, "nodes": [12602098866, 4406017429, 12602098867, 12602098868, 12602098869, 12602098870, 12602098871, 12602098872, 2203632097, 12602098873, 12602098874, 12602098875, 12602098876, 12602098877, 12602098878, 12602098866], "tags": {"addr:housenumber": "24", "addr:postcode": "LA9 4AB", "addr:street": "Finkle Street", "amenity": "pub", "fhrs:id": "299902", "internet_access": "wlan", "internet_access:fee": "no", "name": "Bootleggers Music Bar", "phone": "+44 1539 723824", "website": "https://www.bootleggersbar.com/"}}]}