{"version": 0.6, "generator": "Overpass API 0.7.62.5 1bd436f1", "osm3s": {"timestamp_osm_base": "2025-05-12T15:38:53Z", "copyright": "The data included in this document is from www.openstreetmap.org. The data is made available under ODbL."}, "elements": [{"type": "node", "id": 16346725, "lat": 51.8840413, "lon": -3.4370088, "tags": {"communication:amateur_radio:sota": "GW/SW-001", "communication:amateur_radio:sota:points": "8", "ele": "886", "man_made": "cairn", "name": "Pen y Fan", "name:cy": "Pen y Fan", "natural": "peak", "wikidata": "Q1325530", "wikipedia": "en:Pen y Fan"}}, {"type": "node", "id": 16347060, "lat": 51.8817942, "lon": -3.4196353, "tags": {"ele": "795", "man_made": "cairn", "name": "Cribyn", "name:cy": "Cribyn", "natural": "peak", "source": "GPS Tracklog", "wikidata": "Q3397544", "wikipedia": "en:Cribyn (mountain)"}}, {"type": "node", "id": 29233097, "lat": 52.0068395, "lon": -3.6492005, "tags": {"ele": "442", "name": "Mynydd Bwlch-Y-Groes", "name:cy": "Mynydd Bwlch-Y-Groes", "natural": "peak", "source": "npe"}}, {"type": "node", "id": 29270987, "lat": 51.9830254, "lon": -3.6566884, "tags": {"ele": "406", "name": "Mynydd Bwlch", "natural": "peak", "source": "npe"}}, {"type": "node", "id": 29271083, "lat": 52.040756, "lon": -3.6122809, "tags": {"ele": "421", "name": "Blaen Cyrnog", "name:cy": "Blaen Cyrnog", "natural": "peak", "source": "npe"}}, {"type": "node", "id": 29271124, "lat": 52.0387208, "lon": -3.7834379, "tags": {"created_by": "POI Editor", "name": "Fforest", "natural": "peak", "source": "npe"}}, {"type": "node", "id": 32319100, "lat": 51.8758262, "lon": -3.4010624, "tags": {"ele": "719", "name": "Fan y Big", "natural": "peak", "wikidata": "Q5433608", "wikipedia": "en:Fan y Big"}}, {"type": "node", "id": 32319360, "lat": 51.8816835, "lon": -3.4436544, "tags": {"ele": "873", "man_made": "cairn", "name": "Corn Du", "natural": "peak", "source": "survey", "wikidata": "Q15056793", "wikipedia": "en:Corn Du"}}, {"type": "node", "id": 255404953, "lat": 51.9365447, "lon": -3.540762, "tags": {"ele": "400", "name": "Cefn Llechid", "natural": "peak", "wikidata": "Q5057264", "wikipedia": "en:Cefn Llechid"}}, {"type": "node", "id": 270663444, "lat": 51.8956377, "lon": -3.3487321, "tags": {"ele": "562", "name": "Bryn", "natural": "peak", "wikidata": "Q13126323"}}, {"type": "node", "id": 272337473, "lat": 51.7548573, "lon": -3.7738706, "tags": {"ele": "352", "name": "Farteg Hill", "natural": "peak", "source": "npe"}}, {"type": "node", "id": 272791555, "lat": 51.7736915, "lon": -3.7296874, "tags": {"ele": "297", "man_made": "survey_point", "natural": "peak"}}, {"type": "node", "id": 272791556, "lat": 51.7842649, "lon": -3.7119594, "tags": {"ele": "330", "name": "Mynydd Y Drum", "natural": "peak", "source": "npe"}}, {"type": "node", "id": 272793243, "lat": 51.7550123, "lon": -3.6830988, "tags": {"communication:amateur_radio:sota": "GW/SW-017", "communication:amateur_radio:sota:points": "1", "ele": "481", "name": "Hir Fynydd", "natural": "peak", "source": "npe", "wikidata": "Q13129098", "wikipedia": "en:Hirfynydd"}}, {"type": "node", "id": 307875641, "lat": 51.8493215, "lon": -3.8068484, "tags": {"access": "yes", "ele": "613", "name": "Foel Fraith", "natural": "peak", "source": "gps;survey", "wikidata": "Q5463998", "wikipedia": "en:Foel Fraith"}}, {"type": "node", "id": 307875844, "lat": 51.8455826, "lon": -3.8300271, "tags": {"access": "yes", "ele": "630", "man_made": "survey_point", "name": "Garreg Lwyd", "natural": "peak", "ref": "S5314", "source": "gps;survey", "wikidata": "Q3405834", "wikipedia": "en:Garreg Lwyd (Black Mountain)"}}, {"type": "node", "id": 355548345, "lat": 51.7637413, "lon": -3.8985824, "tags": {"created_by": "Potlatch 0.10f", "ele": "351", "name": "Bryn Mawr", "natural": "peak", "wikidata": "Q106711404"}}, {"type": "node", "id": 394140519, "lat": 51.8001477, "lon": -3.4835653, "tags": {"ele": "485", "man_made": "survey_point", "name": "Cadair Fawr", "natural": "peak", "ref": "SN 978123", "wikidata": "Q5016234", "wikipedia": "en:Cadair Fawr"}}, {"type": "node", "id": 582444766, "lat": 51.9534505, "lon": -3.5806555, "tags": {"ele": "352", "name": "Yr Allt", "natural": "peak", "source": "NPE", "wikidata": "Q106709671"}}, {"type": "node", "id": 582793914, "lat": 51.768315, "lon": -3.4762868, "tags": {"ele": "389", "name": "Mynydd-y-glog", "natural": "peak", "wikidata": "Q15260514", "wikipedia": "en:Mynydd-y-glog"}}, {"type": "node", "id": 582793915, "lat": 51.7700943, "lon": -3.5097179, "tags": {"ele": "360", "name": "Twyn-y-Glog", "natural": "peak"}}, {"type": "node", "id": 582793916, "lat": 51.7670136, "lon": -3.5392436, "tags": {"alt_name": "Y Foel Penderyn", "ele": "371", "name": "Moel Penderyn", "natural": "peak", "source": "NPE", "source:name": "Wikipedia", "wikidata": "Q6890100", "wikipedia": "en:Moel Penderyn"}}, {"type": "node", "id": 1284433398, "lat": 51.7560458, "lon": -3.8110475, "tags": {"communication:amateur_radio:sota": "GW/SW-032", "communication:amateur_radio:sota:points": "1", "ele": "338", "name": "Mynydd Allt-Y-Grug", "natural": "peak", "wikidata": "Q13130299"}}, {"type": "node", "id": 1284440214, "lat": 51.7768264, "lon": -3.8625893, "tags": {"communication:amateur_radio:sota": "GW/SW-031", "communication:amateur_radio:sota:points": "1", "ele": "352", "name": "Mynydd Uchaf", "natural": "peak"}}, {"type": "node", "id": 1329613239, "lat": 51.7573489, "lon": -3.8683043, "tags": {"ele": "286", "name": "Mynydd Y Garth", "natural": "peak"}}, {"type": "node", "id": 1341160642, "lat": 51.834424, "lon": -3.7940204, "tags": {"ele": "501", "name": "Cefn Carn-Fadog", "natural": "peak"}}, {"type": "node", "id": 1537151387, "lat": 51.8822119, "lon": -3.7082173, "tags": {"alt_name": "Fan Foel", "communication:amateur_radio:sota": "GW/SW-003", "communication:amateur_radio:sota:points": "8", "ele": "802", "name": "Fan Brycheiniog", "natural": "peak", "wikidata": "Q3397568", "wikipedia": "en:Fan Brycheiniog"}}, {"type": "node", "id": 1537168632, "lat": 51.8535663, "lon": -3.5791065, "tags": {"communication:amateur_radio:sota": "GW/SW-007", "communication:amateur_radio:sota:points": "4", "ele": "663", "is_in": "Powys,Wales,UK", "name": "Fan Nedd", "natural": "peak", "wikidata": "Q5433562", "wikipedia": "en:Fan Nedd"}}, {"type": "node", "id": 1537168633, "lat": 51.8589879, "lon": -3.6269556, "tags": {"communication:amateur_radio:sota": "GW/SW-006", "communication:amateur_radio:sota:points": "6", "ele": "725", "man_made": "survey_point", "name": "Fan Gyhirych", "natural": "peak", "ref": "S2147", "source": "gps", "wikidata": "Q3401470", "wikipedia": "en:Fan Gyhirych"}}, {"type": "node", "id": 1537344492, "lat": 51.86331, "lon": -3.4972736, "tags": {"communication:amateur_radio:sota": "GW/SW-005", "communication:amateur_radio:sota:points": "6", "ele": "734", "is_in": "Powys,Wales,UK", "name": "Fan Fawr", "natural": "peak", "wikidata": "Q3401384", "wikipedia": "en:Fan Fawr"}}, {"type": "node", "id": 1537442873, "lat": 51.8724358, "lon": -3.6552383, "tags": {"ele": "552", "is_in": "Powys,Wales,UK", "name": "Cefn Cul", "name:cy": "Waun Leuci", "natural": "peak", "wikidata": "Q5057257", "wikipedia": "en:Cefn Cul"}}, {"type": "node", "id": 1541446567, "lat": 51.8140519, "lon": -3.7010171, "tags": {"alt_name": "Sleeping Giant", "ele": "428", "name": "Cribarth", "natural": "peak", "source": "Bing", "wikidata": "Q5184878"}}, {"type": "node", "id": 1541532012, "lat": 51.8555564, "lon": -3.5433906, "tags": {"ele": "632", "is_in": "Powys,Wales,UK", "name": "Fan Llia", "natural": "peak", "wikidata": "Q5433557", "wikipedia": "en:Fan Llia"}}, {"type": "node", "id": 1541985798, "lat": 51.882773, "lon": -3.5816558, "tags": {"ele": "603", "man_made": "survey_point", "name": "Fan Bwlch Chwyth", "natural": "peak", "tourism": "viewpoint", "wikidata": "Q5433522", "wikipedia": "en:Fan Bwlch Chwyth"}}, {"type": "node", "id": 1542069956, "lat": 51.8749595, "lon": -3.7002136, "tags": {"ele": "761", "name": "Fan Hir", "natural": "peak", "wikidata": "Q5433543", "wikipedia": "en:Fan Hir"}}, {"type": "node", "id": 1542588995, "lat": 51.8120675, "lon": -3.5306456, "tags": {"ele": "457", "is_in": "Powys,Wales,UK", "name": "Gwaun Cefnygarreg", "natural": "peak"}}, {"type": "node", "id": 1593427090, "lat": 51.8485293, "lon": -3.4217021, "tags": {"ele": "642", "man_made": "survey_point", "name": "Twyn Mwyalchod", "natural": "peak"}}, {"type": "node", "id": 1818237126, "lat": 51.8898779, "lon": -3.8914195, "tags": {"access": "private", "alt_name": "Trychrug", "communication:amateur_radio:sota": "GW/SW-022", "communication:amateur_radio:sota:points": "1", "ele": "415", "name": "Trichrug", "name:cy": "Pen y Bicws", "natural": "peak", "wikidata": "Q7841090", "wikipedia": "en:Trichrug"}}, {"type": "node", "id": 1865267838, "lat": 51.8364305, "lon": -3.370661, "tags": {"ele": "565", "man_made": "survey_point", "name": "Pant y Creigiau", "natural": "peak", "ref": "82137", "source": "survey"}}, {"type": "node", "id": 2006182745, "lat": 51.8147497, "lon": -3.3259379, "tags": {"communication:amateur_radio:sota": "GW/SW-008", "communication:amateur_radio:sota:points": "4", "ele": "617", "name": "Cefn Yr Ystrad", "natural": "peak", "wikidata": "Q5057280", "wikipedia": "en:Cefn yr Ystrad"}}, {"type": "node", "id": 2201973243, "lat": 51.9730918, "lon": -3.3098869, "tags": {"ele": "284", "name": "Drostre Bank", "natural": "peak"}}, {"type": "node", "id": 2201973247, "lat": 51.9490539, "lon": -3.3157234, "tags": {"ele": "278", "natural": "peak"}}, {"type": "node", "id": 2201973249, "lat": 51.9331177, "lon": -3.3062625, "tags": {"access": "private", "ele": "263", "man_made": "survey_point", "name": "Pen-y-commin", "natural": "peak", "ref": "S2514", "survey_point:purpose": "both", "survey_point:structure": "pillar"}}, {"type": "node", "id": 2418275708, "lat": 51.9627551, "lon": -3.4141597, "tags": {"ele": "331", "man_made": "survey_point", "name": "Pen y Crug", "natural": "peak", "ref": "TP1611"}}, {"type": "node", "id": 3075156573, "lat": 51.9327372, "lon": -3.7407593, "tags": {"ele": "370", "name": "Fedw Fawr", "natural": "peak", "source": "7th Series (OS7)"}}, {"type": "node", "id": 3111770565, "lat": 51.8826165, "lon": -3.7278271, "tags": {"ele": "749", "man_made": "cairn", "name": "Picws Du", "natural": "peak", "source:ele": "gps", "wikidata": "Q7191256", "wikipedia": "en:Picws Du"}}, {"type": "node", "id": 3325983743, "lat": 51.8786815, "lon": -3.7471416, "tags": {"ele": "679", "man_made": "cairn", "name": "Waun Lefrith", "natural": "peak", "source": "survey", "source:ele": "gps", "wikidata": "Q7975189", "wikipedia": "en:Waun Lefrith"}}, {"type": "node", "id": 3402168245, "lat": 52.0467631, "lon": -3.3210658, "tags": {"ele": "390", "man_made": "survey_point", "name": "Mynydd Fforest", "natural": "peak", "source": "GPS Survey"}}, {"type": "node", "id": 3428595493, "lat": 51.8871297, "lon": -3.7146875, "tags": {"ele": "781", "name": "Fan Foel", "natural": "peak"}}, {"type": "node", "id": 3428672241, "lat": 51.7906044, "lon": -3.3322012, "tags": {"ele": "535", "name": "Twyn Pwll Morlais", "natural": "peak", "wikidata": "Q20601375"}}, {"type": "node", "id": 3428683690, "lat": 51.8351796, "lon": -3.4171866, "tags": {"ele": "520", "name": "Waun Lys\u00efog", "natural": "peak"}}, {"type": "node", "id": 3526075062, "lat": 51.8633484, "lon": -3.4327195, "tags": {"ele": "740", "name": "Cefn Cul", "natural": "peak"}}, {"type": "node", "id": 3526078156, "lat": 51.8672043, "lon": -3.3938167, "tags": {"ele": "730", "name": "Craig Cwareli", "natural": "peak"}}, {"type": "node", "id": 3526084431, "lat": 51.8768133, "lon": -3.3638558, "tags": {"communication:amateur_radio:sota": "GW/SW-004", "communication:amateur_radio:sota:points": "6", "ele": "769", "man_made": "cairn", "name": "Waun Rydd", "natural": "peak", "wikidata": "Q7975191", "wikipedia": "en:Waun Rydd"}}, {"type": "node", "id": 3526088719, "lat": 51.8737167, "lon": -3.3744433, "tags": {"ele": "754", "man_made": "cairn", "name": "Bwlch y Ddwyallt", "natural": "peak", "wikidata": "Q5003695", "wikipedia": "en:Bwlch y Ddwyallt"}}, {"type": "node", "id": 3526101210, "lat": 51.899515, "lon": -3.4624176, "tags": {"ele": "561", "name": "Pen Milan", "natural": "peak"}}, {"type": "node", "id": 3526106440, "lat": 51.8838242, "lon": -3.4704018, "tags": {"ele": "619", "name": "Y Gyrn", "natural": "peak", "wikidata": "Q17041449", "wikipedia": "en:Y Gyrn"}}, {"type": "node", "id": 3526108429, "lat": 51.8753185, "lon": -3.4459167, "tags": {"ele": "826", "name": "Craig-Gwaun-Taf", "natural": "peak", "wikidata": "Q13127993"}}, {"type": "node", "id": 3526133232, "lat": 51.8993694, "lon": -3.3840113, "tags": {"ele": "500", "name": "Cefn Cyff", "natural": "peak"}}, {"type": "node", "id": 3558274017, "lat": 51.7826675, "lon": -3.4157272, "tags": {"ele": "461", "name": "Cefn Cil-Sanws", "natural": "peak"}}, {"type": "node", "id": 3598319707, "lat": 51.8530361, "lon": -3.6145975, "tags": {"ele": "668", "name": "Fan Fraith", "natural": "peak", "wikidata": "Q5433541", "wikipedia": "en:Fan Fraith"}}, {"type": "node", "id": 3598321982, "lat": 51.847257, "lon": -3.6833693, "tags": {"ele": "463", "name": "Allt Fach", "natural": "peak"}}, {"type": "node", "id": 3598357504, "lat": 51.8940575, "lon": -3.6761079, "tags": {"ele": "591", "name": "Moel Feity", "natural": "peak", "wikidata": "Q13130187"}}, {"type": "node", "id": 3600845337, "lat": 51.7615735, "lon": -3.8400188, "tags": {"ele": "305.5", "name": "Cefn Gwrhyd", "natural": "peak", "wikidata": "Q106711442"}}, {"type": "node", "id": 3600865118, "lat": 51.7781716, "lon": -3.7191692, "tags": {"ele": "283", "name": "Bryn Llechwen", "natural": "peak"}}, {"type": "node", "id": 3600882445, "lat": 51.8410834, "lon": -3.4768613, "tags": {"ele": "450", "name": "Twyn-Garreg-Wen", "natural": "peak"}}, {"type": "node", "id": 3600884740, "lat": 51.8592293, "lon": -3.505164, "tags": {"ele": "715", "name": "Gilfach-Wen", "natural": "peak"}}, {"type": "node", "id": 3600890029, "lat": 51.8672859, "lon": -3.4365423, "tags": {"ele": "736", "name": "Rhiw yr Ysgyfarnog", "natural": "peak"}}, {"type": "node", "id": 3613023371, "lat": 51.7620915, "lon": -3.4488163, "tags": {"ele": "380", "name": "Bryn Du", "natural": "peak"}}, {"type": "node", "id": 3613024593, "lat": 51.7539497, "lon": -3.4401045, "tags": {"name": "Bryn Y Gwyddel", "natural": "peak"}}, {"type": "node", "id": 3645281683, "lat": 51.8003726, "lon": -3.413847, "tags": {"ele": "459", "name": "Garn Ddu", "natural": "peak", "wikidata": "Q106711294"}}, {"type": "node", "id": 4800852337, "lat": 51.8301001, "lon": -3.6330524, "tags": {"ele": "538", "name": "Carreg Cadno", "natural": "peak", "note": "Not surveyed; exact location might be wrong", "source": "local knowledge", "wikidata": "Q5046056", "wikipedia": "en:Carreg Cadno"}}, {"type": "node", "id": 4800852338, "lat": 51.8228194, "lon": -3.6491242, "tags": {"ele": "480", "name": "Carreg Lwyd", "natural": "peak", "note": "not surveyed; exact location might be wrong", "source": "local knowledge"}}, {"type": "node", "id": 5004594092, "lat": 51.8175691, "lon": -3.8163114, "tags": {"ele": "288", "name": "T\u0175n y M\u00f4ch", "natural": "peak"}}, {"type": "node", "id": 6049092685, "lat": 51.8938628, "lon": -3.5157539, "tags": {"ele": "629", "man_made": "survey_point", "name": "Fan Frynych", "natural": "peak", "ref": "S2511", "source": "gps;aerial imagery", "wikidata": "Q3403904", "wikipedia": "en:Fan Frynych"}}, {"type": "node", "id": 6281616248, "lat": 51.8680147, "lon": -3.7769434, "tags": {"access": "yes", "ele": "647", "name": "Garreg Las", "natural": "peak", "wikidata": "Q5523822", "wikipedia": "en:Garreg Las"}}, {"type": "node", "id": 7103339950, "lat": 51.8877319, "lon": -3.5320753, "tags": {"ele": "569", "name": "Twyn Rhefr", "natural": "peak", "tourism": "viewpoint"}}, {"type": "node", "id": 7105877429, "lat": 51.7952876, "lon": -3.4900417, "tags": {"ele": "444", "name": "Fan Cynffon Ysgyfarnog", "natural": "peak"}}, {"type": "node", "id": 8266702766, "lat": 51.9673764, "lon": -3.7077937, "tags": {"ele": "412", "name": "Y Pigwn", "natural": "peak", "wikidata": "Q6947839"}}, {"type": "node", "id": 9107346240, "lat": 51.907661, "lon": -3.4301991, "tags": {"ele": "536", "name": "Twyn Cil-rhew", "natural": "peak"}}, {"type": "node", "id": 9107346986, "lat": 51.9042431, "lon": -3.4365586, "tags": {"ele": "530", "name": "Twyn y Dyfnant", "name:cy": "Twyn y Dyfnant", "natural": "peak"}}, {"type": "node", "id": 9523001388, "lat": 52.0391346, "lon": -3.8572406, "tags": {"ele": "365", "name": "Pen Lifau", "natural": "peak"}}, {"type": "node", "id": 9671772267, "lat": 51.8782373, "lon": -3.7769661, "tags": {"ele": "600", "man_made": "survey_point", "name": "Carreg Yr Ogof", "natural": "peak", "survey_point:purpose": "both", "survey_point:structure": "pillar"}}, {"type": "node", "id": 9671772268, "lat": 51.8526532, "lon": -3.8521041, "tags": {"ele": "541", "name": "Pen Rhiw-ddu", "natural": "peak"}}, {"type": "node", "id": 9672871228, "lat": 51.8621279, "lon": -3.8057783, "tags": {"ele": "550", "name": "Cefn y Cylchau", "natural": "peak", "wikidata": "Q13126976"}}, {"type": "node", "id": 9672871258, "lat": 51.8515822, "lon": -3.8649537, "tags": {"ele": "523", "name": "Carn Fatho", "natural": "peak"}}, {"type": "node", "id": 10094882079, "lat": 51.9525266, "lon": -3.7369577, "tags": {"ele": "440", "name": "Mynydd Myddfai", "natural": "peak"}}, {"type": "node", "id": 10094882080, "lat": 51.8387259, "lon": -3.7158608, "tags": {"ele": "558", "name": "Carreg Goch", "natural": "peak"}}, {"type": "node", "id": 10094882081, "lat": 51.8464251, "lon": -3.7205662, "tags": {"ele": "544", "name": "Disgwylfa", "natural": "peak"}}, {"type": "node", "id": 10094923536, "lat": 51.8279685, "lon": -3.3946162, "tags": {"ele": "528", "name": "Gwaun y Pynt", "natural": "peak"}}, {"type": "node", "id": 10094923538, "lat": 51.8648346, "lon": -3.5374821, "tags": {"ele": "617", "name": "Fan Dringarth", "natural": "peak"}}, {"type": "node", "id": 10094923545, "lat": 51.8515618, "lon": -3.3588835, "tags": {"ele": "513", "name": "Allt Forgan", "natural": "peak"}}, {"type": "node", "id": 10094923546, "lat": 51.8592875, "lon": -3.3774233, "tags": {"ele": "683", "name": "Craig y Fan Ddu", "natural": "peak"}}, {"type": "node", "id": 10094923547, "lat": 51.8612227, "lon": -3.339215, "tags": {"ele": "653", "name": "Allt Lwyd", "natural": "peak", "wikidata": "Q4733303", "wikipedia": "en:Allt Lwyd"}}, {"type": "node", "id": 10094923548, "lat": 51.8737727, "lon": -3.3363163, "tags": {"ele": "533", "name": "Twyn Du", "natural": "peak"}}, {"type": "node", "id": 10094923549, "lat": 51.8718781, "lon": -3.352342, "tags": {"ele": "756", "name": "Carn Pica", "natural": "peak"}}, {"type": "node", "id": 10094923550, "lat": 51.9526471, "lon": -3.3379646, "tags": {"ele": "317", "name": "Twyn Llechfaen", "natural": "peak"}}, {"type": "node", "id": 10094923551, "lat": 51.9677609, "lon": -3.3318891, "tags": {"ele": "333", "name": "Yr Allt", "natural": "peak"}}, {"type": "node", "id": 10094923552, "lat": 51.9470332, "lon": -3.3756066, "tags": {"ele": "246", "name": "Slwch Tump", "natural": "peak"}}, {"type": "node", "id": 10102118201, "lat": 51.8353446, "lon": -3.3367067, "tags": {"ele": "538", "name": "Bryniau Gleision", "natural": "peak"}}, {"type": "node", "id": 10104461673, "lat": 52.0314672, "lon": -3.3829945, "tags": {"ele": "450", "name": "Ysgwydd Hwch", "natural": "peak"}}, {"type": "node", "id": 10104461674, "lat": 51.941662, "lon": -3.4706457, "tags": {"ele": "367", "name": "Twyn y Gaer", "natural": "peak"}}, {"type": "node", "id": 10109814404, "lat": 51.9250241, "lon": -3.5906212, "tags": {"ele": "382", "natural": "peak"}}, {"type": "node", "id": 10109814405, "lat": 51.9368303, "lon": -3.5926273, "tags": {"ele": "381", "natural": "peak"}}, {"type": "node", "id": 10120640376, "lat": 51.9004255, "lon": -3.3307343, "tags": {"ele": "462", "name": "Allt Feigan", "natural": "peak"}}, {"type": "node", "id": 10120679094, "lat": 51.8396078, "lon": -3.8973648, "tags": {"ele": "480", "name": "Tair Carn Uchaf", "natural": "peak"}}, {"type": "node", "id": 10134015133, "lat": 51.875719, "lon": -3.3292048, "tags": {"ele": "524", "natural": "peak"}}, {"type": "node", "id": 10137623792, "lat": 51.9526949, "lon": -3.4395112, "tags": {"ele": "280", "name": "Coed Fenni-fach", "natural": "peak"}}, {"type": "node", "id": 10137623793, "lat": 51.9355098, "lon": -3.4860519, "tags": {"ele": "367", "name": "Mynydd Illtud", "natural": "peak"}}, {"type": "node", "id": 10137623794, "lat": 51.9233481, "lon": -3.5197477, "tags": {"access": "private", "ele": "340", "name": "Blaen-camlais", "natural": "peak"}}, {"type": "node", "id": 10137623795, "lat": 51.9324129, "lon": -3.5051379, "tags": {"ele": "381", "name": "Allt Lom", "natural": "peak"}}, {"type": "node", "id": 10137623796, "lat": 51.9023708, "lon": -3.5017943, "tags": {"ele": "493", "name": "Twyn Dylluan-ddu", "natural": "peak"}}, {"type": "node", "id": 10137623797, "lat": 51.9248199, "lon": -3.5681813, "tags": {"ele": "343", "name": "Twyn y Gaer", "natural": "peak"}}, {"type": "node", "id": 10137623798, "lat": 51.9192509, "lon": -3.7079068, "tags": {"ele": "424", "name": "Foel Darw", "natural": "peak"}}, {"type": "node", "id": 10137623799, "lat": 51.9170808, "lon": -3.7314413, "tags": {"ele": "401", "name": "Bryn Elen", "natural": "peak"}}, {"type": "node", "id": 10137623800, "lat": 51.9088389, "lon": -3.7594365, "tags": {"ele": "423", "name": "Mynydd y Llan", "natural": "peak"}}, {"type": "node", "id": 10137623801, "lat": 51.9086096, "lon": -3.7395685, "tags": {"ele": "457", "name": "Bryn Mawr", "natural": "peak"}}, {"type": "node", "id": 10137623802, "lat": 51.9141902, "lon": -3.7561891, "tags": {"ele": "421", "name": "Bryn Cedni", "natural": "peak"}}, {"type": "node", "id": 10137623803, "lat": 51.9458553, "lon": -3.7532899, "tags": {"ele": "429", "name": "Pen Caenewydd", "natural": "peak"}}, {"type": "node", "id": 10917896777, "lat": 51.8850611, "lon": -3.5115356, "tags": {"ele": "629", "name": "Craig Cerrig-gleisiad", "natural": "peak", "wikidata": "Q3403818", "wikipedia": "en:Craig Cerrig-gleisiad"}}, {"type": "node", "id": 11466876071, "lat": 51.8893066, "lon": -3.412592, "tags": {"ele": "620", "name": "Bryn Teg", "natural": "peak"}}, {"type": "node", "id": 11466876072, "lat": 51.8945957, "lon": -3.4298827, "tags": {"ele": "701", "name": "Cefn Cwm Llwch", "natural": "peak"}}, {"type": "node", "id": 11555225356, "lat": 51.9050018, "lon": -3.4176155, "tags": {"ele": "560", "name": "Allt Ddu", "natural": "peak"}}, {"type": "node", "id": 11601671631, "lat": 51.9341903, "lon": -3.6369484, "tags": {"ele": "310", "name": "Pen-yr-allt", "natural": "peak"}}, {"type": "node", "id": 11603556113, "lat": 51.932135, "lon": -3.3851652, "tags": {"ele": "290", "name": "Cefn-Cantref", "natural": "peak"}}, {"type": "node", "id": 11603556114, "lat": 51.9315566, "lon": -3.4016245, "tags": {"ele": "270", "name": "The Held", "natural": "peak"}}, {"type": "node", "id": 11603556115, "lat": 51.9775249, "lon": -3.3597111, "tags": {"ele": "280", "natural": "peak"}}, {"type": "node", "id": 11603556116, "lat": 52.0161254, "lon": -3.330004, "tags": {"ele": "340", "natural": "peak"}}, {"type": "node", "id": 11603556117, "lat": 51.9753046, "lon": -3.5313259, "tags": {"ele": "410", "name": "Twyn Disgwyllfa", "natural": "peak"}}, {"type": "node", "id": 11603556118, "lat": 52.0086818, "lon": -3.374713, "tags": {"ele": "400", "natural": "peak"}}, {"type": "node", "id": 11605777757, "lat": 52.0331264, "lon": -3.7113028, "tags": {"ele": "300", "name": "Banc Cefngarreg", "natural": "peak"}}, {"type": "node", "id": 11605777758, "lat": 52.0224043, "lon": -3.6960557, "tags": {"ele": "400", "name": "Noethgrug", "natural": "peak"}}, {"type": "node", "id": 11605777759, "lat": 52.0167499, "lon": -3.7402309, "tags": {"ele": "270", "name": "Allt y Garth", "natural": "peak"}}, {"type": "node", "id": 11605777761, "lat": 52.0297573, "lon": -3.6708819, "tags": {"ele": "390", "natural": "peak"}}, {"type": "node", "id": 11605777762, "lat": 52.0341099, "lon": -3.6676196, "tags": {"ele": "380", "natural": "peak"}}, {"type": "node", "id": 11605777763, "lat": 52.0164835, "lon": -3.685302, "tags": {"ele": "340", "name": "Allt Craigyrwyddon", "natural": "peak"}}, {"type": "node", "id": 11629845282, "lat": 51.8180559, "lon": -3.3011786, "tags": {"ele": "550", "name": "Ffos y Wern", "natural": "peak"}}, {"type": "node", "id": 11630172623, "lat": 51.8376036, "lon": -3.3223728, "tags": {"ele": "520", "name": "Pen Bwlch Glasgwm", "natural": "peak"}}, {"type": "node", "id": 11630172624, "lat": 51.8339891, "lon": -3.3263311, "tags": {"ele": "520", "name": "Bryn Cefnog", "natural": "peak"}}, {"type": "node", "id": 11630172625, "lat": 51.8334018, "lon": -3.3577484, "tags": {"ele": "530", "name": "Cefn Tarenni Cochion", "natural": "peak"}}, {"type": "node", "id": 12185682221, "lat": 51.922106, "lon": -3.8149579, "tags": {"ele": "356", "name": "Rhiwiau", "natural": "peak"}}, {"type": "node", "id": 12185685611, "lat": 51.9323413, "lon": -3.785062, "tags": {"ele": "319", "name": "Cefngarreg", "natural": "peak"}}, {"type": "node", "id": 12185685612, "lat": 51.9117814, "lon": -3.8364217, "tags": {"ele": "309", "name": "Cribyn Du", "natural": "peak"}}, {"type": "node", "id": 12185685613, "lat": 51.9131218, "lon": -3.8778891, "tags": {"ele": "136", "name": "Bryn-t\u00eag", "natural": "peak"}}, {"type": "node", "id": 12185685618, "lat": 51.940706, "lon": -3.7718184, "tags": {"ele": "316", "name": "Twyn Rhyblid", "natural": "peak"}}]}