{"version": 0.6, "generator": "Overpass API 0.7.62.5 1bd436f1", "osm3s": {"timestamp_osm_base": "2025-05-13T15:44:00Z", "copyright": "The data included in this document is from www.openstreetmap.org. The data is made available under ODbL."}, "elements": [{"type": "node", "id": 25255537, "lat": 54.4420083, "lon": -3.0226032, "tags": {"tourism": "viewpoint"}}, {"type": "node", "id": 29877965, "lat": 54.4542586, "lon": -3.2116535, "tags": {"communication:amateur_radio:sota": "G/LD-001", "communication:amateur_radio:sota:points": "10", "ele": "978.07", "name": "Scafell Pike", "name:ar": "\u062c\u0628\u0644 \u0633\u0643\u0627\u0641\u0644 \u0628\u064a\u0643", "name:arz": "\u062c\u0628\u0644 \u0633\u0643\u0627\u0641\u064a\u0644 \u067e\u064a\u0643", "name:az": "Skofel Payk", "name:br": "Scafell Pike", "name:ca": "Scafell Pike", "name:ceb": "Scafell Pike", "name:cs": "Scafell Pike", "name:cy": "Scafell Pike", "name:de": "Scafell Pike", "name:en": "Scafell Pike", "name:es": "Scafell Pike", "name:eu": "Scafell Pike", "name:fi": "Scafell Pike", "name:fr": "Scafell Pike", "name:ga": "Scafell Pike", "name:hy": "\u054d\u0584\u0578\u0586\u0565\u056c-\u054a\u0561\u0575\u056f", "name:is": "Scafell Pike", "name:it": "Scafell Pike", "name:kk": "\u0421\u043a\u043e\u0444\u0435\u043b\u043b-\u041f\u0430\u0439\u043a", "name:nl": "Scafell Pike", "name:no": "Scafell Pike", "name:pl": "Scafell Pike", "name:pnb": "\u0633\u06a9\u06cc\u0641\u0644 \u067e\u0627\u0626\u06cc\u06a9", "name:pt": "Scafell Pike", "name:ru": "\u0421\u043a\u043e\u0444\u0435\u043b\u043b-\u041f\u0430\u0439\u043a", "name:sh": "Scafell Pike", "name:sv": "Scafell Pike", "name:sw": "Scafell Pike", "name:tr": "Scafell Pike", "name:zh": "\u65af\u79d1\u8cbb\u723e\u5cf0", "natural": "peak", "prominence": "912", "source": "https://www.hill-bagging.co.uk/hill-view/?rf=2359", "tourism": "viewpoint", "wikidata": "Q1146222", "wikipedia": "en:Scafell Pike"}}, {"type": "node", "id": 38448892, "lat": 54.3706598, "lon": -3.0856738, "tags": {"created_by": "JOSM", "note": "View over Coniston and Coniston Water", "tourism": "viewpoint"}}, {"type": "node", "id": 38450536, "lat": 54.4327345, "lon": -3.1590753, "tags": {"name": "Bad Step", "note": "The Bad Step is a 10-foot vertical drop/climb which is generally passable with difficulty. The path/loop to the west bypasses it.", "scramble": "yes", "tourism": "viewpoint"}}, {"type": "node", "id": 240133765, "lat": 54.4427522, "lon": -3.0287649, "tags": {"created_by": "JOSM", "description": "Great views of Grasmere with Helvellyn, etc, beyond", "tourism": "viewpoint"}}, {"type": "node", "id": 244045469, "lat": 54.297793, "lon": -3.278563, "tags": {"tourism": "viewpoint"}}, {"type": "node", "id": 262695292, "lat": 54.4912284, "lon": -3.1084233, "tags": {"ele": "542", "name": "Lining Crag", "natural": "peak", "tourism": "viewpoint"}}, {"type": "node", "id": 262869403, "lat": 54.5227373, "lon": -2.9096792, "tags": {"tourism": "viewpoint"}}, {"type": "node", "id": 278205621, "lat": 54.5066337, "lon": -3.1577469, "tags": {"tourism": "viewpoint"}}, {"type": "node", "id": 290288924, "lat": 54.3863166, "lon": -2.9035226, "tags": {"ele": "238", "name": "Orrest Head", "natural": "peak", "tourism": "viewpoint", "wikidata": "Q2031590", "wikipedia": "en:Orrest Head"}}, {"type": "node", "id": 298866971, "lat": 54.5518793, "lon": -3.2962101, "tags": {"tourism": "viewpoint"}}, {"type": "node", "id": 352955401, "lat": 54.5682474, "lon": -2.7349969}, {"type": "node", "id": 376017958, "lat": 54.3838026, "lon": -2.9174188, "tags": {"tourism": "viewpoint"}}, {"type": "node", "id": 376021621, "lat": 54.3207286, "lon": -2.9415089, "tags": {"tourism": "viewpoint"}}, {"type": "node", "id": 427695178, "lat": 54.4551276, "lon": -3.0643942, "tags": {"tourism": "viewpoint"}}, {"type": "node", "id": 624813540, "lat": 54.4175557, "lon": -2.951875, "tags": {"name": "Jenkyn's Crag", "tourism": "viewpoint"}}, {"type": "node", "id": 627991632, "lat": 54.3249073, "lon": -2.7496427, "tags": {"tourism": "viewpoint"}}, {"type": "node", "id": 686809517, "lat": 54.5899187, "lon": -3.1408812, "tags": {"direction": "270", "name": "Friar's Crag", "tourism": "viewpoint", "website": "https://www.nationaltrust.org.uk/visit/lake-district/borrowdale-and-derwent-water/star-gazing-walk-at-friars-crag", "wikidata": "Q85762143", "wikipedia": "en:Friars' Crag"}}, {"type": "node", "id": 769861270, "lat": 54.3805026, "lon": -2.9207625, "tags": {"tourism": "viewpoint"}}, {"type": "node", "id": 986753581, "lat": 54.2025143, "lon": -3.0828418, "tags": {"ele": "133", "name": "Hoad Hill", "natural": "peak", "tourism": "viewpoint"}}, {"type": "node", "id": 1079131441, "lat": 54.5592426, "lon": -3.0787061, "tags": {"tourism": "viewpoint"}}, {"type": "node", "id": 1277039400, "lat": 54.5672727, "lon": -3.1302352, "tags": {"name": "Ashness Bridge", "tourism": "viewpoint", "waterway": "waterfall"}}, {"type": "node", "id": 1277050135, "lat": 54.5609149, "lon": -3.1332108, "tags": {"name": "Surprise View Point", "tourism": "viewpoint"}}, {"type": "node", "id": 1371546980, "lat": 54.2363123, "lon": -3.2722492, "tags": {"name": "Millom Rock Park", "tourism": "viewpoint"}}, {"type": "node", "id": 1533323044, "lat": 54.3936133, "lon": -3.1413601, "tags": {"tourism": "viewpoint"}}, {"type": "node", "id": 1587423691, "lat": 54.4561224, "lon": -3.0106189, "tags": {"note": "Steep and in places rough path.", "tourism": "viewpoint"}}, {"type": "node", "id": 1746667925, "lat": 54.2936166, "lon": -2.7875089, "tags": {"name": "Helsington", "tourism": "viewpoint"}}, {"type": "node", "id": 1808214699, "lat": 54.4326666, "lon": -2.9520018, "tags": {"direction": "90", "tourism": "viewpoint"}}, {"type": "node", "id": 1808214815, "lat": 54.4326863, "lon": -2.9512624, "tags": {"tourism": "viewpoint"}}, {"type": "node", "id": 1824465313, "lat": 54.2781404, "lon": -3.0218966, "tags": {"tourism": "viewpoint"}}, {"type": "node", "id": 1906846090, "lat": 54.38405, "lon": -3.2725981, "tags": {"tourism": "viewpoint"}}, {"type": "node", "id": 2018366067, "lat": 54.4621961, "lon": -3.2216235, "tags": {"tourism": "viewpoint"}}, {"type": "node", "id": 2123551612, "lat": 54.5064572, "lon": -2.9040318, "tags": {"historic": "mine", "name": "Myers Head Lead Mine", "note": "The actual entrance is across Pasture beck under the tree. It has been filled in for safety reasons. These short walls were to deliver a head of water to drive the waterwheel.", "source": "LK", "tourism": "viewpoint"}}, {"type": "node", "id": 2173268458, "lat": 54.3208295, "lon": -2.7907847}, {"type": "node", "id": 2201789861, "lat": 54.2920573, "lon": -2.7225388, "tags": {"ele": "180", "name": "The Helm", "natural": "peak", "source": "Bing", "tourism": "viewpoint"}}, {"type": "node", "id": 2319998806, "lat": 54.4173304, "lon": -3.0036856, "tags": {"direction": "315", "name": "View point looking north west", "tourism": "viewpoint"}}, {"type": "node", "id": 2608399265, "lat": 54.2730105, "lon": -2.9692359, "tags": {"tourism": "viewpoint"}}, {"type": "node", "id": 2682064793, "lat": 54.5940369, "lon": -3.1317838, "tags": {"name": "Castlehead", "tourism": "viewpoint"}}, {"type": "node", "id": 2842002628, "lat": 54.5563272, "lon": -3.1957828, "tags": {"abandoned": "yes", "historic": "mine", "mineral": "lead", "name": "Goldscope East Mine - Grand Level", "source": "Bing", "tourism": "viewpoint"}}, {"type": "node", "id": 2897129039, "lat": 54.4344994, "lon": -3.0446418, "tags": {"name": "Elterwater Slate Quarry Viewpoint", "tourism": "viewpoint"}}, {"type": "node", "id": 3035477208, "lat": 54.2517834, "lon": -2.8728447, "tags": {"direction": "250", "tourism": "viewpoint"}}, {"type": "node", "id": 3136045559, "lat": 54.3620364, "lon": -2.9265929, "tags": {"tourism": "viewpoint"}}, {"type": "node", "id": 3215146527, "lat": 54.210295, "lon": -3.257705, "tags": {"tourism": "viewpoint"}}, {"type": "node", "id": 3215160908, "lat": 54.2076628, "lon": -3.270652, "tags": {"tourism": "viewpoint"}}, {"type": "node", "id": 3233337486, "lat": 54.2335143, "lon": -3.2869205, "tags": {"name": "Millom Park elevated viewing platform", "tourism": "viewpoint"}}, {"type": "node", "id": 3263077144, "lat": 54.5038972, "lon": -3.1889445, "tags": {"abandoned": "yes", "historic": "mine", "man_made": "mine", "mineral": "graphite", "name": "Plumbago Mines", "tourism": "viewpoint", "wikidata": "Q2262378", "wikipedia": "en:Seathwaite, Cumberland"}}, {"type": "node", "id": 3598254944, "lat": 54.5316886, "lon": -2.7950234, "tags": {"tourism": "viewpoint"}}, {"type": "node", "id": 4153024656, "lat": 54.2445241, "lon": -2.8312479}, {"type": "node", "id": 4153024657, "lat": 54.2443622, "lon": -2.8327316}, {"type": "node", "id": 4197411508, "lat": 54.5566857, "lon": -2.9366718, "tags": {"direction": "NE", "tourism": "viewpoint"}}, {"type": "node", "id": 4264452140, "lat": 54.3649459, "lon": -2.9134268, "tags": {"name": "Biskey Howe", "tourism": "viewpoint"}}, {"type": "node", "id": 4318740466, "lat": 54.3597425, "lon": -2.9142004, "tags": {"name": "Post Knott", "tourism": "viewpoint"}}, {"type": "node", "id": 4428666713, "lat": 54.4159313, "lon": -3.0587131, "tags": {"tourism": "viewpoint"}}, {"type": "node", "id": 4451988373, "lat": 54.3903077, "lon": -3.0409386, "tags": {"alt_name": "Tom Gill Waterfall", "name": "Tom Ghyll Waterfalls", "source": "Rec by WvD 2013-07-19", "tourism": "viewpoint", "waterway": "waterfall"}}, {"type": "node", "id": 4515824166, "lat": 54.5834175, "lon": -3.1352623, "tags": {"source": "GPS Survey", "tourism": "viewpoint"}}, {"type": "node", "id": 4530317307, "lat": 54.5494902, "lon": -2.9853335, "tags": {"abandoned": "yes", "historic": "mine", "man_made": "mine", "mineral": "lead", "name": "Greenside Lead Mine", "tourism": "viewpoint", "wikidata": "Q18160313", "wikipedia": "en:Greenside Mine"}}, {"type": "node", "id": 4533686071, "lat": 54.5212356, "lon": -2.9154054, "tags": {"abandoned": "yes", "historic": "mine", "mineral": "copper", "name": "Dubhow Copper Mine", "tourism": "viewpoint"}}, {"type": "node", "id": 4541300472, "lat": 54.4001116, "lon": -3.2727228, "tags": {"disused": "yes", "man_made": "mine", "mineral": "iron", "name": "Nab Gill Iron Mine", "note": "Tunnels reputedly 700m into the mountainside", "tourism": "viewpoint"}}, {"type": "node", "id": 4596870696, "lat": 54.416426, "lon": -3.0587678, "tags": {"tourism": "viewpoint"}}, {"type": "node", "id": 4596874133, "lat": 54.4163171, "lon": -3.0586636, "tags": {"description": "View from the bottom of Cathedral Quarries down into 'The Cathedral' chamber through a large rock window", "name": "The Cathedral chamber", "tourism": "viewpoint"}}, {"type": "node", "id": 4609483203, "lat": 54.3151193, "lon": -3.0732389, "tags": {"tourism": "viewpoint"}}, {"type": "node", "id": 4793696792, "lat": 54.2538623, "lon": -2.8442935, "tags": {"tourism": "viewpoint"}}, {"type": "node", "id": 4878604811, "lat": 54.5143394, "lon": -3.1301983, "tags": {"direction": "170", "tourism": "viewpoint"}}, {"type": "node", "id": 4986817383, "lat": 54.5328507, "lon": -3.161668, "tags": {"name": "Standing Stones", "tourism": "viewpoint"}}, {"type": "node", "id": 4989541947, "lat": 54.555986, "lon": -3.1585849, "tags": {"name": "Salt Spring", "note": "A bath house was built here approx 1820 to provide theraputic bathing.", "tourism": "viewpoint"}}, {"type": "node", "id": 4990578667, "lat": 54.3883968, "lon": -3.0314862, "tags": {"name": "Tarn Hows Viewpoint", "tourism": "viewpoint"}}, {"type": "node", "id": 5005227105, "lat": 54.5673509, "lon": -2.734988}, {"type": "node", "id": 5005227106, "lat": 54.5668736, "lon": -2.7348056}, {"type": "node", "id": 5005227107, "lat": 54.5661958, "lon": -2.7345705}, {"type": "node", "id": 5005227108, "lat": 54.5659118, "lon": -2.734477}, {"type": "node", "id": 5005227109, "lat": 54.5657257, "lon": -2.7344062}, {"type": "node", "id": 5005227110, "lat": 54.5652054, "lon": -2.7341221}, {"type": "node", "id": 5005227111, "lat": 54.5650096, "lon": -2.733922}, {"type": "node", "id": 5005227112, "lat": 54.56468, "lon": -2.7330725}, {"type": "node", "id": 5005227113, "lat": 54.5642927, "lon": -2.731679}, {"type": "node", "id": 5005227114, "lat": 54.5640891, "lon": -2.7310196}, {"type": "node", "id": 5005227115, "lat": 54.5636889, "lon": -2.7301323}, {"type": "node", "id": 5005227116, "lat": 54.5633269, "lon": -2.7292818}, {"type": "node", "id": 5005227117, "lat": 54.5631839, "lon": -2.7289378}, {"type": "node", "id": 5005227118, "lat": 54.5630029, "lon": -2.7282354}, {"type": "node", "id": 5005227119, "lat": 54.5627386, "lon": -2.7260098}, {"type": "node", "id": 5005227120, "lat": 54.5627218, "lon": -2.7253244}, {"type": "node", "id": 5005227921, "lat": 54.5627297, "lon": -2.7252127}, {"type": "node", "id": 5005227922, "lat": 54.5625814, "lon": -2.7236066}, {"type": "node", "id": 5005227923, "lat": 54.5623991, "lon": -2.7224975}, {"type": "node", "id": 5005227924, "lat": 54.5623477, "lon": -2.7222954}, {"type": "node", "id": 5018397919, "lat": 54.5648661, "lon": -3.1622829, "tags": {"tourism": "viewpoint"}}, {"type": "node", "id": 5204343570, "lat": 54.5973318, "lon": -3.2239906, "tags": {"name": "DOA", "tourism": "viewpoint", "wheelchair": "no"}}, {"type": "node", "id": 5300980145, "lat": 54.5671521, "lon": -3.1300364, "tags": {"description": "Much photographed beauty spot", "name": "Ashness Bridge", "tourism": "viewpoint"}}, {"type": "node", "id": 5352278882, "lat": 54.4060358, "lon": -3.0546189, "tags": {"direction": "45", "note": "View of the Hodge Close Skull when the water is mirror like", "tourism": "viewpoint"}}, {"type": "node", "id": 5401809953, "lat": 54.376152, "lon": -3.1727421, "tags": {"tourism": "viewpoint"}}, {"type": "node", "id": 5502672097, "lat": 54.4122954, "lon": -2.9268751, "tags": {"man_made": "cairn", "tourism": "viewpoint"}}, {"type": "node", "id": 5504538904, "lat": 54.3981213, "lon": -3.0718811, "tags": {"tourism": "viewpoint"}}, {"type": "node", "id": 5534739863, "lat": 54.2445048, "lon": -2.8311903}, {"type": "node", "id": 5534739864, "lat": 54.2444929, "lon": -2.8312873}, {"type": "node", "id": 5534739865, "lat": 54.2445181, "lon": -2.8312964}, {"type": "node", "id": 5534739866, "lat": 54.2445301, "lon": -2.8311994}, {"type": "node", "id": 5534739870, "lat": 54.2443712, "lon": -2.8327348}, {"type": "node", "id": 5534739871, "lat": 54.2443608, "lon": -2.8328215}, {"type": "node", "id": 5534739872, "lat": 54.2443435, "lon": -2.8328155}, {"type": "node", "id": 5534739873, "lat": 54.2443262, "lon": -2.8327824}, {"type": "node", "id": 5534739874, "lat": 54.2443306, "lon": -2.8327436}, {"type": "node", "id": 5534739875, "lat": 54.2443532, "lon": -2.8327285}, {"type": "node", "id": 5534739876, "lat": 54.2443522, "lon": -2.8328185}, {"type": "node", "id": 5695236367, "lat": 54.4427803, "lon": -2.9442582, "tags": {"tourism": "viewpoint"}}, {"type": "node", "id": 5741045443, "lat": 54.3621919, "lon": -2.9676868, "tags": {"tourism": "viewpoint"}}, {"type": "node", "id": 5946693491, "lat": 54.4045586, "lon": -3.1729176, "tags": {"name": "Hardknot Pass Viewpoint", "tourism": "viewpoint"}}, {"type": "node", "id": 6005641106, "lat": 54.5815802, "lon": -3.1209703, "tags": {"tourism": "viewpoint"}}, {"type": "node", "id": 6005641107, "lat": 54.5825173, "lon": -3.1202781, "tags": {"tourism": "viewpoint"}}, {"type": "node", "id": 6255818385, "lat": 54.5632339, "lon": -3.0776299, "tags": {"description": "View of Thirlmere", "direction": "135", "tourism": "viewpoint"}}, {"type": "node", "id": 6357569991, "lat": 54.5776529, "lon": -2.921771, "tags": {"tourism": "viewpoint"}}, {"type": "node", "id": 6781521900, "lat": 54.4545598, "lon": -2.8683838, "tags": {"description": "Views over Kentmere Reservoir and surrounding fells", "tourism": "viewpoint"}}, {"type": "node", "id": 7088064307, "lat": 54.2774598, "lon": -2.7753782, "tags": {"description": "View of Sizergh Castle and surrounding landscape", "operator": "National Trust", "tourism": "viewpoint"}}, {"type": "node", "id": 9399967679, "lat": 54.5588088, "lon": -3.0630058, "tags": {"tourism": "viewpoint"}}, {"type": "node", "id": 9399971469, "lat": 54.5198497, "lon": -3.162794, "tags": {"description": "View of Borrowdale", "tourism": "viewpoint"}}, {"type": "node", "id": 9522448583, "lat": 54.4325619, "lon": -2.9515935, "tags": {"tourism": "viewpoint"}}, {"type": "node", "id": 9759499686, "lat": 54.3862762, "lon": -2.9036233, "tags": {"direction": "Orrest Head Viewpoint", "tourism": "viewpoint"}}, {"type": "node", "id": 9810293481, "lat": 54.3842751, "lon": -3.2731836, "tags": {"description": "Stanley Force Upper falls steel viewing platform completed 2021", "direction": "160", "tourism": "viewpoint"}}, {"type": "node", "id": 9810293483, "lat": 54.3850413, "lon": -3.2731029, "tags": {"description": "Bridge is Stanley force lower falls viewing platform", "direction": "180", "tourism": "viewpoint"}}, {"type": "node", "id": 9883912414, "lat": 54.5971448, "lon": -2.8022956, "tags": {"tourism": "viewpoint"}}, {"type": "node", "id": 9999159483, "lat": 54.5633361, "lon": -2.7293434}, {"type": "node", "id": 9999159489, "lat": 54.5634033, "lon": -2.7294936}, {"type": "node", "id": 9999251143, "lat": 54.5626464, "lon": -2.7241759}, {"type": "node", "id": 9999251243, "lat": 54.5627344, "lon": -2.7248946}, {"type": "node", "id": 9999271752, "lat": 54.5638991, "lon": -2.7305983}, {"type": "node", "id": 9999271797, "lat": 54.5645773, "lon": -2.7327369}, {"type": "node", "id": 9999271801, "lat": 54.5646498, "lon": -2.7330066}, {"type": "node", "id": 9999272152, "lat": 54.5670281, "lon": -2.7348456}, {"type": "node", "id": 9999272162, "lat": 54.5672807, "lon": -2.734957}, {"type": "node", "id": 9999272165, "lat": 54.5675867, "lon": -2.7349862}, {"type": "node", "id": 9999286022, "lat": 54.5627474, "lon": -2.7254391}, {"type": "node", "id": 9999286023, "lat": 54.5627564, "lon": -2.725718}, {"type": "node", "id": 9999286024, "lat": 54.5627363, "lon": -2.7258394}, {"type": "node", "id": 9999286025, "lat": 54.5627787, "lon": -2.7263704}, {"type": "node", "id": 9999286026, "lat": 54.5628338, "lon": -2.7267515}, {"type": "node", "id": 9999286027, "lat": 54.5628068, "lon": -2.7266307}, {"type": "node", "id": 9999286028, "lat": 54.5628364, "lon": -2.7270086}, {"type": "node", "id": 9999286029, "lat": 54.5629313, "lon": -2.7276349}, {"type": "node", "id": 9999286030, "lat": 54.5631049, "lon": -2.7286823}, {"type": "node", "id": 9999286041, "lat": 54.5632235, "lon": -2.7290481}, {"type": "node", "id": 9999286042, "lat": 54.5632875, "lon": -2.7291521}, {"type": "node", "id": 9999286043, "lat": 54.5633765, "lon": -2.7294004}, {"type": "node", "id": 9999286044, "lat": 54.5634953, "lon": -2.7296774}, {"type": "node", "id": 9999286045, "lat": 54.5637782, "lon": -2.7303619}, {"type": "node", "id": 9999286052, "lat": 54.5639421, "lon": -2.7307595}, {"type": "node", "id": 9999286053, "lat": 54.5640116, "lon": -2.7308435}, {"type": "node", "id": 9999286054, "lat": 54.564129, "lon": -2.7310966}, {"type": "node", "id": 9999286055, "lat": 54.5641736, "lon": -2.731284}, {"type": "node", "id": 9999286056, "lat": 54.5643842, "lon": -2.7320063}, {"type": "node", "id": 9999286057, "lat": 54.5645236, "lon": -2.7325091}, {"type": "node", "id": 9999286058, "lat": 54.564399, "lon": -2.732097}, {"type": "node", "id": 9999286059, "lat": 54.5647884, "lon": -2.7334104}, {"type": "node", "id": 9999286060, "lat": 54.5648952, "lon": -2.7336997}, {"type": "node", "id": 9999286061, "lat": 54.5650976, "lon": -2.7340772}, {"type": "node", "id": 9999286062, "lat": 54.5652432, "lon": -2.7341315}, {"type": "node", "id": 9999286063, "lat": 54.5653004, "lon": -2.7342004}, {"type": "node", "id": 9999286064, "lat": 54.5654134, "lon": -2.7342777}, {"type": "node", "id": 9999286066, "lat": 54.5658606, "lon": -2.7344595}, {"type": "node", "id": 9999286067, "lat": 54.5661526, "lon": -2.7344753}, {"type": "node", "id": 9999286068, "lat": 54.5660924, "lon": -2.7344877}, {"type": "node", "id": 9999286069, "lat": 54.5662343, "lon": -2.7347257}, {"type": "node", "id": 9999286070, "lat": 54.566216, "lon": -2.7346013}, {"type": "node", "id": 9999286071, "lat": 54.5662644, "lon": -2.7346156}, {"type": "node", "id": 9999286073, "lat": 54.5663366, "lon": -2.7347294}, {"type": "node", "id": 9999286074, "lat": 54.5664343, "lon": -2.734713}, {"type": "node", "id": 9999286075, "lat": 54.5665357, "lon": -2.7347582}, {"type": "node", "id": 9999286076, "lat": 54.5666212, "lon": -2.7347483}, {"type": "node", "id": 9999286077, "lat": 54.5668085, "lon": -2.7348112}, {"type": "node", "id": 9999286078, "lat": 54.5669531, "lon": -2.7348494}, {"type": "node", "id": 9999286079, "lat": 54.5671062, "lon": -2.7349117}, {"type": "node", "id": 9999286080, "lat": 54.5675128, "lon": -2.7350154}, {"type": "node", "id": 9999286081, "lat": 54.5676455, "lon": -2.735017}, {"type": "node", "id": 10170864505, "lat": 54.3208264, "lon": -2.7907394}, {"type": "node", "id": 10170864506, "lat": 54.3208207, "lon": -2.7907341}, {"type": "node", "id": 10170864507, "lat": 54.3208142, "lon": -2.7907326}, {"type": "node", "id": 10170864508, "lat": 54.3208079, "lon": -2.7907348}, {"type": "node", "id": 10170864509, "lat": 54.320803, "lon": -2.7907897}, {"type": "node", "id": 10170864510, "lat": 54.3208081, "lon": -2.7907948}, {"type": "node", "id": 10170864511, "lat": 54.3208139, "lon": -2.7907968}, {"type": "node", "id": 10170864512, "lat": 54.3208198, "lon": -2.7907957}, {"type": "node", "id": 10170864513, "lat": 54.3208251, "lon": -2.7907916}, {"type": "node", "id": 10170864514, "lat": 54.3208024, "lon": -2.7907406}, {"type": "node", "id": 10170864515, "lat": 54.3207983, "lon": -2.7907493}, {"type": "node", "id": 10170864516, "lat": 54.3207963, "lon": -2.7907599}, {"type": "node", "id": 10170868117, "lat": 54.3207964, "lon": -2.790771}, {"type": "node", "id": 10170868118, "lat": 54.3207988, "lon": -2.7907813}, {"type": "node", "id": 10170868119, "lat": 54.3208324, "lon": -2.7907759}, {"type": "node", "id": 10170868120, "lat": 54.3208336, "lon": -2.790766}, {"type": "node", "id": 10170868121, "lat": 54.3208329, "lon": -2.7907559}, {"type": "node", "id": 10170868122, "lat": 54.3208304, "lon": -2.7907468}, {"type": "node", "id": 10201740411, "lat": 54.5772667, "lon": -2.90844, "tags": {"tourism": "viewpoint"}}, {"type": "node", "id": 10232988777, "lat": 54.2750353, "lon": -2.7770453, "tags": {"description": "View of Sizergh Castle and surrounding landscape", "operator": "National Trust", "tourism": "viewpoint"}}, {"type": "node", "id": 10284901211, "lat": 54.4484569, "lon": -2.9786457, "tags": {"direction": "-10", "tourism": "viewpoint"}}, {"type": "node", "id": 11047623999, "lat": 54.4458338, "lon": -2.8910933, "tags": {"tourism": "viewpoint"}}, {"type": "node", "id": 11560037626, "lat": 54.2154565, "lon": -2.7929452, "tags": {"tourism": "viewpoint"}}, {"type": "node", "id": 11987685017, "lat": 54.5481641, "lon": -3.1622531, "tags": {"amenity": "bench", "tourism": "viewpoint"}}, {"type": "node", "id": 12255218282, "lat": 54.5719683, "lon": -3.2883525, "tags": {"direction": "230", "tourism": "viewpoint"}}, {"type": "node", "id": 12832290147, "lat": 54.4198738, "lon": -3.157189, "tags": {"direction": "230", "tourism": "viewpoint"}}, {"type": "node", "id": 12833100782, "lat": 54.5657794, "lon": -2.9632095, "tags": {"direction": "135", "tourism": "viewpoint"}}, {"type": "way", "id": 511767755, "nodes": [352955401, 9999286081, 9999272165, 9999286080, 5005227105, 9999272162, 9999286079, 9999272152, 9999286078, 5005227106, 9999286077, 9999286076, 9999286075, 9999286074, 9999286073, 9999286069], "tags": {"name": "Knipe Scar", "natural": "cliff", "tourism": "viewpoint"}}, {"type": "way", "id": 577309106, "nodes": [5534739863, 5534739864, 5534739865, 4153024656, 5534739866, 5534739863], "tags": {"leisure": "bird_hide", "man_made": "tower", "surface": "wood", "tourism": "viewpoint", "tower:type": "observation"}}, {"type": "way", "id": 577309107, "nodes": [5534739870, 5534739871, 5534739876, 5534739872, 5534739873, 5534739874, 5534739875, 4153024657, 5534739870], "tags": {"building": "no", "leisure": "bird_hide", "surface": "wood", "tourism": "viewpoint"}}, {"type": "way", "id": 1091803198, "nodes": [9999251243, 9999251143, 5005227922, 5005227923, 5005227924], "tags": {"name": "Knipe Scar", "natural": "cliff", "tourism": "viewpoint"}}, {"type": "way", "id": 1091806234, "nodes": [9999286027, 9999286025, 5005227119, 9999286024, 9999286023, 9999286022, 5005227120, 5005227921], "tags": {"name": "Knipe Scar", "natural": "cliff", "tourism": "viewpoint"}}, {"type": "way", "id": 1091806235, "nodes": [9999286030, 5005227118, 9999286029, 9999286028, 9999286026], "tags": {"name": "Knipe Scar", "natural": "cliff", "tourism": "viewpoint"}}, {"type": "way", "id": 1091806239, "nodes": [9999286058, 9999286056, 5005227113, 9999286055, 9999286054, 5005227114, 9999286053, 9999286052, 9999271752, 9999286045, 5005227115, 9999286044, 9999159489, 9999286043, 9999159483, 5005227116, 9999286042, 9999286041, 5005227117], "tags": {"name": "Knipe Scar", "natural": "cliff", "tourism": "viewpoint"}}, {"type": "way", "id": 1091806240, "nodes": [9999286068, 5005227108, 9999286066, 5005227109, 9999286064, 9999286063, 9999286062, 5005227110, 9999286061, 5005227111, 9999286060, 9999286059, 5005227112, 9999271801, 9999271797, 9999286057], "tags": {"name": "Knipe Scar", "natural": "cliff", "tourism": "viewpoint"}}, {"type": "way", "id": 1091806241, "nodes": [9999286071, 9999286070, 5005227107, 9999286067], "tags": {"name": "Knipe Scar", "natural": "cliff", "tourism": "viewpoint"}}, {"type": "way", "id": 1111711440, "nodes": [2173268458, 10170868119, 10170868120, 10170868121, 10170868122, 10170864505, 10170864506, 10170864507, 10170864508, 10170864514, 10170864515, 10170864516, 10170868117, 10170868118, 10170864509, 10170864510, 10170864511, 10170864512, 10170864513, 2173268458], "tags": {"amenity": "shelter", "building": "roof", "direction": "0-360", "image": "https://www.geograph.org.uk/photo/2822233", "layer": "1", "name": "The Mushroom", "note": "Both a shelter and a viewpoint. Combining allows render to determine which to prioritise", "shelter_type": "weather_shelter", "tourism": "viewpoint", "website": "https://en.wikipedia.org/wiki/Scout_Scar#:~:text=At%20the%20lower,%20southern,%20summit,Central%20Fells%20and%20other%20landmarks."}}]}